94908KDBQ DBQ20120601000009806/01/12 00:00:49  5-MIN KDBQ 010600Z AUTO 04003KT 10SM CLR 09/07 A2995 1050 86 600 040/03 RMK AO2
94908KDBQ DBQ20120601000509806/01/12 00:05:31  5-MIN KDBQ 010605Z AUTO 04003KT 10SM CLR 09/07 A2995 1060 86 600 040/03 RMK AO2
94908KDBQ DBQ20120601001009806/01/12 00:10:31  5-MIN KDBQ 010610Z AUTO 04004KT 10SM CLR 09/06 A2994 1060 83 600 040/04 RMK AO2
94908KDBQ DBQ20120601001509806/01/12 00:15:34  5-MIN KDBQ 010615Z AUTO 04003KT 10SM CLR 08/06 A2994 1060 86 600 040/03 RMK AO2
94908KDBQ DBQ20120601002009806/01/12 00:20:31  5-MIN KDBQ 010620Z AUTO 03003KT 10SM CLR 08/06 A2994 1060 86 600 030/03 RMK AO2
94908KDBQ DBQ20120601002509806/01/12 00:25:31  5-MIN KDBQ 010625Z AUTO 02004KT 10SM CLR 08/06 A2994 1060 86 600 020/04 RMK AO2
94908KDBQ DBQ20120601003009806/01/12 00:30:31  5-MIN KDBQ 010630Z AUTO 02004KT 10SM CLR 08/06 A2994 1060 86 600 020/04 RMK AO2
94908KDBQ DBQ20120601003509806/01/12 00:35:31  5-MIN KDBQ 010635Z AUTO 03004KT 10SM CLR 08/06 A2993 1070 86 600 030/04 RMK AO2
94908KDBQ DBQ20120601004009806/01/12 00:40:31  5-MIN KDBQ 010640Z AUTO 02003KT 10SM CLR 08/06 A2994 1060 86 600 020/03 RMK AO2
94908KDBQ DBQ20120601004509806/01/12 00:45:31  5-MIN KDBQ 010645Z AUTO 00000KT 10SM CLR 08/06 A2994 1060 89 500 000/00 RMK AO2
94908KDBQ DBQ20120601005011506/01/12 00:50:31  5-MIN KDBQ 010650Z AUTO 02003KT 10SM CLR 08/06 A2993 1070 86 500 020/03 RMK AO2 SLP141 T00780056
94908KDBQ DBQ20120601005509806/01/12 00:55:31  5-MIN KDBQ 010655Z AUTO 01003KT 10SM CLR 08/06 A2993 1070 86 500 010/03 RMK AO2
94908KDBQ DBQ20120601010009806/01/12 01:00:31  5-MIN KDBQ 010700Z AUTO 01004KT 10SM CLR 08/06 A2993 1070 82 600 010/04 RMK AO2
94908KDBQ DBQ20120601010509806/01/12 01:05:31  5-MIN KDBQ 010705Z AUTO 36003KT 10SM CLR 08/06 A2993 1070 86 500 360/03 RMK AO2
94908KDBQ DBQ20120601011009806/01/12 01:10:31  5-MIN KDBQ 010710Z AUTO 36003KT 10SM CLR 07/05 A2993 1070 86 400 360/03 RMK AO2
94908KDBQ DBQ20120601011509806/01/12 01:15:31  5-MIN KDBQ 010715Z AUTO 34003KT 10SM CLR 07/04 A2993 1070 86 400 340/03 RMK AO2
94908KDBQ DBQ20120601012009806/01/12 01:20:31  5-MIN KDBQ 010720Z AUTO 35003KT 10SM CLR 07/04 A2993 1070 86 400 350/03 RMK AO2
94908KDBQ DBQ20120601012509806/01/12 01:25:31  5-MIN KDBQ 010725Z AUTO 35004KT 10SM CLR 07/05 A2993 1070 86 400 350/04 RMK AO2
94908KDBQ DBQ20120601013009806/01/12 01:30:31  5-MIN KDBQ 010730Z AUTO 34004KT 10SM CLR 07/04 A2993 1070 86 400 340/04 RMK AO2
94908KDBQ DBQ20120601013509806/01/12 01:35:31  5-MIN KDBQ 010735Z AUTO 34004KT 10SM CLR 06/04 A2993 1070 89 300 340/04 RMK AO2
94908KDBQ DBQ20120601014009806/01/12 01:40:31  5-MIN KDBQ 010740Z AUTO 33004KT 10SM CLR 06/04 A2993 1070 89 300 330/04 RMK AO2
94908KDBQ DBQ20120601014509806/01/12 01:45:31  5-MIN KDBQ 010745Z AUTO 33004KT 10SM CLR 07/05 A2993 1070 89 400 330/04 RMK AO2
94908KDBQ DBQ20120601015011506/01/12 01:50:31  5-MIN KDBQ 010750Z AUTO 33005KT 10SM CLR 07/05 A2993 1070 89 400 330/05 RMK AO2 SLP139 T00670050
94908KDBQ DBQ20120601015509806/01/12 01:55:31  5-MIN KDBQ 010755Z AUTO 33004KT 10SM CLR 06/05 A2992 1070 93 300 330/04 RMK AO2
94908KDBQ DBQ20120601024509806/01/12 02:45:31  5-MIN KDBQ 010845Z AUTO 34005KT 10SM CLR 06/04 A2992 1080 92 200 340/05 RMK AO2
94908KDBQ DBQ20120601025012106/01/12 02:50:31  5-MIN KDBQ 010850Z AUTO 35005KT 10SM CLR 06/04 A2992 1080 92 200 350/05 RMK AO2 SLP138 T00560044 58004
94908KDBQ DBQ20120601025509806/01/12 02:55:31  5-MIN KDBQ 010855Z AUTO 36004KT 10SM CLR 06/04 A2992 1080 89 300 360/04 RMK AO2
94908KDBQ DBQ20120601030009806/01/12 03:00:31  5-MIN KDBQ 010900Z AUTO 36004KT 10SM CLR 06/04 A2992 1080 89 300 360/04 RMK AO2
94908KDBQ DBQ20120601030509806/01/12 03:05:31  5-MIN KDBQ 010905Z AUTO 01004KT 10SM CLR 06/04 A2992 1080 92 200 010/04 RMK AO2
94908KDBQ DBQ20120601031009806/01/12 03:10:31  5-MIN KDBQ 010910Z AUTO 01004KT 10SM CLR 06/04 A2992 1080 89 200 010/04 RMK AO2
94908KDBQ DBQ20120601031509806/01/12 03:15:31  5-MIN KDBQ 010915Z AUTO 36004KT 10SM CLR 06/04 A2992 1080 89 300 360/04 RMK AO2
94908KDBQ DBQ20120601032009806/01/12 03:20:31  5-MIN KDBQ 010920Z AUTO 35004KT 10SM CLR 06/04 A2992 1080 89 300 350/04 RMK AO2
94908KDBQ DBQ20120601032509806/01/12 03:25:31  5-MIN KDBQ 010925Z AUTO 35004KT 10SM CLR 07/05 A2992 1080 89 400 350/04 RMK AO2
94908KDBQ DBQ20120601033009806/01/12 03:30:31  5-MIN KDBQ 010930Z AUTO 36004KT 10SM CLR 07/05 A2992 1080 86 400 360/04 RMK AO2
94908KDBQ DBQ20120601033509806/01/12 03:35:31  5-MIN KDBQ 010935Z AUTO 01004KT 10SM CLR 07/05 A2992 1080 89 400 010/04 RMK AO2
94908KDBQ DBQ20120601034009806/01/12 03:40:31  5-MIN KDBQ 010940Z AUTO 36004KT 10SM CLR 07/04 A2992 1080 86 400 350/04 RMK AO2
94908KDBQ DBQ20120601034509806/01/12 03:45:31  5-MIN KDBQ 010945Z AUTO 35005KT 10SM CLR 06/04 A2992 1080 89 300 340/05 RMK AO2
94908KDBQ DBQ20120601035011506/01/12 03:50:31  5-MIN KDBQ 010950Z AUTO 34005KT 10SM CLR 06/04 A2992 1080 92 200 340/05 RMK AO2 SLP137 T00560044
94908KDBQ DBQ20120601035509806/01/12 03:55:31  5-MIN KDBQ 010955Z AUTO 34005KT 10SM CLR 06/04 A2992 1080 89 200 340/05 RMK AO2
94908KDBQ DBQ20120601040009806/01/12 04:00:31  5-MIN KDBQ 011000Z AUTO 34005KT 10SM CLR 06/04 A2992 1080 89 200 340/05 RMK AO2
94908KDBQ DBQ20120601040509806/01/12 04:05:31  5-MIN KDBQ 011005Z AUTO 33004KT 10SM CLR 06/04 A2992 1080 92 200 330/04 RMK AO2
94908KDBQ DBQ20120601041009806/01/12 04:10:31  5-MIN KDBQ 011010Z AUTO 34004KT 10SM CLR 06/04 A2992 1080 92 200 340/04 RMK AO2
94908KDBQ DBQ20120601041509806/01/12 04:15:31  5-MIN KDBQ 011015Z AUTO 34004KT 10SM CLR 06/04 A2992 1070 92 200 340/04 RMK AO2
94908KDBQ DBQ20120601042009806/01/12 04:20:31  5-MIN KDBQ 011020Z AUTO 34005KT 10SM CLR 06/04 A2992 1070 92 200 330/05 RMK AO2
94908KDBQ DBQ20120601042509706/01/12 04:25:31  5-MIN KDBQ 011025Z AUTO 34005KT 8SM CLR 06/04 A2992 1070 92 200 330/05 RMK AO2
94908KDBQ DBQ20120601043009706/01/12 04:30:31  5-MIN KDBQ 011030Z AUTO 34006KT 7SM CLR 06/04 A2993 1070 92 200 330/06 RMK AO2
94908KDBQ DBQ20120601043509706/01/12 04:35:31  5-MIN KDBQ 011035Z AUTO 34005KT 7SM CLR 06/04 A2993 1070 92 200 340/05 RMK AO2
94908KDBQ DBQ20120601044009706/01/12 04:40:31  5-MIN KDBQ 011040Z AUTO 34005KT 7SM CLR 06/05 A2993 1070 96 200 340/05 RMK AO2
94908KDBQ DBQ20120601044509706/01/12 04:45:31  5-MIN KDBQ 011045Z AUTO 35005KT 7SM CLR 06/05 A2993 1070 96 200 340/05 RMK AO2
94908KDBQ DBQ20120601045010906/01/12 04:50:31  5-MIN KDBQ 011050Z 35006KT 8SM CLR 06/05 A2993 1070 96 200 340/06 RMK AO2 SLP139 T00560050
94908KDBQ DBQ20120601045509206/01/12 04:55:31  5-MIN KDBQ 011055Z 36004KT 8SM CLR 06/05 A2992 1080 96 200 360/04 RMK AO2
94908KDBQ DBQ20120601050009206/01/12 05:00:31  5-MIN KDBQ 011100Z 01004KT 9SM CLR 06/05 A2992 1080 93 300 010/04 RMK AO2
94908KDBQ DBQ20120601050509306/01/12 05:05:31  5-MIN KDBQ 011105Z 36003KT 10SM CLR 06/05 A2992 1070 93 300 350/03 RMK AO2
94908KDBQ DBQ20120601051009306/01/12 05:10:31  5-MIN KDBQ 011110Z 35003KT 10SM CLR 07/06 A2992 1070 93 400 350/03 RMK AO2
94908KDBQ DBQ20120601051509306/01/12 05:15:31  5-MIN KDBQ 011115Z 35004KT 10SM CLR 07/06 A2993 1070 93 400 350/04 RMK AO2
94908KDBQ DBQ20120601052009306/01/12 05:20:31  5-MIN KDBQ 011120Z 35003KT 10SM CLR 07/06 A2993 1070 89 400 350/03 RMK AO2
94908KDBQ DBQ20120601052509306/01/12 05:25:31  5-MIN KDBQ 011125Z 00000KT 10SM CLR 07/06 A2993 1070 89 400 000/00 RMK AO2
94908KDBQ DBQ20120601053009306/01/12 05:30:31  5-MIN KDBQ 011130Z 00000KT 10SM CLR 07/06 A2993 1070 89 400 000/00 RMK AO2
94908KDBQ DBQ20120601053509306/01/12 05:35:31  5-MIN KDBQ 011135Z 36003KT 10SM CLR 08/06 A2993 1070 89 500 360/03 RMK AO2
94908KDBQ DBQ20120601054009306/01/12 05:40:31  5-MIN KDBQ 011140Z 35003KT 10SM CLR 08/06 A2993 1070 89 500 350/03 RMK AO2
94908KDBQ DBQ20120601054509306/01/12 05:45:31  5-MIN KDBQ 011145Z 36003KT 10SM CLR 08/06 A2993 1070 89 500 350/03 RMK AO2
94908KDBQ DBQ20120601055013406/01/12 05:50:31  5-MIN KDBQ 011150Z 00000KT 10SM CLR 08/06 A2993 1070 89 500 000/00 RMK AO2 SLP139 70010 T00780061 10089 20056 56009
94908KDBQ DBQ20120601055509306/01/12 05:55:31  5-MIN KDBQ 011155Z 36003KT 10SM CLR 08/06 A2993 1070 86 600 360/03 RMK AO2
94908KDBQ DBQ20120601060009606/01/12 06:00:31  5-MIN KDBQ 011200Z 01003KT 10SM FEW120 08/06 A2993 1070 86 600 360/03 RMK AO2
94908KDBQ DBQ20120601060509606/01/12 06:05:31  5-MIN KDBQ 011205Z 01004KT 10SM SCT120 08/06 A2993 1070 86 600 010/04 RMK AO2
94908KDBQ DBQ20120601061009606/01/12 06:10:31  5-MIN KDBQ 011210Z 01003KT 10SM SCT120 08/06 A2993 1070 86 600 010/03 RMK AO2
94908KDBQ DBQ20120601061509606/01/12 06:15:31  5-MIN KDBQ 011215Z 01004KT 10SM FEW120 08/06 A2992 1070 86 600 010/04 RMK AO2
94908KDBQ DBQ20120601062009606/01/12 06:20:31  5-MIN KDBQ 011220Z 01003KT 10SM FEW120 08/06 A2992 1080 86 600 010/03 RMK AO2
94908KDBQ DBQ20120601062509606/01/12 06:25:31  5-MIN KDBQ 011225Z 01004KT 10SM FEW120 08/06 A2992 1080 86 600 010/04 RMK AO2
94908KDBQ DBQ20120601063009606/01/12 06:30:31  5-MIN KDBQ 011230Z 36005KT 10SM FEW120 08/06 A2992 1070 82 600 360/05 RMK AO2
94908KDBQ DBQ20120601063509306/01/12 06:35:31  5-MIN KDBQ 011235Z 35006KT 10SM CLR 08/06 A2992 1080 86 600 350/06 RMK AO2
94908KDBQ DBQ20120601064009306/01/12 06:40:31  5-MIN KDBQ 011240Z 33006KT 10SM CLR 08/06 A2992 1070 86 600 330/06 RMK AO2
94908KDBQ DBQ20120601064509306/01/12 06:45:31  5-MIN KDBQ 011245Z 32006KT 10SM CLR 08/06 A2992 1070 86 600 320/06 RMK AO2
94908KDBQ DBQ20120601065011006/01/12 06:50:31  5-MIN KDBQ 011250Z 32006KT 10SM CLR 08/06 A2992 1070 86 600 320/06 RMK AO2 SLP137 T00830061
94908KDBQ DBQ20120601065509306/01/12 06:55:31  5-MIN KDBQ 011255Z 33007KT 10SM CLR 09/07 A2992 1080 83 700 330/07 RMK AO2
94908KDBQ DBQ20120601070009306/01/12 07:00:31  5-MIN KDBQ 011300Z 33007KT 10SM CLR 09/07 A2992 1080 83 700 330/07 RMK AO2
94908KDBQ DBQ20120601070509306/01/12 07:05:31  5-MIN KDBQ 011305Z 33006KT 10SM CLR 10/07 A2992 1080 80 800 330/06 RMK AO2
94908KDBQ DBQ20120601071009306/01/12 07:10:31  5-MIN KDBQ 011310Z 33007KT 10SM CLR 10/06 A2992 1080 77 800 330/07 RMK AO2
94908KDBQ DBQ20120601071509306/01/12 07:15:31  5-MIN KDBQ 011315Z 34007KT 10SM CLR 11/07 A2992 1080 77 800 340/07 RMK AO2
94908KDBQ DBQ20120601072009306/01/12 07:20:31  5-MIN KDBQ 011320Z 34006KT 10SM CLR 11/07 A2992 1080 77 800 340/06 RMK AO2
94908KDBQ DBQ20120601072509306/01/12 07:25:31  5-MIN KDBQ 011325Z 33007KT 10SM CLR 11/07 A2992 1070 77 800 330/07 RMK AO2
94908KDBQ DBQ20120601073009306/01/12 07:30:31  5-MIN KDBQ 011330Z 33007KT 10SM CLR 11/07 A2992 1080 74 900 330/07 RMK AO2
94908KDBQ DBQ20120601073509306/01/12 07:35:31  5-MIN KDBQ 011335Z 33007KT 10SM CLR 11/06 A2992 1080 71 900 330/07 RMK AO2
94908KDBQ DBQ20120601074009306/01/12 07:40:31  5-MIN KDBQ 011340Z 34006KT 10SM CLR 11/07 A2992 1070 74 900 340/06 RMK AO2
94908KDBQ DBQ20120601074509306/01/12 07:45:31  5-MIN KDBQ 011345Z 34005KT 10SM CLR 11/06 A2992 1080 71 900 340/05 RMK AO2
94908KDBQ DBQ20120601075011106/01/12 07:50:31  5-MIN KDBQ 011350Z 35004KT 10SM CLR 12/06 A2992 1080 68 1000 350/04 RMK AO2 SLP136 T01170061
94908KDBQ DBQ20120601075509406/01/12 07:55:31  5-MIN KDBQ 011355Z 33006KT 10SM CLR 12/06 A2992 1080 63 1000 330/06 RMK AO2
94908KDBQ DBQ20120601080009406/01/12 08:00:31  5-MIN KDBQ 011400Z 32007KT 10SM CLR 12/06 A2992 1080 63 1000 320/07 RMK AO2
94908KDBQ DBQ20120601080509406/01/12 08:05:31  5-MIN KDBQ 011405Z 34007KT 10SM CLR 12/05 A2992 1080 61 1000 340/07 RMK AO2
94908KDBQ DBQ20120601081009406/01/12 08:10:31  5-MIN KDBQ 011410Z 35008KT 10SM CLR 13/06 A2992 1080 61 1100 350/08 RMK AO2
94908KDBQ DBQ20120601081509406/01/12 08:15:31  5-MIN KDBQ 011415Z 35007KT 10SM CLR 13/06 A2992 1080 61 1100 350/07 RMK AO2
94908KDBQ DBQ20120601082009406/01/12 08:20:31  5-MIN KDBQ 011420Z 35008KT 10SM CLR 12/06 A2992 1080 63 1000 340/08 RMK AO2
94908KDBQ DBQ20120601082509406/01/12 08:25:31  5-MIN KDBQ 011425Z 32006KT 10SM CLR 13/06 A2992 1080 61 1100 320/06 RMK AO2
94908KDBQ DBQ20120601083009406/01/12 08:30:31  5-MIN KDBQ 011430Z 32009KT 10SM CLR 13/06 A2992 1080 61 1100 320/09 RMK AO2
94908KDBQ DBQ20120601083509406/01/12 08:35:31  5-MIN KDBQ 011435Z 33010KT 10SM CLR 13/05 A2992 1080 59 1100 330/10 RMK AO2
94908KDBQ DBQ20120601084009406/01/12 08:40:31  5-MIN KDBQ 011440Z 33009KT 10SM CLR 13/05 A2992 1080 59 1100 330/09 RMK AO2
94908KDBQ DBQ20120601084509406/01/12 08:45:31  5-MIN KDBQ 011445Z 33008KT 10SM CLR 13/05 A2992 1080 57 1200 330/08 RMK AO2
94908KDBQ DBQ20120601085011706/01/12 08:50:31  5-MIN KDBQ 011450Z 33008KT 10SM CLR 13/04 A2992 1080 54 1200 320/08 RMK AO2 SLP132 T01330044 53003
94908KDBQ DBQ20120601085509406/01/12 08:55:31  5-MIN KDBQ 011455Z 34009KT 10SM CLR 13/04 A2991 1080 54 1200 340/09 RMK AO2
94908KDBQ DBQ20120601090009406/01/12 09:00:31  5-MIN KDBQ 011500Z 33011KT 10SM CLR 13/04 A2991 1090 54 1200 330/11 RMK AO2
94908KDBQ DBQ20120601090509406/01/12 09:05:31  5-MIN KDBQ 011505Z 33009KT 10SM CLR 13/04 A2991 1090 54 1200 330/09 RMK AO2
94908KDBQ DBQ20120601091009406/01/12 09:10:31  5-MIN KDBQ 011510Z 32010KT 10SM CLR 14/04 A2991 1090 50 1300 320/10 RMK AO2
94908KDBQ DBQ20120601091509406/01/12 09:15:31  5-MIN KDBQ 011515Z 32009KT 10SM CLR 13/04 A2991 1090 52 1200 320/09 RMK AO2
94908KDBQ DBQ20120601092009406/01/12 09:20:31  5-MIN KDBQ 011520Z 32010KT 10SM CLR 14/04 A2991 1090 52 1200 320/10 RMK AO2
94908KDBQ DBQ20120601092509406/01/12 09:25:31  5-MIN KDBQ 011525Z 33010KT 10SM CLR 14/05 A2991 1090 53 1300 330/10 RMK AO2
94908KDBQ DBQ20120601093009406/01/12 09:30:31  5-MIN KDBQ 011530Z 33012KT 10SM CLR 15/05 A2991 1090 51 1400 330/12 RMK AO2
94908KDBQ DBQ20120601093509406/01/12 09:35:31  5-MIN KDBQ 011535Z 34009KT 10SM CLR 14/04 A2991 1090 51 1300 340/09 RMK AO2
94908KDBQ DBQ20120601094009406/01/12 09:40:31  5-MIN KDBQ 011540Z 36010KT 10SM CLR 15/05 A2991 1090 51 1400 360/10 RMK AO2
94908KDBQ DBQ20120601094509406/01/12 09:45:31  5-MIN KDBQ 011545Z 34009KT 10SM CLR 15/05 A2991 1090 51 1400 340/09 RMK AO2
94908KDBQ DBQ20120601095011106/01/12 09:50:31  5-MIN KDBQ 011550Z 35010KT 10SM CLR 15/05 A2991 1090 51 1400 350/10 RMK AO2 SLP129 T01500050
94908KDBQ DBQ20120601095509406/01/12 09:55:31  5-MIN KDBQ 011555Z 32010KT 10SM CLR 16/06 A2991 1090 53 1400 320/10 RMK AO2
94908KDBQ DBQ20120601100010006/01/12 10:00:31  5-MIN KDBQ 011600Z 34010G16KT 10SM CLR 15/05 A2991 1090 51 1400 340/10G16 RMK AO2
94908KDBQ DBQ20120601100510006/01/12 10:05:31  5-MIN KDBQ 011605Z 33012G16KT 10SM CLR 16/06 A2991 1090 51 1400 330/12G16 RMK AO2
94908KDBQ DBQ20120601101009406/01/12 10:10:31  5-MIN KDBQ 011610Z 35010KT 10SM CLR 16/05 A2991 1090 49 1500 350/10 RMK AO2
94908KDBQ DBQ20120601101509406/01/12 10:15:31  5-MIN KDBQ 011615Z 34009KT 10SM CLR 16/05 A2990 1090 49 1500 340/09 RMK AO2
94908KDBQ DBQ20120601102009406/01/12 10:20:31  5-MIN KDBQ 011620Z 34010KT 10SM CLR 16/06 A2990 1100 49 1500 340/10 RMK AO2
94908KDBQ DBQ20120601102509406/01/12 10:25:31  5-MIN KDBQ 011625Z 33013KT 10SM CLR 16/06 A2990 1100 49 1500 330/13 RMK AO2
94908KDBQ DBQ20120601103009406/01/12 10:30:31  5-MIN KDBQ 011630Z 35013KT 10SM CLR 17/06 A2990 1100 47 1600 350/13 RMK AO2
94908KDBQ DBQ20120601103509406/01/12 10:35:31  5-MIN KDBQ 011635Z 35013KT 10SM CLR 16/04 A2990 1100 45 1500 350/13 RMK AO2
94908KDBQ DBQ20120601104010006/01/12 10:40:31  5-MIN KDBQ 011640Z 35013G18KT 10SM CLR 16/04 A2990 1100 45 1500 350/13G18 RMK AO2
94908KDBQ DBQ20120601104510006/01/12 10:45:31  5-MIN KDBQ 011645Z 36013G20KT 10SM CLR 16/04 A2990 1100 44 1500 360/13G20 RMK AO2
94908KDBQ DBQ20120601105011706/01/12 10:50:31  5-MIN KDBQ 011650Z 35014G20KT 10SM CLR 17/04 A2989 1100 42 1600 350/14G20 RMK AO2 SLP125 T01670039
94908KDBQ DBQ20120601105510006/01/12 10:55:31  5-MIN KDBQ 011655Z 01015G20KT 10SM CLR 17/03 A2989 1100 40 1600 010/15G20 RMK AO2
94908KDBQ DBQ20120601110010006/01/12 11:00:31  5-MIN KDBQ 011700Z 36011G19KT 10SM CLR 17/04 A2989 1110 42 1600 360/11G19 RMK AO2
94908KDBQ DBQ20120601110510006/01/12 11:05:31  5-MIN KDBQ 011705Z 02014G18KT 10SM CLR 17/04 A2989 1110 44 1600 020/14G18 RMK AO2
94908KDBQ DBQ20120601111010006/01/12 11:10:31  5-MIN KDBQ 011710Z 36014G21KT 10SM CLR 17/03 A2989 1100 40 1600 360/14G21 RMK AO2
94908KDBQ DBQ20120601111510006/01/12 11:15:31  5-MIN KDBQ 011715Z 02009G21KT 10SM CLR 17/04 A2989 1100 42 1600 020/09G21 RMK AO2
94908KDBQ DBQ20120601112010006/01/12 11:20:31  5-MIN KDBQ 011720Z 35012G18KT 10SM CLR 17/04 A2989 1100 41 1700 350/12G18 RMK AO2
94908KDBQ DBQ20120601112510006/01/12 11:25:31  5-MIN KDBQ 011725Z 35014G19KT 10SM CLR 17/03 A2989 1100 39 1700 350/14G19 RMK AO2
94908KDBQ DBQ20120601113010006/01/12 11:30:31  5-MIN KDBQ 011730Z 36012G19KT 10SM CLR 17/03 A2989 1110 39 1700 360/12G19 RMK AO2
94908KDBQ DBQ20120601113510006/01/12 11:35:31  5-MIN KDBQ 011735Z 01009G17KT 10SM CLR 17/04 A2989 1110 41 1700 010/09G17 RMK AO2
94908KDBQ DBQ20120601114010006/01/12 11:40:31  5-MIN KDBQ 011740Z 36015G18KT 10SM CLR 17/04 A2989 1100 41 1700 350/15G18 RMK AO2
94908KDBQ DBQ20120601114510006/01/12 11:45:31  5-MIN KDBQ 011745Z 36011G18KT 10SM CLR 17/04 A2989 1110 41 1700 360/11G18 RMK AO2
94908KDBQ DBQ20120601115013806/01/12 11:50:31  5-MIN KDBQ 011750Z 33014G17KT 10SM FEW060 17/04 A2989 1110 42 1700 330/14G17 RMK AO2 SLP122 T01720044 10172 20078 58005
94908KDBQ DBQ20120601115509706/01/12 11:55:31  5-MIN KDBQ 011755Z 35011KT 10SM SCT060 16/03 A2988 1110 42 1500 350/11 RMK AO2
94908KDBQ DBQ20120601120010306/01/12 12:00:31  5-MIN KDBQ 011800Z 36009G16KT 10SM SCT060 17/04 A2988 1110 42 1600 360/09G16 RMK AO2
94908KDBQ DBQ20120601120509706/01/12 12:05:31  5-MIN KDBQ 011805Z 32011KT 10SM SCT060 18/05 A2988 1120 42 1700 320/11 RMK AO2
94908KDBQ DBQ20120601121009706/01/12 12:10:31  5-MIN KDBQ 011810Z 33011KT 10SM SCT060 18/06 A2988 1110 44 1700 330/11 RMK AO2
94908KDBQ DBQ20120601121510306/01/12 12:15:31  5-MIN KDBQ 011815Z 34012G15KT 10SM SCT060 18/05 A2988 1110 42 1700 340/12G15 RMK AO2
94908KDBQ DBQ20120601122010306/01/12 12:20:31  5-MIN KDBQ 011820Z 36011G16KT 10SM SCT060 18/04 A2988 1120 41 1700 360/11G16 RMK AO2
94908KDBQ DBQ20120601122510306/01/12 12:25:31  5-MIN KDBQ 011825Z 36008G16KT 10SM FEW060 18/05 A2988 1120 41 1800 360/08G16 RMK AO2
94908KDBQ DBQ20120601123010306/01/12 12:30:31  5-MIN KDBQ 011830Z 32014G17KT 10SM SCT060 18/05 A2987 1120 41 1800 320/14G17 RMK AO2
94908KDBQ DBQ20120601123509706/01/12 12:35:31  5-MIN KDBQ 011835Z 34011KT 10SM FEW060 18/05 A2987 1120 41 1800 340/11 RMK AO2
94908KDBQ DBQ20120601124010306/01/12 12:40:31  5-MIN KDBQ 011840Z 36010G14KT 10SM FEW060 18/06 A2987 1120 44 1800 360/10G14 RMK AO2
94908KDBQ DBQ20120601124510306/01/12 12:45:31  5-MIN KDBQ 011845Z 35011G14KT 10SM FEW060 17/05 A2987 1130 44 1700 350/11G14 RMK AO2
94908KDBQ DBQ20120601125011406/01/12 12:50:31  5-MIN KDBQ 011850Z 34008KT 10SM FEW060 18/04 A2987 1130 41 1800 330/08 RMK AO2 SLP116 T01780044
94908KDBQ DBQ20120601125510306/01/12 12:55:31  5-MIN KDBQ 011855Z 32012G17KT 10SM FEW060 18/05 A2987 1130 41 1800 320/12G17 RMK AO2
94908KDBQ DBQ20120601130010306/01/12 13:00:31  5-MIN KDBQ 011900Z 34014G22KT 10SM FEW060 18/05 A2987 1130 41 1800 340/14G22 RMK AO2
94908KDBQ DBQ20120601130510306/01/12 13:05:31  5-MIN KDBQ 011905Z 34013G22KT 10SM FEW060 18/04 A2987 1130 39 1800 330/13G22 RMK AO2
94908KDBQ DBQ20120601131009706/01/12 13:10:31  5-MIN KDBQ 011910Z 33011KT 10SM SCT060 18/05 A2987 1130 41 1800 330/11 RMK AO2
94908KDBQ DBQ20120601131510306/01/12 13:15:31  5-MIN KDBQ 011915Z 36014G21KT 10SM FEW060 18/05 A2986 1130 41 1800 360/14G21 RMK AO2
94908KDBQ DBQ20120601132010306/01/12 13:20:31  5-MIN KDBQ 011920Z 33013G21KT 10SM FEW060 18/06 A2986 1130 42 1800 330/13G21 RMK AO2
94908KDBQ DBQ20120601132510306/01/12 13:25:31  5-MIN KDBQ 011925Z 35008G18KT 10SM FEW070 18/05 A2986 1130 41 1800 340/08G18 RMK AO2
94908KDBQ DBQ20120601133010306/01/12 13:30:31  5-MIN KDBQ 011930Z 34011G16KT 10SM SCT070 17/04 A2986 1130 42 1600 340/11G16 RMK AO2
94908KDBQ DBQ20120601133509706/01/12 13:35:31  5-MIN KDBQ 011935Z 32011KT 10SM SCT070 18/05 A2986 1140 42 1800 320/11 RMK AO2
94908KDBQ DBQ20120601134010306/01/12 13:40:31  5-MIN KDBQ 011940Z 33010G16KT 10SM FEW070 19/06 A2985 1140 41 1900 330/10G16 RMK AO2
94908KDBQ DBQ20120601134512606/01/12 13:45:31  5-MIN KDBQ 011945Z 36009G16KT 330V030 10SM SCT060 SCT075 18/05 A2985 1140 41 1800 360/09G16 330V030 RMK AO2
94908KDBQ DBQ20120601135012706/01/12 13:50:31  5-MIN KDBQ 011950Z 36011G15KT 10SM SCT060 SCT075 18/05 A2985 1150 41 1800 360/11G15 RMK AO2 SLP109 T01830050
94908KDBQ DBQ20120601135510706/01/12 13:55:31  5-MIN KDBQ 011955Z AUTO 31009KT 10SM SCT065 18/04 A2985 1140 41 1800 310/09 RMK AO2 TSNO
94908KDBQ DBQ20120601140011306/01/12 14:00:31  5-MIN KDBQ 012000Z AUTO 32013G17KT 10SM SCT060 18/05 A2985 1150 41 1800 320/13G17 RMK AO2 TSNO
94908KDBQ DBQ20120601140512006/01/12 14:05:31  5-MIN KDBQ 012005Z AUTO 30010G17KT 10SM SCT060 SCT085 18/05 A2985 1150 41 1800 300/10G17 RMK AO2 TSNO
94908KDBQ DBQ20120601141011406/01/12 14:10:31  5-MIN KDBQ 012010Z AUTO 33011KT 10SM SCT060 SCT080 19/07 A2984 1150 44 1900 330/11 RMK AO2 TSNO
94908KDBQ DBQ20120601141511406/01/12 14:15:31  5-MIN KDBQ 012015Z AUTO 34009KT 10SM SCT060 SCT080 18/05 A2984 1150 42 1800 340/09 RMK AO2 TSNO
94908KDBQ DBQ20120601142011406/01/12 14:20:31  5-MIN KDBQ 012020Z AUTO 34010KT 10SM SCT060 BKN080 19/06 A2984 1150 43 1900 340/10 RMK AO2 TSNO
94908KDBQ DBQ20120601142512006/01/12 14:25:31  5-MIN KDBQ 012025Z AUTO 34011G15KT 10SM SCT060 BKN080 18/06 A2984 1150 42 1800 340/11G15 RMK AO2 TSNO
94908KDBQ DBQ20120601143012006/01/12 14:30:31  5-MIN KDBQ 012030Z AUTO 33012G15KT 10SM SCT060 SCT080 17/05 A2984 1150 44 1700 330/12G15 RMK AO2 TSNO
94908KDBQ DBQ20120601143511406/01/12 14:35:31  5-MIN KDBQ 012035Z AUTO 34011KT 10SM FEW060 SCT075 18/06 A2984 1150 42 1800 340/11 RMK AO2 TSNO
94908KDBQ DBQ20120601144011406/01/12 14:40:31  5-MIN KDBQ 012040Z AUTO 32012KT 10SM FEW060 SCT075 19/06 A2984 1150 41 1900 310/12 RMK AO2 TSNO
94908KDBQ DBQ20120601144510706/01/12 14:45:31  5-MIN KDBQ 012045Z AUTO 34010KT 10SM FEW060 19/06 A2984 1150 40 2000 340/10 RMK AO2 TSNO
94908KDBQ DBQ20120601145013006/01/12 14:50:31  5-MIN KDBQ 012050Z AUTO 31009KT 10SM FEW060 19/06 A2984 1150 43 1900 310/09 RMK AO2 SLP107 T01890061 58010 TSNO
94908KDBQ DBQ20120601145509406/01/12 14:55:31  5-MIN KDBQ 012055Z 33010KT 10SM CLR 19/06 A2984 1150 41 1900 320/10 RMK AO2
94908KDBQ DBQ20120601150009706/01/12 15:00:31  5-MIN KDBQ 012100Z 33010KT 10SM FEW060 18/05 A2984 1150 41 1900 330/10 RMK AO2
94908KDBQ DBQ20120601150511906/01/12 15:05:31  5-MIN KDBQ 012105Z 31012G17KT 280V350 10SM FEW060 18/06 A2984 1150 42 1900 300/12G17 280V350 RMK AO2
94908KDBQ DBQ20120601151011006/01/12 15:10:31  5-MIN KDBQ 012110Z 31011G17KT 10SM FEW060 SCT080 17/05 A2984 1150 44 1700 310/11G17 RMK AO2
94908KDBQ DBQ20120601151510406/01/12 15:15:31  5-MIN KDBQ 012115Z 33010KT 10SM FEW060 SCT080 17/05 A2984 1150 44 1700 330/10 RMK AO2
94908KDBQ DBQ20120601152009706/01/12 15:20:31  5-MIN KDBQ 012120Z 34011KT 10SM BKN080 18/06 A2984 1150 44 1800 330/11 RMK AO2
94908KDBQ DBQ20120601152509706/01/12 15:25:31  5-MIN KDBQ 012125Z 33007KT 10SM BKN080 19/06 A2984 1160 43 1900 330/07 RMK AO2
94908KDBQ DBQ20120601153009706/01/12 15:30:31  5-MIN KDBQ 012130Z 35008KT 10SM SCT080 19/06 A2984 1160 43 1900 350/08 RMK AO2
94908KDBQ DBQ20120601153510406/01/12 15:35:31  5-MIN KDBQ 012135Z 36009KT 10SM FEW065 BKN080 19/06 A2983 1160 41 2000 360/09 RMK AO2
94908KDBQ DBQ20120601154010406/01/12 15:40:31  5-MIN KDBQ 012140Z 35010KT 10SM FEW065 BKN080 18/06 A2983 1160 42 1900 350/10 RMK AO2
94908KDBQ DBQ20120601154510406/01/12 15:45:31  5-MIN KDBQ 012145Z 33008KT 10SM FEW065 SCT080 19/06 A2983 1160 41 1900 330/08 RMK AO2
94908KDBQ DBQ20120601155012706/01/12 15:50:31  5-MIN KDBQ 012150Z 30009G16KT 10SM FEW060 SCT080 19/06 A2983 1160 41 2000 300/09G16 RMK AO2 SLP104 T01940061
94908KDBQ DBQ20120601155511006/01/12 15:55:31  5-MIN KDBQ 012155Z 31011G20KT 10SM FEW060 BKN075 19/06 A2983 1160 41 2000 310/11G20 RMK AO2
94908KDBQ DBQ20120601160010306/01/12 16:00:31  5-MIN KDBQ 012200Z 30011G20KT 10SM BKN070 18/05 A2983 1160 41 1900 300/11G20 RMK AO2
94908KDBQ DBQ20120601160510406/01/12 16:05:31  5-MIN KDBQ 012205Z 32013KT 10SM SCT065 BKN080 18/04 A2983 1160 39 1900 310/13 RMK AO2
94908KDBQ DBQ20120601161010406/01/12 16:10:31  5-MIN KDBQ 012210Z 31011KT 10SM SCT065 BKN080 18/04 A2983 1160 41 1800 300/11 RMK AO2
94908KDBQ DBQ20120601161510406/01/12 16:15:31  5-MIN KDBQ 012215Z 31009KT 10SM FEW065 OVC080 18/05 A2983 1160 42 1800 310/09 RMK AO2
94908KDBQ DBQ20120601162009706/01/12 16:20:31  5-MIN KDBQ 012220Z 31008KT 10SM BKN080 18/05 A2983 1160 42 1800 310/08 RMK AO2
94908KDBQ DBQ20120601162510406/01/12 16:25:31  5-MIN KDBQ 012225Z 33010KT 10SM FEW070 BKN080 19/06 A2983 1160 41 1900 330/10 RMK AO2
94908KDBQ DBQ20120601163010306/01/12 16:30:31  5-MIN KDBQ 012230Z 32013G16KT 10SM BKN080 19/06 A2983 1160 41 1900 320/13G16 RMK AO2
94908KDBQ DBQ20120601163510406/01/12 16:35:31  5-MIN KDBQ 012235Z 32009KT 10SM FEW065 BKN080 18/05 A2983 1160 41 1900 320/09 RMK AO2
94908KDBQ DBQ20120601164009706/01/12 16:40:31  5-MIN KDBQ 012240Z 32009KT 10SM BKN080 18/05 A2983 1160 41 1900 320/09 RMK AO2
94908KDBQ DBQ20120601164509706/01/12 16:45:31  5-MIN KDBQ 012245Z 32007KT 10SM BKN085 18/05 A2983 1160 41 1900 320/07 RMK AO2
94908KDBQ DBQ20120601165012706/01/12 16:50:31  5-MIN KDBQ 012250Z 30010G16KT 10SM SCT065 BKN085 18/06 A2983 1160 42 1900 300/10G16 RMK AO2 SLP103 T01830056
94908KDBQ DBQ20120601165511006/01/12 16:55:31  5-MIN KDBQ 012255Z 33007G16KT 10SM SCT070 OVC085 19/06 A2983 1160 41 1900 330/07G16 RMK AO2
94908KDBQ DBQ20120601170011006/01/12 17:00:31  5-MIN KDBQ 012300Z 29010G15KT 10SM BKN065 OVC085 19/06 A2983 1160 40 2000 290/10G15 RMK AO2
94908KDBQ DBQ20120601170511006/01/12 17:05:31  5-MIN KDBQ 012305Z 29014G18KT 10SM BKN060 OVC080 18/04 A2983 1160 39 1900 290/14G18 RMK AO2
94908KDBQ DBQ20120601171010406/01/12 17:10:31  5-MIN KDBQ 012310Z 30011KT 10SM BKN060 OVC080 19/05 A2983 1160 39 1900 300/11 RMK AO2
94908KDBQ DBQ20120601171510406/01/12 17:15:31  5-MIN KDBQ 012315Z 31010KT 10SM BKN065 OVC080 18/04 A2983 1160 39 1900 310/10 RMK AO2
94908KDBQ DBQ20120601172010406/01/12 17:20:31  5-MIN KDBQ 012320Z 30009KT 10SM SCT065 BKN085 18/05 A2983 1160 41 1900 300/09 RMK AO2
94908KDBQ DBQ20120601172510406/01/12 17:25:31  5-MIN KDBQ 012325Z 30008KT 10SM SCT065 SCT080 18/05 A2983 1160 41 1900 300/08 RMK AO2
94908KDBQ DBQ20120601173010406/01/12 17:30:31  5-MIN KDBQ 012330Z 30008KT 10SM FEW060 SCT080 18/05 A2983 1160 41 1900 300/08 RMK AO2
94908KDBQ DBQ20120601173509706/01/12 17:35:31  5-MIN KDBQ 012335Z 31009KT 10SM FEW065 18/05 A2983 1160 41 1900 310/09 RMK AO2
94908KDBQ DBQ20120601174009706/01/12 17:40:31  5-MIN KDBQ 012340Z 31009KT 10SM FEW085 17/04 A2983 1160 42 1700 300/09 RMK AO2
94908KDBQ DBQ20120601174509406/01/12 17:45:31  5-MIN KDBQ 012345Z 31008KT 10SM CLR 17/05 A2983 1160 45 1700 310/08 RMK AO2
94908KDBQ DBQ20120601175012906/01/12 17:50:31  5-MIN KDBQ 012350Z 31006KT 10SM CLR 18/05 A2983 1160 42 1800 310/06 RMK AO2 SLP102 T01780050 10194 20161 56015
94908KDBQ DBQ20120601175509406/01/12 17:55:31  5-MIN KDBQ 012355Z 31008KT 10SM CLR 18/05 A2983 1170 42 1800 310/08 RMK AO2
94908KDBQ DBQ20120601180009406/01/12 18:00:31  5-MIN KDBQ 020000Z 31009KT 10SM CLR 17/04 A2983 1160 42 1700 310/09 RMK AO2
94908KDBQ DBQ20120601180509406/01/12 18:05:31  5-MIN KDBQ 020005Z 31009KT 10SM CLR 18/04 A2983 1160 41 1800 310/09 RMK AO2
94908KDBQ DBQ20120601181009406/01/12 18:10:31  5-MIN KDBQ 020010Z 31007KT 10SM CLR 17/05 A2983 1160 44 1700 310/07 RMK AO2
94908KDBQ DBQ20120601181509406/01/12 18:15:31  5-MIN KDBQ 020015Z 31006KT 10SM CLR 17/05 A2983 1160 44 1700 310/06 RMK AO2
94908KDBQ DBQ20120601182009406/01/12 18:20:31  5-MIN KDBQ 020020Z 31005KT 10SM CLR 17/06 A2983 1170 46 1700 300/05 RMK AO2
94908KDBQ DBQ20120601182509406/01/12 18:25:31  5-MIN KDBQ 020025Z 31005KT 10SM CLR 17/06 A2982 1170 47 1700 310/05 RMK AO2
94908KDBQ DBQ20120601183009406/01/12 18:30:31  5-MIN KDBQ 020030Z 31005KT 10SM CLR 17/06 A2983 1170 46 1700 310/05 RMK AO2
94908KDBQ DBQ20120601183509406/01/12 18:35:31  5-MIN KDBQ 020035Z 31005KT 10SM CLR 17/06 A2983 1170 49 1700 300/05 RMK AO2
94908KDBQ DBQ20120601184009406/01/12 18:40:31  5-MIN KDBQ 020040Z 30005KT 10SM CLR 17/06 A2983 1170 49 1700 300/05 RMK AO2
94908KDBQ DBQ20120601184509406/01/12 18:45:31  5-MIN KDBQ 020045Z 30006KT 10SM CLR 17/06 A2982 1170 47 1700 300/06 RMK AO2
94908KDBQ DBQ20120601185011606/01/12 18:50:31  5-MIN KDBQ 020050Z AUTO 29005KT 10SM CLR 16/06 A2982 1170 49 1600 290/05 RMK AO2 SLP101 T01610056
94908KDBQ DBQ20120601185509906/01/12 18:55:31  5-MIN KDBQ 020055Z AUTO 30005KT 10SM CLR 16/06 A2982 1170 51 1500 300/05 RMK AO2
94908KDBQ DBQ20120601190009906/01/12 19:00:31  5-MIN KDBQ 020100Z AUTO 30005KT 10SM CLR 16/06 A2982 1170 51 1500 300/05 RMK AO2
94908KDBQ DBQ20120601190509906/01/12 19:05:31  5-MIN KDBQ 020105Z AUTO 30005KT 10SM CLR 15/06 A2982 1170 53 1500 290/05 RMK AO2
94908KDBQ DBQ20120601191009906/01/12 19:10:31  5-MIN KDBQ 020110Z AUTO 29005KT 10SM CLR 15/06 A2982 1170 53 1500 290/05 RMK AO2
94908KDBQ DBQ20120601191509906/01/12 19:15:31  5-MIN KDBQ 020115Z AUTO 29005KT 10SM CLR 14/06 A2982 1170 55 1400 290/05 RMK AO2
94908KDBQ DBQ20120601192009906/01/12 19:20:31  5-MIN KDBQ 020120Z AUTO 28004KT 10SM CLR 14/06 A2982 1170 55 1400 280/04 RMK AO2
94908KDBQ DBQ20120601192509906/01/12 19:25:31  5-MIN KDBQ 020125Z AUTO 28005KT 10SM CLR 14/06 A2982 1170 59 1400 280/05 RMK AO2
94908KDBQ DBQ20120601193009906/01/12 19:30:31  5-MIN KDBQ 020130Z AUTO 28005KT 10SM CLR 13/06 A2982 1170 61 1300 280/05 RMK AO2
94908KDBQ DBQ20120601193509906/01/12 19:35:31  5-MIN KDBQ 020135Z AUTO 28006KT 10SM CLR 13/06 A2982 1170 61 1300 280/06 RMK AO2
94908KDBQ DBQ20120601194009906/01/12 19:40:31  5-MIN KDBQ 020140Z AUTO 28006KT 10SM CLR 13/06 A2982 1170 61 1300 270/06 RMK AO2
94908KDBQ DBQ20120601194509906/01/12 19:45:31  5-MIN KDBQ 020145Z AUTO 28005KT 10SM CLR 13/06 A2982 1170 63 1200 270/05 RMK AO2
94908KDBQ DBQ20120601195011606/01/12 19:50:31  5-MIN KDBQ 020150Z AUTO 28005KT 10SM CLR 13/06 A2982 1170 63 1200 280/05 RMK AO2 SLP100 T01280061
94908KDBQ DBQ20120601195509906/01/12 19:55:31  5-MIN KDBQ 020155Z AUTO 27005KT 10SM CLR 12/06 A2982 1170 66 1200 270/05 RMK AO2
94908KDBQ DBQ20120601200009906/01/12 20:00:31  5-MIN KDBQ 020200Z AUTO 27004KT 10SM CLR 12/06 A2982 1170 66 1200 260/04 RMK AO2
94908KDBQ DBQ20120601200509906/01/12 20:05:31  5-MIN KDBQ 020205Z AUTO 26005KT 10SM CLR 12/06 A2982 1170 66 1200 260/05 RMK AO2
94908KDBQ DBQ20120601201009906/01/12 20:10:31  5-MIN KDBQ 020210Z AUTO 26005KT 10SM CLR 12/06 A2982 1170 66 1200 260/05 RMK AO2
94908KDBQ DBQ20120601201509906/01/12 20:15:31  5-MIN KDBQ 020215Z AUTO 24003KT 10SM CLR 12/06 A2982 1170 68 1100 240/03 RMK AO2
94908KDBQ DBQ20120601202009906/01/12 20:20:31  5-MIN KDBQ 020220Z AUTO 26004KT 10SM CLR 12/07 A2982 1170 71 1100 260/04 RMK AO2
94908KDBQ DBQ20120601202509906/01/12 20:25:31  5-MIN KDBQ 020225Z AUTO 00000KT 10SM CLR 12/06 A2982 1170 68 1100 000/00 RMK AO2
94908KDBQ DBQ20120601203009906/01/12 20:30:31  5-MIN KDBQ 020230Z AUTO 00000KT 10SM CLR 12/07 A2982 1170 71 1100 000/00 RMK AO2
94908KDBQ DBQ20120601203509906/01/12 20:35:31  5-MIN KDBQ 020235Z AUTO 00000KT 10SM CLR 12/07 A2982 1170 71 1100 000/00 RMK AO2
94908KDBQ DBQ20120601204009906/01/12 20:40:31  5-MIN KDBQ 020240Z AUTO 25003KT 10SM CLR 12/07 A2982 1170 71 1100 250/03 RMK AO2
94908KDBQ DBQ20120601204509906/01/12 20:45:31  5-MIN KDBQ 020245Z AUTO 25003KT 10SM CLR 12/07 A2982 1170 71 1100 240/03 RMK AO2
94908KDBQ DBQ20120601205012206/01/12 20:50:31  5-MIN KDBQ 020250Z AUTO 22003KT 10SM CLR 11/07 A2982 1170 74 1000 220/03 RMK AO2 SLP100 T01110067 56004
94908KDBQ DBQ20120601205509906/01/12 20:55:31  5-MIN KDBQ 020255Z AUTO 00000KT 10SM CLR 11/07 A2982 1170 74 1000 000/00 RMK AO2
94908KDBQ DBQ20120601210009906/01/12 21:00:31  5-MIN KDBQ 020300Z AUTO 23003KT 10SM CLR 11/07 A2982 1170 74 1000 230/03 RMK AO2
94908KDBQ DBQ20120601210509906/01/12 21:05:31  5-MIN KDBQ 020305Z AUTO 23003KT 10SM CLR 11/07 A2982 1170 74 1000 230/03 RMK AO2
94908KDBQ DBQ20120601211009906/01/12 21:10:31  5-MIN KDBQ 020310Z AUTO 23003KT 10SM CLR 12/07 A2982 1170 71 1100 230/03 RMK AO2
94908KDBQ DBQ20120601211509906/01/12 21:15:31  5-MIN KDBQ 020315Z AUTO 21005KT 10SM CLR 11/07 A2982 1170 74 1000 210/05 RMK AO2
94908KDBQ DBQ20120601212009906/01/12 21:20:31  5-MIN KDBQ 020320Z AUTO 22005KT 10SM CLR 11/07 A2982 1170 77 1000 220/05 RMK AO2
94908KDBQ DBQ20120601212509906/01/12 21:25:31  5-MIN KDBQ 020325Z AUTO 24005KT 10SM CLR 11/07 A2982 1170 80 1000 240/05 RMK AO2
94908KDBQ DBQ20120601213009906/01/12 21:30:31  5-MIN KDBQ 020330Z AUTO 22003KT 10SM CLR 11/07 A2982 1170 77 1000 220/03 RMK AO2
94908KDBQ DBQ20120601213509906/01/12 21:35:31  5-MIN KDBQ 020335Z AUTO 22003KT 10SM CLR 11/07 A2982 1170 77 1000 220/03 RMK AO2
94908KDBQ DBQ20120601214009906/01/12 21:40:31  5-MIN KDBQ 020340Z AUTO 22004KT 10SM CLR 11/07 A2982 1170 77 1000 220/04 RMK AO2
94908KDBQ DBQ20120601214509906/01/12 21:45:31  5-MIN KDBQ 020345Z AUTO 23004KT 10SM CLR 11/07 A2982 1170 74 1000 230/04 RMK AO2
94908KDBQ DBQ20120601215011606/01/12 21:50:31  5-MIN KDBQ 020350Z AUTO 22004KT 10SM CLR 11/07 A2982 1170 77 1000 220/04 RMK AO2 SLP099 T01060067
94908KDBQ DBQ20120601215509806/01/12 21:55:31  5-MIN KDBQ 020355Z AUTO 22004KT 10SM CLR 10/07 A2982 1170 80 900 220/04 RMK AO2
94908KDBQ DBQ20120601220009806/01/12 22:00:31  5-MIN KDBQ 020400Z AUTO 21006KT 10SM CLR 10/07 A2982 1170 80 900 210/06 RMK AO2
94908KDBQ DBQ20120601220509806/01/12 22:05:31  5-MIN KDBQ 020405Z AUTO 23005KT 10SM CLR 10/07 A2982 1170 80 900 220/05 RMK AO2
94908KDBQ DBQ20120601221009906/01/12 22:10:31  5-MIN KDBQ 020410Z AUTO 22005KT 10SM CLR 11/07 A2982 1170 80 1000 220/05 RMK AO2
94908KDBQ DBQ20120601221509806/01/12 22:15:31  5-MIN KDBQ 020415Z AUTO 21004KT 10SM CLR 10/07 A2982 1170 83 900 210/04 RMK AO2
94908KDBQ DBQ20120601222009806/01/12 22:20:31  5-MIN KDBQ 020420Z AUTO 22005KT 10SM CLR 10/07 A2982 1170 80 900 220/05 RMK AO2
94908KDBQ DBQ20120601222509806/01/12 22:25:31  5-MIN KDBQ 020425Z AUTO 24004KT 10SM CLR 10/07 A2982 1170 80 900 240/04 RMK AO2
94908KDBQ DBQ20120601223009806/01/12 22:30:31  5-MIN KDBQ 020430Z AUTO 22005KT 10SM CLR 09/07 A2982 1170 86 800 220/05 RMK AO2
94908KDBQ DBQ20120601223509806/01/12 22:35:31  5-MIN KDBQ 020435Z AUTO 22005KT 10SM CLR 10/07 A2982 1180 83 900 220/05 RMK AO2
94908KDBQ DBQ20120601224009806/01/12 22:40:31  5-MIN KDBQ 020440Z AUTO 23005KT 10SM CLR 10/07 A2982 1180 83 900 220/05 RMK AO2
94908KDBQ DBQ20120601224509806/01/12 22:45:31  5-MIN KDBQ 020445Z AUTO 22004KT 10SM CLR 10/07 A2981 1180 83 900 220/04 RMK AO2
94908KDBQ DBQ20120601225011506/01/12 22:50:31  5-MIN KDBQ 020450Z AUTO 22004KT 10SM CLR 10/07 A2981 1180 80 900 220/04 RMK AO2 SLP096 T01000067
94908KDBQ DBQ20120601225509806/01/12 22:55:31  5-MIN KDBQ 020455Z AUTO 22004KT 10SM CLR 10/07 A2981 1180 80 900 220/04 RMK AO2
94908KDBQ DBQ20120601230009806/01/12 23:00:31  5-MIN KDBQ 020500Z AUTO 22004KT 10SM CLR 09/06 A2981 1180 79 800 220/04 RMK AO2
94908KDBQ DBQ20120601230509806/01/12 23:05:31  5-MIN KDBQ 020505Z AUTO 22004KT 10SM CLR 10/07 A2981 1180 80 900 220/04 RMK AO2
94908KDBQ DBQ20120601231009806/01/12 23:10:31  5-MIN KDBQ 020510Z AUTO 22004KT 10SM CLR 10/07 A2981 1180 80 900 220/04 RMK AO2
94908KDBQ DBQ20120601231509806/01/12 23:15:31  5-MIN KDBQ 020515Z AUTO 22004KT 10SM CLR 09/06 A2981 1180 79 800 220/04 RMK AO2
94908KDBQ DBQ20120601232009806/01/12 23:20:31  5-MIN KDBQ 020520Z AUTO 22004KT 10SM CLR 09/07 A2981 1180 83 800 220/04 RMK AO2
94908KDBQ DBQ20120601232509806/01/12 23:25:31  5-MIN KDBQ 020525Z AUTO 23004KT 10SM CLR 10/07 A2980 1190 80 900 230/04 RMK AO2
94908KDBQ DBQ20120601233009806/01/12 23:30:31  5-MIN KDBQ 020530Z AUTO 23004KT 10SM CLR 10/07 A2980 1190 80 900 230/04 RMK AO2
94908KDBQ DBQ20120601233509806/01/12 23:35:31  5-MIN KDBQ 020535Z AUTO 22005KT 10SM CLR 10/07 A2980 1190 80 900 220/05 RMK AO2
94908KDBQ DBQ20120601234009806/01/12 23:40:31  5-MIN KDBQ 020540Z AUTO 24004KT 10SM CLR 09/07 A2980 1190 83 800 230/04 RMK AO2
94908KDBQ DBQ20120601234509806/01/12 23:45:31  5-MIN KDBQ 020545Z AUTO 23004KT 10SM CLR 09/07 A2980 1190 83 900 230/04 RMK AO2
94908KDBQ DBQ20120601235014306/01/12 23:50:31  5-MIN KDBQ 020550Z AUTO 23003KT 10SM CLR 09/07 A2980 1190 83 900 230/03 RMK AO2 SLP091 T00940067 10178 20094 401940056 55001
94908KDBQ DBQ20120601235509806/01/12 23:55:31  5-MIN KDBQ 020555Z AUTO 23003KT 10SM CLR 09/07 A2980 1190 83 900 230/03 RMK AO2
94908KDBQ DBQ20120602000009806/02/12 00:00:38  5-MIN KDBQ 020600Z AUTO 22004KT 10SM CLR 09/07 A2980 1190 83 900 220/04 RMK AO2
94908KDBQ DBQ20120602000509806/02/12 00:05:31  5-MIN KDBQ 020605Z AUTO 22004KT 10SM CLR 09/06 A2980 1190 79 900 220/04 RMK AO2
94908KDBQ DBQ20120602001009806/02/12 00:10:31  5-MIN KDBQ 020610Z AUTO 22005KT 10SM CLR 09/06 A2980 1190 79 900 220/05 RMK AO2
94908KDBQ DBQ20120602001509806/02/12 00:15:32  5-MIN KDBQ 020615Z AUTO 22004KT 10SM CLR 09/06 A2979 1200 79 900 220/04 RMK AO2
94908KDBQ DBQ20120602002009806/02/12 00:20:31  5-MIN KDBQ 020620Z AUTO 22004KT 10SM CLR 09/06 A2979 1200 79 900 220/04 RMK AO2
94908KDBQ DBQ20120602002509806/02/12 00:25:31  5-MIN KDBQ 020625Z AUTO 23004KT 10SM CLR 09/06 A2979 1200 79 900 230/04 RMK AO2
94908KDBQ DBQ20120602003009806/02/12 00:30:31  5-MIN KDBQ 020630Z AUTO 23004KT 10SM CLR 09/07 A2979 1200 83 900 230/04 RMK AO2
94908KDBQ DBQ20120602003509806/02/12 00:35:31  5-MIN KDBQ 020635Z AUTO 23005KT 10SM CLR 09/06 A2979 1200 83 800 230/05 RMK AO2
94908KDBQ DBQ20120602004009806/02/12 00:40:31  5-MIN KDBQ 020640Z AUTO 23005KT 10SM CLR 09/06 A2979 1200 79 900 230/05 RMK AO2
94908KDBQ DBQ20120602004509806/02/12 00:45:31  5-MIN KDBQ 020645Z AUTO 23005KT 10SM CLR 09/06 A2978 1210 83 800 230/05 RMK AO2
94908KDBQ DBQ20120602005011506/02/12 00:50:31  5-MIN KDBQ 020650Z AUTO 23005KT 10SM CLR 08/06 A2978 1210 86 700 230/05 RMK AO2 SLP086 T00830061
94908KDBQ DBQ20120602005509806/02/12 00:55:31  5-MIN KDBQ 020655Z AUTO 24005KT 10SM CLR 08/06 A2978 1210 86 700 240/05 RMK AO2
94908KDBQ DBQ20120602010009806/02/12 01:00:31  5-MIN KDBQ 020700Z AUTO 24005KT 10SM CLR 08/06 A2978 1210 86 700 240/05 RMK AO2
94908KDBQ DBQ20120602010509806/02/12 01:05:31  5-MIN KDBQ 020705Z AUTO 25006KT 10SM CLR 08/06 A2978 1210 86 700 250/06 RMK AO2
94908KDBQ DBQ20120602011009806/02/12 01:10:31  5-MIN KDBQ 020710Z AUTO 25005KT 10SM CLR 08/06 A2978 1210 86 700 250/05 RMK AO2
94908KDBQ DBQ20120602011509806/02/12 01:15:31  5-MIN KDBQ 020715Z AUTO 25005KT 10SM CLR 08/06 A2978 1210 86 700 250/05 RMK AO2
94908KDBQ DBQ20120602012009806/02/12 01:20:31  5-MIN KDBQ 020720Z AUTO 25005KT 10SM CLR 08/06 A2977 1210 86 700 250/05 RMK AO2
94908KDBQ DBQ20120602012509806/02/12 01:25:31  5-MIN KDBQ 020725Z AUTO 26006KT 10SM CLR 08/06 A2977 1220 86 700 260/06 RMK AO2
94908KDBQ DBQ20120602013009806/02/12 01:30:31  5-MIN KDBQ 020730Z AUTO 25006KT 10SM CLR 08/06 A2977 1220 86 700 250/06 RMK AO2
94908KDBQ DBQ20120602013509806/02/12 01:35:31  5-MIN KDBQ 020735Z AUTO 25007KT 10SM CLR 08/06 A2977 1220 86 700 250/07 RMK AO2
94908KDBQ DBQ20120602014009806/02/12 01:40:31  5-MIN KDBQ 020740Z AUTO 24007KT 10SM CLR 08/06 A2977 1220 86 700 240/07 RMK AO2
94908KDBQ DBQ20120602014509806/02/12 01:45:31  5-MIN KDBQ 020745Z AUTO 24007KT 10SM CLR 08/06 A2977 1220 86 800 240/07 RMK AO2
94908KDBQ DBQ20120602015011506/02/12 01:50:31  5-MIN KDBQ 020750Z AUTO 25007KT 10SM CLR 08/06 A2977 1220 86 800 240/07 RMK AO2 SLP081 T00830061
94908KDBQ DBQ20120602015509806/02/12 01:55:31  5-MIN KDBQ 020755Z AUTO 25007KT 10SM CLR 08/06 A2977 1220 86 800 250/07 RMK AO2
94908KDBQ DBQ20120602020009806/02/12 02:00:31  5-MIN KDBQ 020800Z AUTO 25007KT 10SM CLR 08/06 A2977 1220 86 800 250/07 RMK AO2
94908KDBQ DBQ20120602020509806/02/12 02:05:31  5-MIN KDBQ 020805Z AUTO 26007KT 10SM CLR 08/06 A2977 1220 86 800 250/07 RMK AO2
94908KDBQ DBQ20120602021009806/02/12 02:10:31  5-MIN KDBQ 020810Z AUTO 26007KT 10SM CLR 09/06 A2977 1220 83 800 260/07 RMK AO2
94908KDBQ DBQ20120602021509806/02/12 02:15:31  5-MIN KDBQ 020815Z AUTO 26007KT 10SM CLR 09/07 A2977 1220 83 900 250/07 RMK AO2
94908KDBQ DBQ20120602022009806/02/12 02:20:31  5-MIN KDBQ 020820Z AUTO 26007KT 10SM CLR 09/07 A2977 1220 83 900 260/07 RMK AO2
94908KDBQ DBQ20120602022509906/02/12 02:25:31  5-MIN KDBQ 020825Z AUTO 25007KT 10SM CLR 10/07 A2977 1220 80 1000 250/07 RMK AO2
94908KDBQ DBQ20120602023009806/02/12 02:30:31  5-MIN KDBQ 020830Z AUTO 26007KT 10SM CLR 09/07 A2977 1220 86 800 260/07 RMK AO2
94908KDBQ DBQ20120602023509806/02/12 02:35:31  5-MIN KDBQ 020835Z AUTO 26007KT 10SM CLR 09/07 A2976 1220 83 900 260/07 RMK AO2
94908KDBQ DBQ20120602024009906/02/12 02:40:31  5-MIN KDBQ 020840Z AUTO 25007KT 10SM CLR 10/07 A2976 1220 80 1000 250/07 RMK AO2
94908KDBQ DBQ20120602024509806/02/12 02:45:31  5-MIN KDBQ 020845Z AUTO 25006KT 10SM CLR 08/07 A2976 1220 89 800 250/06 RMK AO2
94908KDBQ DBQ20120602025012106/02/12 02:50:31  5-MIN KDBQ 020850Z AUTO 24006KT 10SM CLR 08/06 A2976 1220 86 800 240/06 RMK AO2 SLP079 T00830061 58008
94908KDBQ DBQ20120602025509806/02/12 02:55:31  5-MIN KDBQ 020855Z AUTO 24006KT 10SM CLR 08/06 A2976 1220 86 800 240/06 RMK AO2
94908KDBQ DBQ20120602030009806/02/12 03:00:31  5-MIN KDBQ 020900Z AUTO 24005KT 10SM CLR 08/06 A2976 1230 86 800 230/05 RMK AO2
94908KDBQ DBQ20120602030509806/02/12 03:05:31  5-MIN KDBQ 020905Z AUTO 23007KT 10SM CLR 08/06 A2976 1220 86 800 230/07 RMK AO2
94908KDBQ DBQ20120602031009806/02/12 03:10:31  5-MIN KDBQ 020910Z AUTO 24007KT 10SM CLR 08/06 A2976 1220 86 800 240/07 RMK AO2
94908KDBQ DBQ20120602031509806/02/12 03:15:31  5-MIN KDBQ 020915Z AUTO 24006KT 10SM CLR 08/06 A2976 1220 86 800 240/06 RMK AO2
94908KDBQ DBQ20120602032009806/02/12 03:20:31  5-MIN KDBQ 020920Z AUTO 25007KT 10SM CLR 08/06 A2976 1220 89 700 250/07 RMK AO2
94908KDBQ DBQ20120602032509806/02/12 03:25:31  5-MIN KDBQ 020925Z AUTO 26008KT 10SM CLR 09/07 A2976 1220 83 900 260/08 RMK AO2
94908KDBQ DBQ20120602033009906/02/12 03:30:31  5-MIN KDBQ 020930Z AUTO 27010KT 10SM CLR 10/07 A2976 1220 83 1000 270/10 RMK AO2
94908KDBQ DBQ20120602033509906/02/12 03:35:31  5-MIN KDBQ 020935Z AUTO 26009KT 10SM CLR 10/07 A2977 1220 83 1000 260/09 RMK AO2
94908KDBQ DBQ20120602034009906/02/12 03:40:31  5-MIN KDBQ 020940Z AUTO 27009KT 10SM CLR 10/07 A2977 1220 83 1000 260/09 RMK AO2
94908KDBQ DBQ20120602034509906/02/12 03:45:31  5-MIN KDBQ 020945Z AUTO 27009KT 10SM CLR 10/07 A2977 1220 83 1000 270/09 RMK AO2
94908KDBQ DBQ20120602035011606/02/12 03:50:31  5-MIN KDBQ 020950Z AUTO 28010KT 10SM CLR 10/07 A2977 1220 83 1000 280/10 RMK AO2 SLP079 T01000072
94908KDBQ DBQ20120602035510206/02/12 03:55:31  5-MIN KDBQ 020955Z AUTO 28009KT 10SM FEW075 11/07 A2977 1220 80 1000 270/09 RMK AO2
94908KDBQ DBQ20120602040010206/02/12 04:00:31  5-MIN KDBQ 021000Z AUTO 28008KT 10SM FEW075 11/07 A2977 1220 80 1000 280/08 RMK AO2
94908KDBQ DBQ20120602040510206/02/12 04:05:31  5-MIN KDBQ 021005Z AUTO 29007KT 10SM FEW075 11/07 A2977 1220 80 1000 290/07 RMK AO2
94908KDBQ DBQ20120602041010206/02/12 04:10:31  5-MIN KDBQ 021010Z AUTO 28007KT 10SM FEW075 11/07 A2977 1220 80 1000 280/07 RMK AO2
94908KDBQ DBQ20120602041510106/02/12 04:15:31  5-MIN KDBQ 021015Z AUTO 28007KT 10SM FEW075 10/07 A2977 1220 83 900 270/07 RMK AO2
94908KDBQ DBQ20120602042010106/02/12 04:20:31  5-MIN KDBQ 021020Z AUTO 29004KT 10SM FEW075 10/07 A2977 1220 83 900 290/04 RMK AO2
94908KDBQ DBQ20120602042509906/02/12 04:25:31  5-MIN KDBQ 021025Z AUTO 00000KT 10SM CLR 10/07 A2977 1220 83 1000 000/00 RMK AO2
94908KDBQ DBQ20120602043009906/02/12 04:30:31  5-MIN KDBQ 021030Z AUTO 26003KT 10SM CLR 10/07 A2977 1220 83 1000 260/03 RMK AO2
94908KDBQ DBQ20120602043509806/02/12 04:35:31  5-MIN KDBQ 021035Z AUTO 23004KT 10SM CLR 09/07 A2977 1220 86 900 230/04 RMK AO2
94908KDBQ DBQ20120602044009806/02/12 04:40:31  5-MIN KDBQ 021040Z AUTO 18004KT 10SM CLR 09/07 A2977 1220 86 800 170/04 RMK AO2
94908KDBQ DBQ20120602044510106/02/12 04:45:31  5-MIN KDBQ 021045Z AUTO 17004KT 10SM FEW080 09/07 A2977 1210 86 900 170/04 RMK AO2
94908KDBQ DBQ20120602045011306/02/12 04:50:31  5-MIN KDBQ 021050Z 17003KT 10SM FEW085 09/07 A2978 1210 86 900 170/03 RMK AO2 SLP083 T00940072
94908KDBQ DBQ20120602045509306/02/12 04:55:31  5-MIN KDBQ 021055Z 18003KT 10SM CLR 09/07 A2978 1210 86 900 180/03 RMK AO2
94908KDBQ DBQ20120602050009606/02/12 05:00:31  5-MIN KDBQ 021100Z 20004KT 10SM FEW085 09/07 A2978 1210 86 900 200/04 RMK AO2
94908KDBQ DBQ20120602050509606/02/12 05:05:31  5-MIN KDBQ 021105Z 19007KT 10SM SCT085 09/07 A2978 1210 86 900 190/07 RMK AO2
94908KDBQ DBQ20120602051009606/02/12 05:10:31  5-MIN KDBQ 021110Z 20006KT 10SM BKN085 09/07 A2978 1210 86 900 200/06 RMK AO2
94908KDBQ DBQ20120602051509506/02/12 05:15:31  5-MIN KDBQ 021115Z 25005KT 9SM SCT085 09/07 A2978 1210 86 900 240/05 RMK AO2
94908KDBQ DBQ20120602052009606/02/12 05:20:31  5-MIN KDBQ 021120Z 26005KT 10SM SCT085 10/08 A2978 1210 86 900 260/05 RMK AO2
94908KDBQ DBQ20120602052509606/02/12 05:25:31  5-MIN KDBQ 021125Z 23007KT 10SM SCT085 10/08 A2978 1210 86 900 230/07 RMK AO2
94908KDBQ DBQ20120602053009606/02/12 05:30:31  5-MIN KDBQ 021130Z 23005KT 10SM FEW085 10/08 A2978 1200 86 900 230/05 RMK AO2
94908KDBQ DBQ20120602053509506/02/12 05:35:31  5-MIN KDBQ 021135Z 23005KT 9SM FEW085 10/08 A2978 1200 86 900 230/05 RMK AO2
94908KDBQ DBQ20120602054009406/02/12 05:40:31  5-MIN KDBQ 021140Z 23005KT 10SM CLR 11/08 A2979 1200 86 1000 230/05 RMK AO2
94908KDBQ DBQ20120602054509406/02/12 05:45:31  5-MIN KDBQ 021145Z 21004KT 10SM CLR 11/08 A2979 1200 86 1000 210/04 RMK AO2
94908KDBQ DBQ20120602055012806/02/12 05:50:31  5-MIN KDBQ 021150Z 17003KT 9SM CLR 11/08 A2979 1200 86 1000 170/03 RMK AO2 SLP088 T01060083 10106 20078 56011
94908KDBQ DBQ20120602055509306/02/12 05:55:31  5-MIN KDBQ 021155Z 16003KT 9SM CLR 11/08 A2979 1200 86 1000 160/03 RMK AO2
94908KDBQ DBQ20120602060009306/02/12 06:00:31  5-MIN KDBQ 021200Z VRB03KT 9SM CLR 11/09 A2979 1200 86 1100 VRB/03 RMK AO2
94908KDBQ DBQ20120602060509306/02/12 06:05:31  5-MIN KDBQ 021205Z 23003KT 9SM CLR 12/09 A2979 1200 86 1100 230/03 RMK AO2
94908KDBQ DBQ20120602061009606/02/12 06:10:31  5-MIN KDBQ 021210Z 21003KT 9SM FEW070 12/09 A2979 1200 86 1100 210/03 RMK AO2
94908KDBQ DBQ20120602061509606/02/12 06:15:31  5-MIN KDBQ 021215Z 00000KT 9SM SCT070 12/10 A2979 1200 86 1200 000/00 RMK AO2
94908KDBQ DBQ20120602062009706/02/12 06:20:31  5-MIN KDBQ 021220Z VRB03KT 10SM BKN070 13/09 A2979 1200 80 1300 VRB/03 RMK AO2
94908KDBQ DBQ20120602062509706/02/12 06:25:31  5-MIN KDBQ 021225Z 27003KT 10SM BKN070 13/09 A2980 1190 80 1200 270/03 RMK AO2
94908KDBQ DBQ20120602063009706/02/12 06:30:31  5-MIN KDBQ 021230Z 27003KT 10SM BKN070 13/09 A2980 1190 80 1200 260/03 RMK AO2
94908KDBQ DBQ20120602063509706/02/12 06:35:31  5-MIN KDBQ 021235Z VRB04KT 10SM BKN070 13/09 A2980 1190 80 1200 VRB/04 RMK AO2
94908KDBQ DBQ20120602064009706/02/12 06:40:31  5-MIN KDBQ 021240Z 25003KT 10SM BKN070 13/10 A2980 1190 80 1300 250/03 RMK AO2
94908KDBQ DBQ20120602064509706/02/12 06:45:31  5-MIN KDBQ 021245Z 00000KT 10SM BKN065 14/10 A2980 1190 77 1400 000/00 RMK AO2
94908KDBQ DBQ20120602065011406/02/12 06:50:31  5-MIN KDBQ 021250Z 27004KT 10SM BKN065 14/10 A2980 1190 77 1400 270/04 RMK AO2 SLP090 T01390100
94908KDBQ DBQ20120602065509706/02/12 06:55:31  5-MIN KDBQ 021255Z 27006KT 10SM BKN065 14/10 A2980 1190 77 1400 270/06 RMK AO2
94908KDBQ DBQ20120602070009706/02/12 07:00:31  5-MIN KDBQ 021300Z 26006KT 10SM SCT065 14/11 A2980 1190 80 1400 260/06 RMK AO2
94908KDBQ DBQ20120602070509706/02/12 07:05:31  5-MIN KDBQ 021305Z 28004KT 10SM SCT065 14/11 A2980 1190 80 1400 280/04 RMK AO2
94908KDBQ DBQ20120602071009706/02/12 07:10:31  5-MIN KDBQ 021310Z 29007KT 10SM SCT065 14/11 A2980 1190 77 1400 290/07 RMK AO2
94908KDBQ DBQ20120602071509706/02/12 07:15:31  5-MIN KDBQ 021315Z 29008KT 10SM FEW065 14/11 A2980 1190 80 1400 290/08 RMK AO2
94908KDBQ DBQ20120602072009406/02/12 07:20:31  5-MIN KDBQ 021320Z 29008KT 10SM CLR 15/11 A2980 1190 77 1500 290/08 RMK AO2
94908KDBQ DBQ20120602072509406/02/12 07:25:31  5-MIN KDBQ 021325Z 30007KT 10SM CLR 15/11 A2980 1190 77 1500 300/07 RMK AO2
94908KDBQ DBQ20120602073009406/02/12 07:30:31  5-MIN KDBQ 021330Z 29008KT 10SM CLR 15/11 A2980 1190 74 1500 290/08 RMK AO2
94908KDBQ DBQ20120602073509406/02/12 07:35:31  5-MIN KDBQ 021335Z 28007KT 10SM CLR 16/11 A2980 1190 74 1600 280/07 RMK AO2
94908KDBQ DBQ20120602074009406/02/12 07:40:31  5-MIN KDBQ 021340Z 29008KT 10SM CLR 16/11 A2980 1190 74 1600 290/08 RMK AO2
94908KDBQ DBQ20120602074509406/02/12 07:45:31  5-MIN KDBQ 021345Z 27007KT 10SM CLR 16/11 A2980 1190 74 1600 270/07 RMK AO2
94908KDBQ DBQ20120602075011106/02/12 07:50:31  5-MIN KDBQ 021350Z 26009KT 10SM CLR 16/11 A2980 1190 74 1600 260/09 RMK AO2 SLP092 T01560111
94908KDBQ DBQ20120602075509406/02/12 07:55:31  5-MIN KDBQ 021355Z 28009KT 10SM CLR 16/11 A2980 1190 72 1600 280/09 RMK AO2
94908KDBQ DBQ20120602080009406/02/12 08:00:31  5-MIN KDBQ 021400Z 26008KT 10SM CLR 16/12 A2981 1180 75 1600 260/08 RMK AO2
94908KDBQ DBQ20120602080509406/02/12 08:05:31  5-MIN KDBQ 021405Z 25007KT 10SM CLR 16/11 A2981 1190 74 1600 250/07 RMK AO2
94908KDBQ DBQ20120602081009706/02/12 08:10:31  5-MIN KDBQ 021410Z VRB06KT 10SM FEW085 16/12 A2980 1190 75 1600 VRB/06 RMK AO2
94908KDBQ DBQ20120602081509706/02/12 08:15:31  5-MIN KDBQ 021415Z 28005KT 10SM FEW085 16/12 A2980 1190 75 1600 280/05 RMK AO2
94908KDBQ DBQ20120602082009706/02/12 08:20:31  5-MIN KDBQ 021420Z 25005KT 10SM FEW085 16/11 A2980 1190 72 1600 250/05 RMK AO2
94908KDBQ DBQ20120602082509706/02/12 08:25:31  5-MIN KDBQ 021425Z 28006KT 10SM FEW085 16/11 A2980 1190 72 1600 280/06 RMK AO2
94908KDBQ DBQ20120602083009706/02/12 08:30:31  5-MIN KDBQ 021430Z 25003KT 10SM FEW085 17/11 A2980 1190 69 1700 250/03 RMK AO2
94908KDBQ DBQ20120602083509406/02/12 08:35:31  5-MIN KDBQ 021435Z 25006KT 10SM CLR 17/12 A2980 1190 72 1700 250/06 RMK AO2
94908KDBQ DBQ20120602084009706/02/12 08:40:31  5-MIN KDBQ 021440Z VRB04KT 10SM FEW090 17/12 A2980 1190 72 1700 VRB/04 RMK AO2
94908KDBQ DBQ20120602084509706/02/12 08:45:31  5-MIN KDBQ 021445Z 25007KT 10SM SCT090 17/12 A2980 1190 69 1800 250/07 RMK AO2
94908KDBQ DBQ20120602085012006/02/12 08:50:31  5-MIN KDBQ 021450Z 24008KT 10SM BKN090 17/11 A2980 1190 69 1700 240/08 RMK AO2 SLP090 T01670111 53009
94908KDBQ DBQ20120602085509706/02/12 08:55:31  5-MIN KDBQ 021455Z 26008KT 10SM SCT090 16/11 A2980 1190 72 1600 250/08 RMK AO2
94908KDBQ DBQ20120602090009706/02/12 09:00:31  5-MIN KDBQ 021500Z 28007KT 10SM SCT090 17/12 A2980 1190 69 1800 280/07 RMK AO2
94908KDBQ DBQ20120602090509706/02/12 09:05:31  5-MIN KDBQ 021505Z 26006KT 10SM SCT090 17/12 A2980 1190 72 1800 250/06 RMK AO2
94908KDBQ DBQ20120602091010406/02/12 09:10:31  5-MIN KDBQ 021510Z 27006KT 10SM FEW019 SCT090 18/12 A2980 1190 69 1800 270/06 RMK AO2
94908KDBQ DBQ20120602091510406/02/12 09:15:31  5-MIN KDBQ 021515Z 28006KT 10SM FEW019 SCT090 17/12 A2980 1190 69 1800 270/06 RMK AO2
94908KDBQ DBQ20120602092010406/02/12 09:20:31  5-MIN KDBQ 021520Z 27009KT 10SM FEW019 SCT085 18/12 A2980 1190 67 1800 270/09 RMK AO2
94908KDBQ DBQ20120602092510406/02/12 09:25:31  5-MIN KDBQ 021525Z 24007KT 10SM FEW019 SCT085 17/12 A2980 1190 69 1800 240/07 RMK AO2
94908KDBQ DBQ20120602093011006/02/12 09:30:31  5-MIN KDBQ 021530Z 25011G16KT 10SM FEW021 SCT085 18/12 A2980 1190 67 1900 250/11G16 RMK AO2
94908KDBQ DBQ20120602093510406/02/12 09:35:31  5-MIN KDBQ 021535Z 24011KT 10SM FEW021 SCT085 18/12 A2980 1190 67 1900 240/11 RMK AO2
94908KDBQ DBQ20120602094010406/02/12 09:40:31  5-MIN KDBQ 021540Z 26010KT 10SM FEW025 BKN090 19/12 A2980 1190 65 2000 260/10 RMK AO2
94908KDBQ DBQ20120602094510406/02/12 09:45:31  5-MIN KDBQ 021545Z 27008KT 10SM FEW025 BKN090 18/12 A2980 1190 65 1900 270/08 RMK AO2
94908KDBQ DBQ20120602095012106/02/12 09:50:31  5-MIN KDBQ 021550Z 27008KT 10SM FEW025 BKN090 18/12 A2980 1190 65 1900 270/08 RMK AO2 SLP089 T01830117
94908KDBQ DBQ20120602095510406/02/12 09:55:31  5-MIN KDBQ 021555Z 26010KT 10SM SCT027 BKN090 18/12 A2979 1200 67 1800 260/10 RMK AO2
94908KDBQ DBQ20120602100011106/02/12 10:00:31  5-MIN KDBQ 021600Z 26007KT 10SM FEW025 SCT030 BKN090 18/12 A2979 1190 65 1900 260/07 RMK AO2
94908KDBQ DBQ20120602100510406/02/12 10:05:31  5-MIN KDBQ 021605Z 26010KT 10SM FEW025 OVC090 18/12 A2979 1200 67 1800 260/10 RMK AO2
94908KDBQ DBQ20120602101010406/02/12 10:10:31  5-MIN KDBQ 021610Z 25012KT 10SM FEW027 BKN090 18/12 A2979 1200 67 1900 250/12 RMK AO2
94908KDBQ DBQ20120602101510406/02/12 10:15:31  5-MIN KDBQ 021615Z 25011KT 10SM FEW027 BKN090 18/12 A2979 1200 67 1900 250/11 RMK AO2
94908KDBQ DBQ20120602102010406/02/12 10:20:31  5-MIN KDBQ 021620Z 26010KT 10SM FEW027 SCT090 18/12 A2979 1200 67 1900 260/10 RMK AO2
94908KDBQ DBQ20120602102510406/02/12 10:25:31  5-MIN KDBQ 021625Z 26008KT 10SM FEW026 SCT090 18/12 A2979 1200 67 1900 260/08 RMK AO2
94908KDBQ DBQ20120602103010406/02/12 10:30:31  5-MIN KDBQ 021630Z 26008KT 10SM SCT026 SCT090 18/12 A2979 1200 65 1900 260/08 RMK AO2
94908KDBQ DBQ20120602103510406/02/12 10:35:31  5-MIN KDBQ 021635Z 25010KT 10SM FEW026 SCT090 19/12 A2979 1200 62 2000 250/10 RMK AO2
94908KDBQ DBQ20120602104009706/02/12 10:40:31  5-MIN KDBQ 021640Z 27010KT 10SM FEW026 19/12 A2979 1200 60 2000 270/10 RMK AO2
94908KDBQ DBQ20120602104509706/02/12 10:45:31  5-MIN KDBQ 021645Z 26009KT 10SM FEW026 19/12 A2979 1200 65 2000 260/09 RMK AO2
94908KDBQ DBQ20120602105011406/02/12 10:50:31  5-MIN KDBQ 021650Z 26010KT 10SM SCT026 18/12 A2979 1200 65 1900 260/10 RMK AO2 SLP088 T01830117
94908KDBQ DBQ20120602105509706/02/12 10:55:31  5-MIN KDBQ 021655Z 24009KT 10SM SCT026 19/12 A2979 1200 65 2000 240/09 RMK AO2
94908KDBQ DBQ20120602110009706/02/12 11:00:31  5-MIN KDBQ 021700Z 27010KT 10SM FEW026 19/12 A2979 1200 65 2000 260/10 RMK AO2
94908KDBQ DBQ20120602110510406/02/12 11:05:31  5-MIN KDBQ 021705Z 26009KT 10SM FEW026 SCT085 18/12 A2979 1200 65 1900 260/09 RMK AO2
94908KDBQ DBQ20120602111010406/02/12 11:10:31  5-MIN KDBQ 021710Z 25010KT 10SM FEW026 SCT085 19/13 A2979 1200 65 2000 250/10 RMK AO2
94908KDBQ DBQ20120602111510406/02/12 11:15:31  5-MIN KDBQ 021715Z 27010KT 10SM FEW026 BKN085 19/12 A2979 1200 65 2000 260/10 RMK AO2
94908KDBQ DBQ20120602112010406/02/12 11:20:31  5-MIN KDBQ 021720Z 26008KT 10SM FEW026 SCT085 18/12 A2979 1200 65 1900 260/08 RMK AO2
94908KDBQ DBQ20120602112509706/02/12 11:25:31  5-MIN KDBQ 021725Z 25010KT 10SM FEW085 19/12 A2978 1200 62 2000 250/10 RMK AO2
94908KDBQ DBQ20120602113009706/02/12 11:30:31  5-MIN KDBQ 021730Z 25009KT 10SM FEW085 19/12 A2979 1200 62 2000 250/09 RMK AO2
94908KDBQ DBQ20120602113510306/02/12 11:35:31  5-MIN KDBQ 021735Z 26008G15KT 10SM FEW085 19/12 A2979 1200 62 2000 260/08G15 RMK AO2
94908KDBQ DBQ20120602114009706/02/12 11:40:31  5-MIN KDBQ 021740Z 26009KT 10SM FEW085 19/12 A2978 1200 62 2000 260/09 RMK AO2
94908KDBQ DBQ20120602114509706/02/12 11:45:31  5-MIN KDBQ 021745Z 25007KT 10SM FEW030 19/12 A2978 1200 60 2000 250/07 RMK AO2
94908KDBQ DBQ20120602115013206/02/12 11:50:31  5-MIN KDBQ 021750Z 24009KT 10SM SCT032 19/12 A2978 1200 62 2000 240/09 RMK AO2 SLP085 T01890117 10194 20106 50002
94908KDBQ DBQ20120602115511306/02/12 11:55:31  5-MIN KDBQ 021755Z 26008KT 220V280 10SM SCT032 19/12 A2978 1210 62 2000 260/08 220V280 RMK AO2
94908KDBQ DBQ20120602120009706/02/12 12:00:31  5-MIN KDBQ 021800Z 24009KT 10SM SCT032 19/11 A2978 1210 58 2000 240/09 RMK AO2
94908KDBQ DBQ20120602120510306/02/12 12:05:31  5-MIN KDBQ 021805Z 26011G15KT 10SM BKN032 19/12 A2978 1210 62 2000 260/11G15 RMK AO2
94908KDBQ DBQ20120602121009706/02/12 12:10:31  5-MIN KDBQ 021810Z 26008KT 10SM BKN032 19/12 A2978 1210 62 2000 250/08 RMK AO2
94908KDBQ DBQ20120602121510306/02/12 12:15:31  5-MIN KDBQ 021815Z 26011G17KT 10SM BKN032 19/11 A2978 1210 58 2000 260/11G17 RMK AO2
94908KDBQ DBQ20120602122010306/02/12 12:20:31  5-MIN KDBQ 021820Z 25010G17KT 10SM BKN032 19/11 A2978 1210 58 2000 240/10G17 RMK AO2
94908KDBQ DBQ20120602122509706/02/12 12:25:31  5-MIN KDBQ 021825Z 26009KT 10SM SCT032 19/11 A2979 1200 58 2000 260/09 RMK AO2
94908KDBQ DBQ20120602123011006/02/12 12:30:31  5-MIN KDBQ 021830Z 28011G18KT 10SM SCT032 BKN039 19/11 A2978 1210 60 2000 280/11G18 RMK AO2
94908KDBQ DBQ20120602123511006/02/12 12:35:31  5-MIN KDBQ 021835Z 27009G18KT 10SM SCT034 BKN095 19/11 A2979 1200 58 2000 270/09G18 RMK AO2
94908KDBQ DBQ20120602124011006/02/12 12:40:31  5-MIN KDBQ 021840Z 25010G16KT 10SM SCT036 BKN095 19/11 A2978 1210 60 2000 250/10G16 RMK AO2
94908KDBQ DBQ20120602124511006/02/12 12:45:31  5-MIN KDBQ 021845Z 25009G16KT 10SM FEW036 BKN095 19/12 A2979 1200 60 2000 250/09G16 RMK AO2
94908KDBQ DBQ20120602125012706/02/12 12:50:31  5-MIN KDBQ 021850Z 26011G16KT 10SM SCT034 BKN100 19/11 A2978 1210 60 2000 260/11G16 RMK AO2 SLP086 T01890111
94908KDBQ DBQ20120602125511706/02/12 12:55:31  5-MIN KDBQ 021855Z 26008G16KT 10SM FEW034 SCT050 OVC100 19/12 A2978 1210 60 2000 260/08G16 RMK AO2
94908KDBQ DBQ20120602130010406/02/12 13:00:31  5-MIN KDBQ 021900Z 28008KT 10SM FEW034 OVC095 19/12 A2978 1210 60 2000 280/08 RMK AO2
94908KDBQ DBQ20120602130511106/02/12 13:05:31  5-MIN KDBQ 021905Z 25010KT 10SM FEW034 SCT080 OVC100 19/12 A2978 1210 60 2000 250/10 RMK AO2
94908KDBQ DBQ20120602131011106/02/12 13:10:31  5-MIN KDBQ 021910Z 28009KT 10SM FEW034 SCT080 OVC100 19/11 A2978 1210 58 2000 280/09 RMK AO2
94908KDBQ DBQ20120602131510406/02/12 13:15:31  5-MIN KDBQ 021915Z 25008KT 10SM FEW034 OVC090 19/12 A2978 1210 60 2000 250/08 RMK AO2
94908KDBQ DBQ20120602132009706/02/12 13:20:31  5-MIN KDBQ 021920Z 25009KT 10SM OVC095 20/12 A2978 1210 58 2100 250/09 RMK AO2
94908KDBQ DBQ20120602132509706/02/12 13:25:31  5-MIN KDBQ 021925Z 27008KT 10SM BKN095 19/12 A2977 1210 60 2100 260/08 RMK AO2
94908KDBQ DBQ20120602133010406/02/12 13:30:31  5-MIN KDBQ 021930Z 27008KT 10SM FEW080 BKN100 19/12 A2977 1220 60 2100 270/08 RMK AO2
94908KDBQ DBQ20120602133510406/02/12 13:35:31  5-MIN KDBQ 021935Z 30008KT 10SM FEW036 BKN100 20/12 A2977 1220 58 2100 300/08 RMK AO2
94908KDBQ DBQ20120602134010406/02/12 13:40:31  5-MIN KDBQ 021940Z 29008KT 10SM FEW036 BKN100 21/12 A2977 1220 56 2200 290/08 RMK AO2
94908KDBQ DBQ20120602134510406/02/12 13:45:31  5-MIN KDBQ 021945Z 28012KT 10SM FEW036 BKN100 21/12 A2977 1210 56 2200 270/12 RMK AO2
94908KDBQ DBQ20120602135012106/02/12 13:50:31  5-MIN KDBQ 021950Z 29010KT 10SM FEW038 SCT100 21/12 A2977 1220 56 2200 280/10 RMK AO2 SLP081 T02060117
94908KDBQ DBQ20120602135511006/02/12 13:55:31  5-MIN KDBQ 021955Z 27016G20KT 10SM SCT038 BKN095 19/12 A2977 1220 65 2000 260/16G20 RMK AO2
94908KDBQ DBQ20120602140011706/02/12 14:00:31  5-MIN KDBQ 022000Z 25016G20KT 10SM SCT038 SCT055 BKN080 19/13 A2977 1220 67 2100 250/16G20 RMK AO2
94908KDBQ DBQ20120602140511106/02/12 14:05:31  5-MIN KDBQ 022005Z 25014KT 10SM FEW038 SCT055 SCT085 19/13 A2977 1220 65 2100 250/14 RMK AO2
94908KDBQ DBQ20120602141009706/02/12 14:10:31  5-MIN KDBQ 022010Z 25015KT 10SM FEW038 20/12 A2977 1220 60 2100 250/15 RMK AO2
94908KDBQ DBQ20120602141509706/02/12 14:15:31  5-MIN KDBQ 022015Z 25013KT 10SM FEW038 20/12 A2977 1220 60 2100 240/13 RMK AO2
94908KDBQ DBQ20120602142009706/02/12 14:20:31  5-MIN KDBQ 022020Z 25012KT 10SM FEW038 20/12 A2977 1220 60 2100 250/12 RMK AO2
94908KDBQ DBQ20120602142509706/02/12 14:25:31  5-MIN KDBQ 022025Z 25013KT 10SM FEW060 20/12 A2977 1220 58 2100 250/13 RMK AO2
94908KDBQ DBQ20120602143009706/02/12 14:30:31  5-MIN KDBQ 022030Z 27011KT 10SM FEW090 20/12 A2977 1220 60 2100 270/11 RMK AO2
94908KDBQ DBQ20120602143509706/02/12 14:35:31  5-MIN KDBQ 022035Z 26012KT 10SM FEW090 21/12 A2977 1220 58 2200 260/12 RMK AO2
94908KDBQ DBQ20120602144009706/02/12 14:40:31  5-MIN KDBQ 022040Z 25012KT 10SM FEW090 21/12 A2977 1220 58 2200 250/12 RMK AO2
94908KDBQ DBQ20120602144509706/02/12 14:45:31  5-MIN KDBQ 022045Z 26010KT 10SM FEW090 21/13 A2977 1220 60 2200 260/10 RMK AO2
94908KDBQ DBQ20120602145012006/02/12 14:50:31  5-MIN KDBQ 022050Z 25012KT 10SM FEW090 21/13 A2977 1220 60 2200 250/12 RMK AO2 SLP079 T02060128 58004
94908KDBQ DBQ20120602145509706/02/12 14:55:31  5-MIN KDBQ 022055Z 26010KT 10SM FEW090 19/13 A2977 1220 65 2100 260/10 RMK AO2
94908KDBQ DBQ20120602150009406/02/12 15:00:31  5-MIN KDBQ 022100Z 26011KT 10SM CLR 19/12 A2977 1220 65 2000 260/11 RMK AO2
94908KDBQ DBQ20120602150509406/02/12 15:05:31  5-MIN KDBQ 022105Z 26008KT 10SM CLR 20/13 A2976 1220 63 2100 260/08 RMK AO2
94908KDBQ DBQ20120602151010306/02/12 15:10:31  5-MIN KDBQ 022110Z 27011G15KT 10SM FEW034 21/13 A2976 1220 60 2200 270/11G15 RMK AO2
94908KDBQ DBQ20120602151510306/02/12 15:15:31  5-MIN KDBQ 022115Z 27011G15KT 10SM FEW034 20/12 A2977 1220 60 2100 270/11G15 RMK AO2
94908KDBQ DBQ20120602152009406/02/12 15:20:31  5-MIN KDBQ 022120Z 26010KT 10SM CLR 20/12 A2977 1220 58 2100 260/10 RMK AO2
94908KDBQ DBQ20120602152509706/02/12 15:25:31  5-MIN KDBQ 022125Z 28008KT 10SM FEW039 21/13 A2977 1220 58 2300 280/08 RMK AO2
94908KDBQ DBQ20120602153009706/02/12 15:30:31  5-MIN KDBQ 022130Z 26011KT 10SM FEW041 21/12 A2977 1220 58 2200 260/11 RMK AO2
94908KDBQ DBQ20120602153510406/02/12 15:35:31  5-MIN KDBQ 022135Z 26007KT 10SM FEW040 SCT055 19/12 A2977 1220 60 2100 260/07 RMK AO2
94908KDBQ DBQ20120602154010406/02/12 15:40:31  5-MIN KDBQ 022140Z 27009KT 10SM SCT042 BKN050 19/12 A2977 1220 60 2100 270/09 RMK AO2
94908KDBQ DBQ20120602154511106/02/12 15:45:31  5-MIN KDBQ 022145Z 29010KT 10SM SCT040 BKN050 BKN070 20/12 A2977 1220 58 2100 290/10 RMK AO2
94908KDBQ DBQ20120602155012806/02/12 15:50:31  5-MIN KDBQ 022150Z 26010KT 10SM SCT042 BKN050 BKN070 21/12 A2976 1230 54 2300 260/10 RMK AO2 SLP076 T02110117
94908KDBQ DBQ20120602155511706/02/12 15:55:31  5-MIN KDBQ 022155Z 26014G17KT 10SM SCT041 BKN049 BKN055 21/11 A2976 1220 52 2300 260/14G17 RMK AO2
94908KDBQ DBQ20120602160011106/02/12 16:00:31  5-MIN KDBQ 022200Z 26012KT 10SM FEW037 SCT045 BKN050 21/11 A2976 1220 52 2200 260/12 RMK AO2
94908KDBQ DBQ20120602160511106/02/12 16:05:31  5-MIN KDBQ 022205Z 27011KT 10SM FEW037 BKN045 BKN065 20/11 A2976 1220 56 2100 260/11 RMK AO2
94908KDBQ DBQ20120602161011706/02/12 16:10:31  5-MIN KDBQ 022210Z 29011G17KT 10SM SCT045 BKN060 BKN085 21/11 A2976 1220 54 2200 290/11G17 RMK AO2
94908KDBQ DBQ20120602161511106/02/12 16:15:31  5-MIN KDBQ 022215Z 30011KT 10SM FEW045 SCT060 BKN085 21/11 A2977 1220 52 2300 290/11 RMK AO2
94908KDBQ DBQ20120602162011106/02/12 16:20:31  5-MIN KDBQ 022220Z 29008KT 10SM FEW045 SCT060 BKN085 21/11 A2977 1220 54 2200 290/08 RMK AO2
94908KDBQ DBQ20120602162511106/02/12 16:25:31  5-MIN KDBQ 022225Z 30009KT 10SM SCT045 SCT060 SCT085 20/11 A2977 1220 56 2100 300/09 RMK AO2
94908KDBQ DBQ20120602163011106/02/12 16:30:31  5-MIN KDBQ 022230Z 30009KT 10SM SCT045 BKN055 BKN085 21/11 A2977 1220 54 2200 300/09 RMK AO2
94908KDBQ DBQ20120602163511106/02/12 16:35:31  5-MIN KDBQ 022235Z 29010KT 10SM FEW045 SCT055 BKN090 21/11 A2977 1220 52 2200 290/10 RMK AO2
94908KDBQ DBQ20120602164010406/02/12 16:40:31  5-MIN KDBQ 022240Z 29009KT 10SM FEW045 BKN090 21/11 A2977 1220 54 2200 290/09 RMK AO2
94908KDBQ DBQ20120602164510406/02/12 16:45:31  5-MIN KDBQ 022245Z 29010KT 10SM FEW045 BKN090 21/11 A2977 1220 52 2300 290/10 RMK AO2
94908KDBQ DBQ20120602165012106/02/12 16:50:31  5-MIN KDBQ 022250Z 30011KT 10SM FEW045 BKN090 21/11 A2977 1220 52 2300 300/11 RMK AO2 SLP078 T02110111
94908KDBQ DBQ20120602165510406/02/12 16:55:31  5-MIN KDBQ 022255Z 29011KT 10SM FEW055 OVC090 21/11 A2977 1220 50 2300 290/11 RMK AO2
94908KDBQ DBQ20120602170009706/02/12 17:00:31  5-MIN KDBQ 022300Z 30011KT 10SM BKN090 21/11 A2977 1220 50 2200 300/11 RMK AO2
94908KDBQ DBQ20120602170509706/02/12 17:05:31  5-MIN KDBQ 022305Z 30009KT 10SM BKN090 21/11 A2977 1220 50 2200 300/09 RMK AO2
94908KDBQ DBQ20120602171009706/02/12 17:10:31  5-MIN KDBQ 022310Z 29010KT 10SM SCT090 21/11 A2977 1220 50 2200 290/10 RMK AO2
94908KDBQ DBQ20120602171509706/02/12 17:15:31  5-MIN KDBQ 022315Z 30011KT 10SM FEW090 21/11 A2977 1220 50 2300 300/11 RMK AO2
94908KDBQ DBQ20120602172009706/02/12 17:20:31  5-MIN KDBQ 022320Z 30009KT 10SM FEW090 21/10 A2977 1220 48 2200 300/09 RMK AO2
94908KDBQ DBQ20120602172509406/02/12 17:25:31  5-MIN KDBQ 022325Z 29009KT 10SM CLR 21/11 A2977 1220 50 2200 290/09 RMK AO2
94908KDBQ DBQ20120602173009406/02/12 17:30:31  5-MIN KDBQ 022330Z 30009KT 10SM CLR 21/11 A2977 1220 50 2200 290/09 RMK AO2
94908KDBQ DBQ20120602173509406/02/12 17:35:31  5-MIN KDBQ 022335Z 32012KT 10SM CLR 21/11 A2977 1220 50 2200 320/12 RMK AO2
94908KDBQ DBQ20120602174009406/02/12 17:40:31  5-MIN KDBQ 022340Z 31009KT 10SM CLR 21/10 A2977 1220 50 2200 310/09 RMK AO2
94908KDBQ DBQ20120602174509406/02/12 17:45:31  5-MIN KDBQ 022345Z 31007KT 10SM CLR 21/11 A2977 1220 50 2200 310/07 RMK AO2
94908KDBQ DBQ20120602175012906/02/12 17:50:31  5-MIN KDBQ 022350Z 31010KT 10SM CLR 21/10 A2977 1220 48 2200 310/10 RMK AO2 SLP080 T02110100 10217 20189 58006
94908KDBQ DBQ20120602175509406/02/12 17:55:31  5-MIN KDBQ 022355Z 30008KT 10SM CLR 21/10 A2977 1210 50 2200 300/08 RMK AO2
94908KDBQ DBQ20120602180009406/02/12 18:00:31  5-MIN KDBQ 030000Z 31009KT 10SM CLR 21/11 A2977 1210 52 2200 310/09 RMK AO2
94908KDBQ DBQ20120602180509406/02/12 18:05:31  5-MIN KDBQ 030005Z 31008KT 10SM CLR 21/10 A2977 1210 50 2200 310/08 RMK AO2
94908KDBQ DBQ20120602181009406/02/12 18:10:31  5-MIN KDBQ 030010Z 31007KT 10SM CLR 21/10 A2978 1210 50 2200 310/07 RMK AO2
94908KDBQ DBQ20120602181509406/02/12 18:15:31  5-MIN KDBQ 030015Z 31009KT 10SM CLR 21/10 A2978 1210 50 2200 310/09 RMK AO2
94908KDBQ DBQ20120602182009406/02/12 18:20:31  5-MIN KDBQ 030020Z 30008KT 10SM CLR 20/10 A2978 1210 52 2100 300/08 RMK AO2
94908KDBQ DBQ20120602182509406/02/12 18:25:31  5-MIN KDBQ 030025Z 31008KT 10SM CLR 20/10 A2978 1210 52 2100 310/08 RMK AO2
94908KDBQ DBQ20120602183009406/02/12 18:30:31  5-MIN KDBQ 030030Z 31008KT 10SM CLR 20/10 A2978 1210 52 2100 310/08 RMK AO2
94908KDBQ DBQ20120602183509406/02/12 18:35:31  5-MIN KDBQ 030035Z 31007KT 10SM CLR 20/10 A2978 1210 52 2100 310/07 RMK AO2
94908KDBQ DBQ20120602184009406/02/12 18:40:31  5-MIN KDBQ 030040Z 31008KT 10SM CLR 19/10 A2978 1210 54 2000 310/08 RMK AO2
94908KDBQ DBQ20120602184509406/02/12 18:45:31  5-MIN KDBQ 030045Z 32006KT 10SM CLR 19/10 A2978 1210 54 2000 320/06 RMK AO2
94908KDBQ DBQ20120602185011606/02/12 18:50:31  5-MIN KDBQ 030050Z AUTO 31006KT 10SM CLR 19/10 A2978 1210 56 2000 310/06 RMK AO2 SLP083 T01890100
94908KDBQ DBQ20120602185509906/02/12 18:55:31  5-MIN KDBQ 030055Z AUTO 31008KT 10SM CLR 19/10 A2978 1210 56 2000 310/08 RMK AO2
94908KDBQ DBQ20120602190009906/02/12 19:00:31  5-MIN KDBQ 030100Z AUTO 31006KT 10SM CLR 18/09 A2978 1210 56 1900 310/06 RMK AO2
94908KDBQ DBQ20120602190509906/02/12 19:05:31  5-MIN KDBQ 030105Z AUTO 31006KT 10SM CLR 18/09 A2978 1200 56 1900 310/06 RMK AO2
94908KDBQ DBQ20120602191009906/02/12 19:10:31  5-MIN KDBQ 030110Z AUTO 32005KT 10SM CLR 18/09 A2978 1200 56 1900 320/05 RMK AO2
94908KDBQ DBQ20120602191509906/02/12 19:15:31  5-MIN KDBQ 030115Z AUTO 31005KT 10SM CLR 18/09 A2978 1200 58 1800 310/05 RMK AO2
94908KDBQ DBQ20120602192009906/02/12 19:20:31  5-MIN KDBQ 030120Z AUTO 30004KT 10SM CLR 17/09 A2978 1200 60 1800 300/04 RMK AO2
94908KDBQ DBQ20120602192509906/02/12 19:25:31  5-MIN KDBQ 030125Z AUTO 30003KT 10SM CLR 18/09 A2978 1210 58 1900 300/03 RMK AO2
94908KDBQ DBQ20120602193009906/02/12 19:30:31  5-MIN KDBQ 030130Z AUTO 30003KT 10SM CLR 18/09 A2978 1210 58 1900 300/03 RMK AO2
94908KDBQ DBQ20120602193509906/02/12 19:35:31  5-MIN KDBQ 030135Z AUTO 29004KT 10SM CLR 18/09 A2978 1210 58 1800 290/04 RMK AO2
94908KDBQ DBQ20120602194009906/02/12 19:40:31  5-MIN KDBQ 030140Z AUTO 29004KT 10SM CLR 17/09 A2978 1200 60 1800 290/04 RMK AO2
94908KDBQ DBQ20120602194509906/02/12 19:45:31  5-MIN KDBQ 030145Z AUTO 28003KT 10SM CLR 17/09 A2979 1200 60 1800 280/03 RMK AO2
94908KDBQ DBQ20120602195011606/02/12 19:50:31  5-MIN KDBQ 030150Z AUTO 28003KT 10SM CLR 17/09 A2979 1200 62 1700 280/03 RMK AO2 SLP086 T01670094
94908KDBQ DBQ20120602195509906/02/12 19:55:31  5-MIN KDBQ 030155Z AUTO 00000KT 10SM CLR 17/09 A2979 1200 62 1700 000/00 RMK AO2
94908KDBQ DBQ20120602200009906/02/12 20:00:31  5-MIN KDBQ 030200Z AUTO 00000KT 10SM CLR 16/09 A2979 1200 67 1600 000/00 RMK AO2
94908KDBQ DBQ20120602200509906/02/12 20:05:31  5-MIN KDBQ 030205Z AUTO 00000KT 10SM CLR 16/09 A2979 1200 64 1600 000/00 RMK AO2
94908KDBQ DBQ20120602201009906/02/12 20:10:31  5-MIN KDBQ 030210Z AUTO 00000KT 10SM CLR 16/09 A2979 1200 67 1600 000/00 RMK AO2
94908KDBQ DBQ20120602201510106/02/12 20:15:31  5-MIN KDBQ 030215Z AUTO 00000KT 10SM CLR 15/09 A2980 1190 69 1500 000/00 RMK AO2 $
94908KDBQ DBQ20120602202009606/02/12 20:20:31  5-MIN KDBQ 030220Z AUTO 00000KT CLR 15/09 A2980 1190 69 1500 000/00 RMK AO2 $
94908KDBQ DBQ20120602202510106/02/12 20:25:31  5-MIN KDBQ 030225Z AUTO 00000KT 10SM CLR 16/11 A2980 1190 72 1600 000/00 RMK AO2 $
94908KDBQ DBQ20120602203010106/02/12 20:30:31  5-MIN KDBQ 030230Z AUTO 00000KT 10SM CLR 16/10 A2980 1190 69 1600 000/00 RMK AO2 $
94908KDBQ DBQ20120602203510106/02/12 20:35:31  5-MIN KDBQ 030235Z AUTO 00000KT 10SM CLR 16/10 A2980 1190 69 1600 000/00 RMK AO2 $
94908KDBQ DBQ20120602204010106/02/12 20:40:31  5-MIN KDBQ 030240Z AUTO 00000KT 10SM CLR 15/10 A2980 1190 72 1500 000/00 RMK AO2 $
94908KDBQ DBQ20120602204510106/02/12 20:45:31  5-MIN KDBQ 030245Z AUTO 00000KT 10SM CLR 14/11 A2980 1190 77 1400 000/00 RMK AO2 $
94908KDBQ DBQ20120602205012406/02/12 20:50:31  5-MIN KDBQ 030250Z AUTO 00000KT 10SM CLR 15/10 A2981 1180 72 1500 000/00 RMK AO2 SLP092 T01500100 53002 $
94908KDBQ DBQ20120602205510106/02/12 20:55:31  5-MIN KDBQ 030255Z AUTO 00000KT 10SM CLR 15/10 A2981 1180 72 1500 000/00 RMK AO2 $
94908KDBQ DBQ20120602210010106/02/12 21:00:31  5-MIN KDBQ 030300Z AUTO 00000KT 10SM CLR 14/10 A2981 1180 74 1400 000/00 RMK AO2 $
94908KDBQ DBQ20120602210510106/02/12 21:05:31  5-MIN KDBQ 030305Z AUTO 00000KT 10SM CLR 14/10 A2981 1180 74 1400 000/00 RMK AO2 $
94908KDBQ DBQ20120602211010106/02/12 21:10:31  5-MIN KDBQ 030310Z AUTO 00000KT 10SM CLR 14/10 A2981 1180 74 1400 000/00 RMK AO2 $
94908KDBQ DBQ20120602211510106/02/12 21:15:31  5-MIN KDBQ 030315Z AUTO 22003KT 10SM CLR 14/10 A2981 1180 77 1400 220/03 RMK AO2 $
94908KDBQ DBQ20120602212010106/02/12 21:20:31  5-MIN KDBQ 030320Z AUTO 22005KT 10SM CLR 13/09 A2982 1170 77 1300 220/05 RMK AO2 $
94908KDBQ DBQ20120602212510106/02/12 21:25:31  5-MIN KDBQ 030325Z AUTO 23004KT 10SM CLR 13/10 A2982 1170 80 1300 230/04 RMK AO2 $
94908KDBQ DBQ20120602213010106/02/12 21:30:31  5-MIN KDBQ 030330Z AUTO 22004KT 10SM CLR 13/10 A2982 1170 83 1200 210/04 RMK AO2 $
94908KDBQ DBQ20120602213510106/02/12 21:35:31  5-MIN KDBQ 030335Z AUTO 22003KT 10SM CLR 13/10 A2982 1170 80 1300 220/03 RMK AO2 $
94908KDBQ DBQ20120602214010106/02/12 21:40:31  5-MIN KDBQ 030340Z AUTO 00000KT 10SM CLR 13/10 A2982 1170 80 1300 000/00 RMK AO2 $
94908KDBQ DBQ20120602214510106/02/12 21:45:31  5-MIN KDBQ 030345Z AUTO 23003KT 10SM CLR 14/10 A2982 1170 77 1400 230/03 RMK AO2 $
94908KDBQ DBQ20120602215011806/02/12 21:50:31  5-MIN KDBQ 030350Z AUTO 22003KT 10SM CLR 13/10 A2982 1170 80 1300 220/03 RMK AO2 SLP096 T01330100 $
94908KDBQ DBQ20120602215510106/02/12 21:55:31  5-MIN KDBQ 030355Z AUTO 22003KT 10SM CLR 13/10 A2982 1170 83 1200 220/03 RMK AO2 $
94908KDBQ DBQ20120602220010106/02/12 22:00:31  5-MIN KDBQ 030400Z AUTO 21003KT 10SM CLR 13/10 A2982 1170 83 1200 210/03 RMK AO2 $
94908KDBQ DBQ20120602220510106/02/12 22:05:31  5-MIN KDBQ 030405Z AUTO 22003KT 10SM CLR 13/10 A2982 1170 83 1200 210/03 RMK AO2 $
94908KDBQ DBQ20120602221010106/02/12 22:10:31  5-MIN KDBQ 030410Z AUTO 21004KT 10SM CLR 13/10 A2982 1170 83 1200 210/04 RMK AO2 $
94908KDBQ DBQ20120602221510106/02/12 22:15:31  5-MIN KDBQ 030415Z AUTO 22003KT 10SM CLR 13/10 A2982 1170 83 1200 210/03 RMK AO2 $
94908KDBQ DBQ20120602222010106/02/12 22:20:31  5-MIN KDBQ 030420Z AUTO 21003KT 10SM CLR 13/10 A2982 1170 83 1200 210/03 RMK AO2 $
94908KDBQ DBQ20120602222510106/02/12 22:25:31  5-MIN KDBQ 030425Z AUTO 22003KT 10SM CLR 13/10 A2982 1170 80 1300 220/03 RMK AO2 $
94908KDBQ DBQ20120602223010106/02/12 22:30:31  5-MIN KDBQ 030430Z AUTO 00000KT 10SM CLR 13/10 A2982 1170 83 1200 000/00 RMK AO2 $
94908KDBQ DBQ20120602223510106/02/12 22:35:31  5-MIN KDBQ 030435Z AUTO 21003KT 10SM CLR 12/10 A2982 1170 86 1200 210/03 RMK AO2 $
94908KDBQ DBQ20120602224010106/02/12 22:40:31  5-MIN KDBQ 030440Z AUTO 21003KT 10SM CLR 12/10 A2982 1170 86 1200 210/03 RMK AO2 $
94908KDBQ DBQ20120602224510106/02/12 22:45:31  5-MIN KDBQ 030445Z AUTO 21003KT 10SM CLR 12/11 A2982 1170 89 1200 210/03 RMK AO2 $
94908KDBQ DBQ20120602225011806/02/12 22:50:31  5-MIN KDBQ 030450Z AUTO 00000KT 10SM CLR 13/11 A2982 1170 86 1200 000/00 RMK AO2 SLP097 T01280106 $
94908KDBQ DBQ20120602225510106/02/12 22:55:31  5-MIN KDBQ 030455Z AUTO 00000KT 10SM CLR 13/11 A2982 1170 86 1200 000/00 RMK AO2 $
94908KDBQ DBQ20120602230010106/02/12 23:00:31  5-MIN KDBQ 030500Z AUTO 00000KT 10SM CLR 13/11 A2982 1170 86 1200 000/00 RMK AO2 $
94908KDBQ DBQ20120602230510106/02/12 23:05:31  5-MIN KDBQ 030505Z AUTO 00000KT 10SM CLR 13/11 A2982 1170 86 1200 000/00 RMK AO2 $
94908KDBQ DBQ20120602231010106/02/12 23:10:31  5-MIN KDBQ 030510Z AUTO 21003KT 10SM CLR 13/11 A2982 1170 86 1200 210/03 RMK AO2 $
94908KDBQ DBQ20120602231510106/02/12 23:15:31  5-MIN KDBQ 030515Z AUTO 00000KT 10SM CLR 12/11 A2982 1170 89 1200 000/00 RMK AO2 $
94908KDBQ DBQ20120602232010106/02/12 23:20:31  5-MIN KDBQ 030520Z AUTO 00000KT 10SM CLR 13/11 A2982 1170 86 1200 000/00 RMK AO2 $
94908KDBQ DBQ20120602232510106/02/12 23:25:31  5-MIN KDBQ 030525Z AUTO 21003KT 10SM CLR 13/11 A2982 1170 86 1200 210/03 RMK AO2 $
94908KDBQ DBQ20120602233010106/02/12 23:30:31  5-MIN KDBQ 030530Z AUTO 22003KT 10SM CLR 13/11 A2982 1170 86 1200 210/03 RMK AO2 $
94908KDBQ DBQ20120602233510106/02/12 23:35:31  5-MIN KDBQ 030535Z AUTO 22003KT 10SM CLR 13/10 A2983 1170 83 1200 220/03 RMK AO2 $
94908KDBQ DBQ20120602234010106/02/12 23:40:31  5-MIN KDBQ 030540Z AUTO 22003KT 10SM CLR 12/10 A2983 1170 86 1100 220/03 RMK AO2 $
94908KDBQ DBQ20120602234510006/02/12 23:45:31  5-MIN KDBQ 030545Z AUTO 22004KT 9SM CLR 12/10 A2983 1160 86 1100 220/04 RMK AO2 $
94908KDBQ DBQ20120602235014506/02/12 23:50:31  5-MIN KDBQ 030550Z AUTO 22004KT 9SM CLR 12/10 A2983 1170 86 1100 220/04 RMK AO2 SLP099 T01220100 10206 20122 402170078 53011 $
94908KDBQ DBQ20120602235510006/02/12 23:55:31  5-MIN KDBQ 030555Z AUTO 22003KT 9SM CLR 12/10 A2983 1160 86 1100 220/03 RMK AO2 $
94908KDBQ DBQ20120603000010006/03/12 00:00:38  5-MIN KDBQ 030600Z AUTO 23003KT 8SM CLR 12/10 A2983 1160 89 1100 220/03 RMK AO2 $
94908KDBQ DBQ20120603000510006/03/12 00:05:31  5-MIN KDBQ 030605Z AUTO 23003KT 8SM CLR 12/10 A2983 1160 86 1100 230/03 RMK AO2 $
94908KDBQ DBQ20120603001010006/03/12 00:10:31  5-MIN KDBQ 030610Z AUTO 23003KT 9SM CLR 13/11 A2983 1160 86 1200 230/03 RMK AO2 $
94908KDBQ DBQ20120603001510006/03/12 00:15:32  5-MIN KDBQ 030615Z AUTO 23003KT 9SM CLR 12/11 A2983 1160 89 1100 230/03 RMK AO2 $
94908KDBQ DBQ20120603002010006/03/12 00:20:31  5-MIN KDBQ 030620Z AUTO 23003KT 9SM CLR 12/10 A2983 1160 86 1100 230/03 RMK AO2 $
94908KDBQ DBQ20120603002510006/03/12 00:25:31  5-MIN KDBQ 030625Z AUTO 22004KT 9SM CLR 12/10 A2983 1160 86 1100 220/04 RMK AO2 $
94908KDBQ DBQ20120603003010006/03/12 00:30:31  5-MIN KDBQ 030630Z AUTO 22005KT 9SM CLR 12/10 A2983 1160 86 1100 220/05 RMK AO2 $
94908KDBQ DBQ20120603003510006/03/12 00:35:31  5-MIN KDBQ 030635Z AUTO 22004KT 9SM CLR 12/10 A2983 1160 89 1100 220/04 RMK AO2 $
94908KDBQ DBQ20120603004010006/03/12 00:40:31  5-MIN KDBQ 030640Z AUTO 22003KT 9SM CLR 12/10 A2983 1160 89 1100 220/03 RMK AO2 $
94908KDBQ DBQ20120603004510006/03/12 00:45:31  5-MIN KDBQ 030645Z AUTO 24003KT 9SM CLR 13/10 A2983 1160 83 1200 230/03 RMK AO2 $
94908KDBQ DBQ20120603005011706/03/12 00:50:31  5-MIN KDBQ 030650Z AUTO 00000KT 9SM CLR 12/10 A2983 1160 86 1100 000/00 RMK AO2 SLP100 T01220100 $
94908KDBQ DBQ20120603005510006/03/12 00:55:31  5-MIN KDBQ 030655Z AUTO 20003KT 9SM CLR 12/10 A2983 1170 89 1100 200/03 RMK AO2 $
94908KDBQ DBQ20120603010010006/03/12 01:00:31  5-MIN KDBQ 030700Z AUTO 21004KT 8SM CLR 11/09 A2983 1170 89 1000 210/04 RMK AO2 $
94908KDBQ DBQ20120603010510006/03/12 01:05:31  5-MIN KDBQ 030705Z AUTO 23004KT 8SM CLR 11/09 A2983 1160 89 1000 230/04 RMK AO2 $
94908KDBQ DBQ20120603011010006/03/12 01:10:31  5-MIN KDBQ 030710Z AUTO 23004KT 8SM CLR 11/09 A2983 1160 89 1000 220/04 RMK AO2 $
94908KDBQ DBQ20120603011510006/03/12 01:15:31  5-MIN KDBQ 030715Z AUTO 22003KT 9SM CLR 12/10 A2983 1160 86 1100 220/03 RMK AO2 $
94908KDBQ DBQ20120603012010006/03/12 01:20:31  5-MIN KDBQ 030720Z AUTO 00000KT 8SM CLR 12/09 A2983 1160 86 1100 000/00 RMK AO2 $
94908KDBQ DBQ20120603012510006/03/12 01:25:31  5-MIN KDBQ 030725Z AUTO 00000KT 8SM CLR 12/10 A2983 1160 86 1100 000/00 RMK AO2 $
94908KDBQ DBQ20120603013010006/03/12 01:30:31  5-MIN KDBQ 030730Z AUTO 00000KT 9SM CLR 13/10 A2983 1160 83 1200 000/00 RMK AO2 $
94908KDBQ DBQ20120603013510006/03/12 01:35:31  5-MIN KDBQ 030735Z AUTO 21004KT 9SM CLR 12/10 A2983 1160 89 1100 210/04 RMK AO2 $
94908KDBQ DBQ20120603014010006/03/12 01:40:31  5-MIN KDBQ 030740Z AUTO 23004KT 9SM CLR 11/09 A2983 1160 89 1000 230/04 RMK AO2 $
94908KDBQ DBQ20120603014510006/03/12 01:45:31  5-MIN KDBQ 030745Z AUTO 22003KT 9SM CLR 11/09 A2983 1160 89 1000 220/03 RMK AO2 $
94908KDBQ DBQ20120603015011706/03/12 01:50:31  5-MIN KDBQ 030750Z AUTO 20003KT 9SM CLR 11/09 A2983 1160 86 1000 200/03 RMK AO2 SLP100 T01110089 $
94908KDBQ DBQ20120603015510006/03/12 01:55:31  5-MIN KDBQ 030755Z AUTO 22003KT 9SM CLR 11/09 A2983 1160 89 1000 220/03 RMK AO2 $
94908KDBQ DBQ20120603020009906/03/12 02:00:31  5-MIN KDBQ 030800Z AUTO 24003KT 8SM CLR 11/09 A2983 1160 89 900 240/03 RMK AO2 $
94908KDBQ DBQ20120603020510006/03/12 02:05:31  5-MIN KDBQ 030805Z AUTO 22003KT 9SM CLR 12/09 A2983 1160 86 1100 220/03 RMK AO2 $
94908KDBQ DBQ20120603021009906/03/12 02:10:31  5-MIN KDBQ 030810Z AUTO 24004KT 9SM CLR 11/09 A2983 1160 89 900 240/04 RMK AO2 $
94908KDBQ DBQ20120603021510006/03/12 02:15:31  5-MIN KDBQ 030815Z AUTO 24004KT 9SM CLR 11/09 A2983 1160 86 1000 230/04 RMK AO2 $
94908KDBQ DBQ20120603022010106/03/12 02:20:31  5-MIN KDBQ 030820Z AUTO 23005KT 10SM CLR 12/09 A2983 1160 83 1100 230/05 RMK AO2 $
94908KDBQ DBQ20120603022510106/03/12 02:25:31  5-MIN KDBQ 030825Z AUTO 25004KT 10SM CLR 11/09 A2983 1160 86 1000 240/04 RMK AO2 $
94908KDBQ DBQ20120603023010106/03/12 02:30:31  5-MIN KDBQ 030830Z AUTO 25004KT 10SM CLR 12/09 A2983 1160 83 1100 250/04 RMK AO2 $
94908KDBQ DBQ20120603023510106/03/12 02:35:31  5-MIN KDBQ 030835Z AUTO 24003KT 10SM CLR 11/09 A2983 1170 86 1000 240/03 RMK AO2 $
94908KDBQ DBQ20120603024010106/03/12 02:40:31  5-MIN KDBQ 030840Z AUTO 25003KT 10SM CLR 11/09 A2983 1160 86 1000 240/03 RMK AO2 $
94908KDBQ DBQ20120603024510106/03/12 02:45:31  5-MIN KDBQ 030845Z AUTO 23003KT 10SM CLR 11/09 A2983 1170 86 1000 230/03 RMK AO2 $
94908KDBQ DBQ20120603025012406/03/12 02:50:31  5-MIN KDBQ 030850Z AUTO VRB04KT 10SM CLR 11/09 A2983 1160 86 1000 VRB/04 RMK AO2 SLP099 T01110089 51007 $
94908KDBQ DBQ20120603025510106/03/12 02:55:31  5-MIN KDBQ 030855Z AUTO 26004KT 10SM CLR 12/08 A2983 1170 80 1100 260/04 RMK AO2 $
94908KDBQ DBQ20120603030010106/03/12 03:00:31  5-MIN KDBQ 030900Z AUTO 22005KT 10SM CLR 12/09 A2983 1170 83 1100 220/05 RMK AO2 $
94908KDBQ DBQ20120603030510106/03/12 03:05:31  5-MIN KDBQ 030905Z AUTO 22005KT 10SM CLR 11/09 A2983 1160 86 1000 220/05 RMK AO2 $
94908KDBQ DBQ20120603031010106/03/12 03:10:31  5-MIN KDBQ 030910Z AUTO 23003KT 10SM CLR 11/09 A2983 1160 86 1000 230/03 RMK AO2 $
94908KDBQ DBQ20120603031510106/03/12 03:15:31  5-MIN KDBQ 030915Z AUTO 00000KT 10SM CLR 12/09 A2983 1170 83 1100 000/00 RMK AO2 $
94908KDBQ DBQ20120603032010106/03/12 03:20:31  5-MIN KDBQ 030920Z AUTO 23003KT 10SM CLR 11/08 A2982 1170 83 1000 230/03 RMK AO2 $
94908KDBQ DBQ20120603032510106/03/12 03:25:31  5-MIN KDBQ 030925Z AUTO 23004KT 10SM CLR 11/08 A2982 1170 86 1000 230/04 RMK AO2 $
94908KDBQ DBQ20120603033010106/03/12 03:30:31  5-MIN KDBQ 030930Z AUTO 24003KT 10SM CLR 11/08 A2982 1170 86 1000 240/03 RMK AO2 $
94908KDBQ DBQ20120603033510106/03/12 03:35:31  5-MIN KDBQ 030935Z AUTO 00000KT 10SM CLR 11/08 A2982 1170 83 1000 000/00 RMK AO2 $
94908KDBQ DBQ20120603034010106/03/12 03:40:31  5-MIN KDBQ 030940Z AUTO 00000KT 10SM CLR 11/08 A2982 1170 86 1000 000/00 RMK AO2 $
94908KDBQ DBQ20120603034510106/03/12 03:45:31  5-MIN KDBQ 030945Z AUTO 00000KT 10SM CLR 11/08 A2982 1170 83 1000 000/00 RMK AO2 $
94908KDBQ DBQ20120603035011806/03/12 03:50:31  5-MIN KDBQ 030950Z AUTO 00000KT 10SM CLR 12/09 A2982 1170 83 1100 000/00 RMK AO2 SLP095 T01170089 $
94908KDBQ DBQ20120603035510106/03/12 03:55:31  5-MIN KDBQ 030955Z AUTO 00000KT 10SM CLR 11/08 A2982 1170 86 1000 000/00 RMK AO2 $
94908KDBQ DBQ20120603040010106/03/12 04:00:31  5-MIN KDBQ 031000Z AUTO 00000KT 10SM CLR 11/08 A2982 1170 83 1000 000/00 RMK AO2 $
94908KDBQ DBQ20120603040510106/03/12 04:05:31  5-MIN KDBQ 031005Z AUTO 22003KT 10SM CLR 11/08 A2982 1170 86 1000 220/03 RMK AO2 $
94908KDBQ DBQ20120603041010106/03/12 04:10:31  5-MIN KDBQ 031010Z AUTO 21003KT 10SM CLR 11/08 A2982 1170 86 1000 210/03 RMK AO2 $
94908KDBQ DBQ20120603041510006/03/12 04:15:31  5-MIN KDBQ 031015Z AUTO 21003KT 10SM CLR 10/08 A2983 1160 86 900 210/03 RMK AO2 $
94908KDBQ DBQ20120603042009906/03/12 04:20:31  5-MIN KDBQ 031020Z AUTO 21003KT 8SM CLR 10/08 A2983 1160 86 900 210/03 RMK AO2 $
94908KDBQ DBQ20120603042510006/03/12 04:25:31  5-MIN KDBQ 031025Z AUTO 00000KT 8SM CLR 11/08 A2983 1170 86 1000 000/00 RMK AO2 $
94908KDBQ DBQ20120603043010006/03/12 04:30:31  5-MIN KDBQ 031030Z AUTO 00000KT 8SM CLR 11/08 A2982 1170 86 1000 000/00 RMK AO2 $
94908KDBQ DBQ20120603043510006/03/12 04:35:31  5-MIN KDBQ 031035Z AUTO 00000KT 8SM CLR 11/08 A2983 1170 86 1000 000/00 RMK AO2 $
94908KDBQ DBQ20120603044009906/03/12 04:40:31  5-MIN KDBQ 031040Z AUTO 00000KT 8SM CLR 11/08 A2983 1160 86 900 000/00 RMK AO2 $
94908KDBQ DBQ20120603044509406/03/12 04:45:31  5-MIN KDBQ 031045Z 00000KT 8SM CLR 11/08 A2983 1160 86 900 000/00 RMK AO2 $
94908KDBQ DBQ20120603045011106/03/12 04:50:31  5-MIN KDBQ 031050Z 00000KT 8SM CLR 10/08 A2983 1170 89 900 000/00 RMK AO2 SLP099 T01000083 $
94908KDBQ DBQ20120603045509406/03/12 04:55:31  5-MIN KDBQ 031055Z 00000KT 8SM CLR 11/08 A2983 1170 86 900 000/00 RMK AO2 $
94908KDBQ DBQ20120603050009506/03/12 05:00:31  5-MIN KDBQ 031100Z 00000KT 9SM CLR 11/08 A2983 1170 86 1000 000/00 RMK AO2 $
94908KDBQ DBQ20120603050509406/03/12 05:05:31  5-MIN KDBQ 031105Z 00000KT 9SM CLR 11/08 A2983 1160 86 900 000/00 RMK AO2 $
94908KDBQ DBQ20120603051009506/03/12 05:10:31  5-MIN KDBQ 031110Z 20003KT 9SM CLR 11/08 A2983 1160 83 1000 200/03 RMK AO2 $
94908KDBQ DBQ20120603051509406/03/12 05:15:31  5-MIN KDBQ 031115Z 21003KT 8SM CLR 10/08 A2983 1160 89 900 210/03 RMK AO2 $
94908KDBQ DBQ20120603052009406/03/12 05:20:31  5-MIN KDBQ 031120Z 00000KT 7SM CLR 09/08 A2984 1150 89 800 000/00 RMK AO2 $
94908KDBQ DBQ20120603052509406/03/12 05:25:31  5-MIN KDBQ 031125Z 00000KT 7SM CLR 10/08 A2984 1150 89 900 000/00 RMK AO2 $
94908KDBQ DBQ20120603053009506/03/12 05:30:31  5-MIN KDBQ 031130Z 00000KT 7SM CLR 11/08 A2984 1150 83 1000 000/00 RMK AO2 $
94908KDBQ DBQ20120603053509506/03/12 05:35:31  5-MIN KDBQ 031135Z 00000KT 8SM CLR 12/09 A2984 1150 83 1100 000/00 RMK AO2 $
94908KDBQ DBQ20120603054009506/03/12 05:40:31  5-MIN KDBQ 031140Z 00000KT 8SM CLR 12/09 A2984 1150 86 1100 000/00 RMK AO2 $
94908KDBQ DBQ20120603054509506/03/12 05:45:31  5-MIN KDBQ 031145Z 00000KT 7SM CLR 12/10 A2984 1150 86 1100 000/00 RMK AO2 $
94908KDBQ DBQ20120603055013006/03/12 05:50:31  5-MIN KDBQ 031150Z 00000KT 7SM CLR 12/10 A2985 1150 86 1100 000/00 RMK AO2 SLP105 T01220100 10128 20094 58000 $
94908KDBQ DBQ20120603055509506/03/12 05:55:31  5-MIN KDBQ 031155Z 00000KT 7SM CLR 12/10 A2985 1140 86 1100 000/00 RMK AO2 $
94908KDBQ DBQ20120603060009806/03/12 06:00:31  5-MIN KDBQ 031200Z 24003KT 6SM BR CLR 12/10 A2986 1140 86 1100 240/03 RMK AO2 $
94908KDBQ DBQ20120603060509806/03/12 06:05:31  5-MIN KDBQ 031205Z 00000KT 6SM BR CLR 13/11 A2986 1130 86 1200 000/00 RMK AO2 $
94908KDBQ DBQ20120603061009506/03/12 06:10:31  5-MIN KDBQ 031210Z 00000KT 7SM CLR 13/11 A2986 1130 83 1200 000/00 RMK AO2 $
94908KDBQ DBQ20120603061509506/03/12 06:15:31  5-MIN KDBQ 031215Z 22003KT 8SM CLR 13/11 A2987 1130 83 1200 210/03 RMK AO2 $
94908KDBQ DBQ20120603062009506/03/12 06:20:31  5-MIN KDBQ 031220Z 22003KT 9SM CLR 13/11 A2987 1120 83 1200 220/03 RMK AO2 $
94908KDBQ DBQ20120603062509506/03/12 06:25:31  5-MIN KDBQ 031225Z 21003KT 8SM CLR 14/11 A2987 1120 83 1300 200/03 RMK AO2 $
94908KDBQ DBQ20120603063009506/03/12 06:30:31  5-MIN KDBQ 031230Z 23004KT 8SM CLR 14/12 A2988 1120 83 1400 230/04 RMK AO2 $
94908KDBQ DBQ20120603063509506/03/12 06:35:31  5-MIN KDBQ 031235Z 23004KT 9SM CLR 15/12 A2988 1120 80 1400 230/04 RMK AO2 $
94908KDBQ DBQ20120603064009606/03/12 06:40:31  5-MIN KDBQ 031240Z 00000KT 10SM CLR 15/12 A2987 1120 80 1400 000/00 RMK AO2 $
94908KDBQ DBQ20120603064509606/03/12 06:45:31  5-MIN KDBQ 031245Z 22004KT 10SM CLR 16/12 A2987 1120 77 1500 220/04 RMK AO2 $
94908KDBQ DBQ20120603065011306/03/12 06:50:31  5-MIN KDBQ 031250Z 22005KT 10SM CLR 16/12 A2987 1120 77 1500 220/05 RMK AO2 SLP114 T01560117 $
94908KDBQ DBQ20120603065509606/03/12 06:55:31  5-MIN KDBQ 031255Z 24006KT 10SM CLR 16/12 A2988 1120 75 1600 240/06 RMK AO2 $
94908KDBQ DBQ20120603070009606/03/12 07:00:31  5-MIN KDBQ 031300Z 24006KT 10SM CLR 17/11 A2987 1120 69 1600 240/06 RMK AO2 $
94908KDBQ DBQ20120603070509606/03/12 07:05:31  5-MIN KDBQ 031305Z 25007KT 10SM CLR 17/11 A2988 1120 69 1600 250/07 RMK AO2 $
94908KDBQ DBQ20120603071009606/03/12 07:10:31  5-MIN KDBQ 031310Z 25006KT 10SM CLR 17/12 A2988 1120 69 1700 250/06 RMK AO2 $
94908KDBQ DBQ20120603071509606/03/12 07:15:31  5-MIN KDBQ 031315Z 25006KT 10SM CLR 17/11 A2988 1120 67 1700 240/06 RMK AO2 $
94908KDBQ DBQ20120603072009606/03/12 07:20:31  5-MIN KDBQ 031320Z 24006KT 10SM CLR 18/12 A2987 1120 67 1700 240/06 RMK AO2 $
94908KDBQ DBQ20120603072509606/03/12 07:25:31  5-MIN KDBQ 031325Z 24007KT 10SM CLR 18/11 A2988 1120 64 1700 240/07 RMK AO2 $
94908KDBQ DBQ20120603073009606/03/12 07:30:31  5-MIN KDBQ 031330Z 24007KT 10SM CLR 18/12 A2988 1120 65 1800 240/07 RMK AO2 $
94908KDBQ DBQ20120603073509606/03/12 07:35:31  5-MIN KDBQ 031335Z 24007KT 10SM CLR 18/11 A2988 1120 62 1800 240/07 RMK AO2 $
94908KDBQ DBQ20120603074009606/03/12 07:40:31  5-MIN KDBQ 031340Z 24006KT 10SM CLR 19/12 A2988 1120 62 1900 240/06 RMK AO2 $
94908KDBQ DBQ20120603074509606/03/12 07:45:31  5-MIN KDBQ 031345Z 26006KT 10SM CLR 19/12 A2988 1120 60 1900 260/06 RMK AO2 $
94908KDBQ DBQ20120603075011306/03/12 07:50:31  5-MIN KDBQ 031350Z 26007KT 10SM CLR 19/12 A2988 1120 60 1900 250/07 RMK AO2 SLP115 T01940117 $
94908KDBQ DBQ20120603075509606/03/12 07:55:31  5-MIN KDBQ 031355Z 25008KT 10SM CLR 20/12 A2988 1120 58 2000 250/08 RMK AO2 $
94908KDBQ DBQ20120603080009606/03/12 08:00:31  5-MIN KDBQ 031400Z 26007KT 10SM CLR 20/11 A2988 1120 56 2000 260/07 RMK AO2 $
94908KDBQ DBQ20120603080509606/03/12 08:05:31  5-MIN KDBQ 031405Z 26008KT 10SM CLR 21/11 A2988 1120 52 2100 260/08 RMK AO2 $
94908KDBQ DBQ20120603081009606/03/12 08:10:31  5-MIN KDBQ 031410Z 26007KT 10SM CLR 21/11 A2988 1120 54 2100 250/07 RMK AO2 $
94908KDBQ DBQ20120603081509606/03/12 08:15:31  5-MIN KDBQ 031415Z 27009KT 10SM CLR 21/11 A2988 1120 52 2100 270/09 RMK AO2 $
94908KDBQ DBQ20120603082009606/03/12 08:20:31  5-MIN KDBQ 031420Z 27010KT 10SM CLR 21/11 A2988 1120 52 2100 270/10 RMK AO2 $
94908KDBQ DBQ20120603082509606/03/12 08:25:31  5-MIN KDBQ 031425Z 27008KT 10SM CLR 21/11 A2988 1120 54 2100 260/08 RMK AO2 $
94908KDBQ DBQ20120603083009606/03/12 08:30:31  5-MIN KDBQ 031430Z 25008KT 10SM CLR 21/11 A2987 1120 52 2100 250/08 RMK AO2 $
94908KDBQ DBQ20120603083509606/03/12 08:35:31  5-MIN KDBQ 031435Z 27008KT 10SM CLR 21/11 A2988 1120 52 2100 260/08 RMK AO2 $
94908KDBQ DBQ20120603084009606/03/12 08:40:31  5-MIN KDBQ 031440Z 27009KT 10SM CLR 21/11 A2987 1120 50 2100 270/09 RMK AO2 $
94908KDBQ DBQ20120603084509606/03/12 08:45:31  5-MIN KDBQ 031445Z 27008KT 10SM CLR 22/11 A2987 1120 50 2200 270/08 RMK AO2 $
94908KDBQ DBQ20120603085011906/03/12 08:50:31  5-MIN KDBQ 031450Z 26010KT 10SM CLR 22/11 A2987 1120 50 2200 260/10 RMK AO2 SLP112 T02170111 53008 $
94908KDBQ DBQ20120603085509606/03/12 08:55:31  5-MIN KDBQ 031455Z 26009KT 10SM CLR 22/11 A2987 1120 50 2200 260/09 RMK AO2 $
94908KDBQ DBQ20120603090009606/03/12 09:00:31  5-MIN KDBQ 031500Z 26010KT 10SM CLR 22/11 A2988 1120 49 2300 260/10 RMK AO2 $
94908KDBQ DBQ20120603090509606/03/12 09:05:31  5-MIN KDBQ 031505Z 25009KT 10SM CLR 22/11 A2988 1120 49 2300 250/09 RMK AO2 $
94908KDBQ DBQ20120603091011206/03/12 09:10:31  5-MIN KDBQ 031510Z 27008KT 250V310 10SM CLR 22/11 A2987 1120 49 2300 270/08 250V310 RMK AO2 $
94908KDBQ DBQ20120603091509606/03/12 09:15:31  5-MIN KDBQ 031515Z 25008KT 10SM CLR 22/11 A2988 1120 49 2300 250/08 RMK AO2 $
94908KDBQ DBQ20120603092009606/03/12 09:20:31  5-MIN KDBQ 031520Z 25009KT 10SM CLR 22/11 A2988 1120 47 2300 250/09 RMK AO2 $
94908KDBQ DBQ20120603092509606/03/12 09:25:31  5-MIN KDBQ 031525Z 27009KT 10SM CLR 22/11 A2988 1120 47 2300 260/09 RMK AO2 $
94908KDBQ DBQ20120603093009606/03/12 09:30:31  5-MIN KDBQ 031530Z 26010KT 10SM CLR 23/11 A2988 1120 47 2300 260/10 RMK AO2 $
94908KDBQ DBQ20120603093509606/03/12 09:35:31  5-MIN KDBQ 031535Z 26010KT 10SM CLR 23/11 A2988 1110 47 2300 260/10 RMK AO2 $
94908KDBQ DBQ20120603094009606/03/12 09:40:31  5-MIN KDBQ 031540Z 26008KT 10SM CLR 23/11 A2988 1120 47 2300 260/08 RMK AO2 $
94908KDBQ DBQ20120603094509606/03/12 09:45:31  5-MIN KDBQ 031545Z 27010KT 10SM CLR 23/11 A2988 1120 47 2300 260/10 RMK AO2 $
94908KDBQ DBQ20120603095011306/03/12 09:50:31  5-MIN KDBQ 031550Z 27011KT 10SM CLR 23/10 A2989 1110 44 2300 270/11 RMK AO2 SLP117 T02280100 $
94908KDBQ DBQ20120603095509606/03/12 09:55:31  5-MIN KDBQ 031555Z 26012KT 10SM CLR 23/11 A2988 1110 45 2300 260/12 RMK AO2 $
94908KDBQ DBQ20120603100009606/03/12 10:00:31  5-MIN KDBQ 031600Z 25014KT 10SM CLR 23/11 A2988 1110 45 2300 250/14 RMK AO2 $
94908KDBQ DBQ20120603100510206/03/12 10:05:31  5-MIN KDBQ 031605Z 26010G16KT 10SM CLR 23/11 A2988 1120 45 2300 260/10G16 RMK AO2 $
94908KDBQ DBQ20120603101009606/03/12 10:10:31  5-MIN KDBQ 031610Z 27010KT 10SM CLR 23/11 A2988 1110 44 2400 270/10 RMK AO2 $
94908KDBQ DBQ20120603101510206/03/12 10:15:31  5-MIN KDBQ 031615Z 26007G15KT 10SM CLR 23/10 A2988 1110 44 2300 260/07G15 RMK AO2 $
94908KDBQ DBQ20120603102010206/03/12 10:20:31  5-MIN KDBQ 031620Z 25010G15KT 10SM CLR 22/10 A2988 1110 47 2200 250/10G15 RMK AO2 $
94908KDBQ DBQ20120603102510206/03/12 10:25:31  5-MIN KDBQ 031625Z 28010G15KT 10SM CLR 22/11 A2989 1110 49 2200 280/10G15 RMK AO2 $
94908KDBQ DBQ20120603103009606/03/12 10:30:31  5-MIN KDBQ 031630Z 26010KT 10SM CLR 23/11 A2989 1110 47 2300 260/10 RMK AO2 $
94908KDBQ DBQ20120603103509606/03/12 10:35:31  5-MIN KDBQ 031635Z 28010KT 10SM CLR 23/11 A2988 1110 45 2400 280/10 RMK AO2 $
94908KDBQ DBQ20120603104009606/03/12 10:40:31  5-MIN KDBQ 031640Z 28008KT 10SM CLR 23/11 A2988 1120 44 2400 280/08 RMK AO2 $
94908KDBQ DBQ20120603104510206/03/12 10:45:31  5-MIN KDBQ 031645Z 30013G16KT 10SM CLR 23/11 A2988 1120 45 2400 300/13G16 RMK AO2 $
94908KDBQ DBQ20120603105011906/03/12 10:50:31  5-MIN KDBQ 031650Z 32009G16KT 10SM CLR 23/11 A2988 1120 44 2400 320/09G16 RMK AO2 SLP114 T02330106 $
94908KDBQ DBQ20120603105509606/03/12 10:55:31  5-MIN KDBQ 031655Z 30009KT 10SM CLR 24/12 A2988 1120 46 2400 300/09 RMK AO2 $
94908KDBQ DBQ20120603110009606/03/12 11:00:31  5-MIN KDBQ 031700Z 28010KT 10SM CLR 24/11 A2988 1120 44 2400 280/10 RMK AO2 $
94908KDBQ DBQ20120603110509606/03/12 11:05:31  5-MIN KDBQ 031705Z 32005KT 10SM CLR 24/11 A2988 1120 42 2400 320/05 RMK AO2 $
94908KDBQ DBQ20120603111009606/03/12 11:10:31  5-MIN KDBQ 031710Z 34007KT 10SM CLR 24/12 A2988 1120 46 2400 340/07 RMK AO2 $
94908KDBQ DBQ20120603111509606/03/12 11:15:31  5-MIN KDBQ 031715Z 30009KT 10SM CLR 23/11 A2987 1120 45 2400 290/09 RMK AO2 $
94908KDBQ DBQ20120603112009606/03/12 11:20:31  5-MIN KDBQ 031720Z 29007KT 10SM CLR 24/11 A2988 1120 42 2400 290/07 RMK AO2 $
94908KDBQ DBQ20120603112510206/03/12 11:25:31  5-MIN KDBQ 031725Z 30011G16KT 10SM CLR 24/10 A2987 1120 41 2400 300/11G16 RMK AO2 $
94908KDBQ DBQ20120603113010206/03/12 11:30:31  5-MIN KDBQ 031730Z 32008G16KT 10SM CLR 24/09 A2988 1120 38 2500 320/08G16 RMK AO2 $
94908KDBQ DBQ20120603113509606/03/12 11:35:31  5-MIN KDBQ 031735Z 33009KT 10SM CLR 24/09 A2988 1120 38 2500 330/09 RMK AO2 $
94908KDBQ DBQ20120603114009606/03/12 11:40:31  5-MIN KDBQ 031740Z 27008KT 10SM CLR 24/10 A2988 1120 39 2500 270/08 RMK AO2 $
94908KDBQ DBQ20120603114509606/03/12 11:45:31  5-MIN KDBQ 031745Z 30011KT 10SM CLR 24/10 A2987 1120 39 2500 300/11 RMK AO2 $
94908KDBQ DBQ20120603115013106/03/12 11:50:31  5-MIN KDBQ 031750Z 30009KT 10SM CLR 24/09 A2987 1120 38 2500 300/09 RMK AO2 SLP113 T02440094 10244 20122 50007 $
94908KDBQ DBQ20120603115510206/03/12 11:55:31  5-MIN KDBQ 031755Z 30012G16KT 10SM CLR 24/09 A2987 1120 36 2500 300/12G16 RMK AO2 $
94908KDBQ DBQ20120603120010206/03/12 12:00:31  5-MIN KDBQ 031800Z 30007G16KT 10SM CLR 24/09 A2987 1120 36 2500 300/07G16 RMK AO2 $
94908KDBQ DBQ20120603120509606/03/12 12:05:31  5-MIN KDBQ 031805Z 29008KT 10SM CLR 24/09 A2987 1120 36 2500 290/08 RMK AO2 $
94908KDBQ DBQ20120603121010206/03/12 12:10:31  5-MIN KDBQ 031810Z 28014G17KT 10SM CLR 24/09 A2987 1120 36 2500 280/14G17 RMK AO2 $
94908KDBQ DBQ20120603121510206/03/12 12:15:31  5-MIN KDBQ 031815Z 28008G17KT 10SM CLR 24/08 A2987 1120 35 2500 280/08G17 RMK AO2 $
94908KDBQ DBQ20120603122010206/03/12 12:20:31  5-MIN KDBQ 031820Z 30010G15KT 10SM CLR 26/09 A2987 1120 35 2600 300/10G15 RMK AO2 $
94908KDBQ DBQ20120603122510206/03/12 12:25:31  5-MIN KDBQ 031825Z 32010G15KT 10SM CLR 25/09 A2988 1120 37 2600 310/10G15 RMK AO2 $
94908KDBQ DBQ20120603123009606/03/12 12:30:31  5-MIN KDBQ 031830Z 33008KT 10SM CLR 25/10 A2987 1120 38 2600 330/08 RMK AO2 $
94908KDBQ DBQ20120603123509606/03/12 12:35:31  5-MIN KDBQ 031835Z 33008KT 10SM CLR 24/09 A2987 1120 38 2500 330/08 RMK AO2 $
94908KDBQ DBQ20120603124009606/03/12 12:40:31  5-MIN KDBQ 031840Z 29005KT 10SM CLR 24/09 A2987 1120 38 2500 290/05 RMK AO2 $
94908KDBQ DBQ20120603124509606/03/12 12:45:31  5-MIN KDBQ 031845Z 30009KT 10SM CLR 24/09 A2987 1120 38 2500 290/09 RMK AO2 $
94908KDBQ DBQ20120603125011306/03/12 12:50:31  5-MIN KDBQ 031850Z 34008KT 10SM CLR 24/09 A2987 1120 38 2500 340/08 RMK AO2 SLP113 T02440094 $
94908KDBQ DBQ20120603125509606/03/12 12:55:31  5-MIN KDBQ 031855Z 32008KT 10SM CLR 24/10 A2987 1120 39 2500 320/08 RMK AO2 $
94908KDBQ DBQ20120603130009606/03/12 13:00:31  5-MIN KDBQ 031900Z 31008KT 10SM CLR 24/10 A2987 1130 41 2500 310/08 RMK AO2 $
94908KDBQ DBQ20120603130509606/03/12 13:05:31  5-MIN KDBQ 031905Z 34009KT 10SM CLR 24/09 A2987 1130 38 2500 330/09 RMK AO2 $
94908KDBQ DBQ20120603131009606/03/12 13:10:31  5-MIN KDBQ 031910Z 33008KT 10SM CLR 24/09 A2987 1130 36 2500 330/08 RMK AO2 $
94908KDBQ DBQ20120603131509906/03/12 13:15:31  5-MIN KDBQ 031915Z 34009KT 10SM FEW110 24/09 A2986 1130 36 2500 340/09 RMK AO2 $
94908KDBQ DBQ20120603132009906/03/12 13:20:31  5-MIN KDBQ 031920Z 34008KT 10SM SCT110 23/09 A2986 1140 39 2400 340/08 RMK AO2 $
94908KDBQ DBQ20120603132510606/03/12 13:25:31  5-MIN KDBQ 031925Z 35006KT 10SM FEW039 BKN110 24/09 A2985 1140 38 2500 350/06 RMK AO2 $
94908KDBQ DBQ20120603133010606/03/12 13:30:31  5-MIN KDBQ 031930Z 34008KT 10SM FEW030 BKN110 24/09 A2985 1140 36 2500 340/08 RMK AO2 $
94908KDBQ DBQ20120603133510606/03/12 13:35:31  5-MIN KDBQ 031935Z 33007KT 10SM FEW038 SCT110 24/08 A2985 1140 36 2500 330/07 RMK AO2 $
94908KDBQ DBQ20120603134010606/03/12 13:40:31  5-MIN KDBQ 031940Z 33006KT 10SM FEW043 BKN110 23/09 A2985 1140 41 2400 330/06 RMK AO2 $
94908KDBQ DBQ20120603134510606/03/12 13:45:31  5-MIN KDBQ 031945Z 35006KT 10SM FEW043 BKN110 23/08 A2985 1140 38 2400 350/06 RMK AO2 $
94908KDBQ DBQ20120603135012306/03/12 13:50:31  5-MIN KDBQ 031950Z 34007KT 10SM FEW043 BKN110 23/08 A2985 1140 38 2400 340/07 RMK AO2 SLP107 T02330083 $
94908KDBQ DBQ20120603135509906/03/12 13:55:31  5-MIN KDBQ 031955Z 36006KT 10SM BKN110 23/09 A2985 1140 41 2400 360/06 RMK AO2 $
94908KDBQ DBQ20120603140009906/03/12 14:00:31  5-MIN KDBQ 032000Z 35007KT 10SM OVC110 23/09 A2985 1140 41 2400 350/07 RMK AO2 $
94908KDBQ DBQ20120603140509906/03/12 14:05:31  5-MIN KDBQ 032005Z 35007KT 10SM OVC110 23/09 A2986 1140 39 2400 350/07 RMK AO2 $
94908KDBQ DBQ20120603141009906/03/12 14:10:31  5-MIN KDBQ 032010Z 35007KT 10SM OVC100 23/09 A2986 1130 41 2400 340/07 RMK AO2 $
94908KDBQ DBQ20120603141509906/03/12 14:15:31  5-MIN KDBQ 032015Z 36008KT 10SM OVC100 23/09 A2986 1140 41 2400 350/08 RMK AO2 $
94908KDBQ DBQ20120603142009906/03/12 14:20:31  5-MIN KDBQ 032020Z 36006KT 10SM OVC100 23/10 A2986 1140 42 2400 360/06 RMK AO2 $
94908KDBQ DBQ20120603142509906/03/12 14:25:31  5-MIN KDBQ 032025Z 35006KT 10SM OVC100 23/10 A2986 1130 42 2400 350/06 RMK AO2 $
94908KDBQ DBQ20120603143009906/03/12 14:30:31  5-MIN KDBQ 032030Z 36006KT 10SM OVC100 23/09 A2986 1130 42 2300 360/06 RMK AO2 $
94908KDBQ DBQ20120603143509906/03/12 14:35:31  5-MIN KDBQ 032035Z 34006KT 10SM OVC095 22/10 A2986 1130 45 2300 340/06 RMK AO2 $
94908KDBQ DBQ20120603144009906/03/12 14:40:31  5-MIN KDBQ 032040Z 35005KT 10SM OVC095 22/10 A2986 1130 45 2300 350/05 RMK AO2 $
94908KDBQ DBQ20120603144509906/03/12 14:45:31  5-MIN KDBQ 032045Z 34007KT 10SM OVC090 22/10 A2987 1130 47 2200 340/07 RMK AO2 $
94908KDBQ DBQ20120603145012206/03/12 14:50:31  5-MIN KDBQ 032050Z 34005KT 10SM OVC090 22/10 A2987 1120 47 2200 340/05 RMK AO2 SLP114 T02170100 50000 $
94908KDBQ DBQ20120603145509906/03/12 14:55:31  5-MIN KDBQ 032055Z 35005KT 10SM OVC090 22/11 A2987 1130 49 2200 350/05 RMK AO2 $
94908KDBQ DBQ20120603150009906/03/12 15:00:31  5-MIN KDBQ 032100Z 35003KT 10SM OVC085 22/11 A2986 1130 49 2200 350/03 RMK AO2 $
94908KDBQ DBQ20120603150509906/03/12 15:05:31  5-MIN KDBQ 032105Z 34003KT 10SM OVC085 22/11 A2986 1130 49 2200 340/03 RMK AO2 $
94908KDBQ DBQ20120603151009906/03/12 15:10:31  5-MIN KDBQ 032110Z 36003KT 10SM OVC085 22/11 A2986 1140 49 2200 360/03 RMK AO2 $
94908KDBQ DBQ20120603151509906/03/12 15:15:31  5-MIN KDBQ 032115Z 36003KT 10SM OVC080 22/12 A2986 1140 52 2200 360/03 RMK AO2 $
94908KDBQ DBQ20120603152009906/03/12 15:20:31  5-MIN KDBQ 032120Z 02003KT 10SM OVC080 22/11 A2985 1140 50 2200 020/03 RMK AO2 $
94908KDBQ DBQ20120603152509906/03/12 15:25:31  5-MIN KDBQ 032125Z 01003KT 10SM OVC085 22/12 A2985 1140 51 2300 010/03 RMK AO2 $
94908KDBQ DBQ20120603153010606/03/12 15:30:31  5-MIN KDBQ 032130Z 01003KT 10SM FEW041 BKN080 23/12 A2985 1140 49 2300 010/03 RMK AO2 $
94908KDBQ DBQ20120603153510606/03/12 15:35:31  5-MIN KDBQ 032135Z 02003KT 10SM BKN080 BKN110 23/11 A2985 1140 45 2300 020/03 RMK AO2 $
94908KDBQ DBQ20120603154011306/03/12 15:40:31  5-MIN KDBQ 032140Z 02004KT 10SM FEW038 SCT080 OVC110 23/11 A2985 1150 45 2400 020/04 RMK AO2 $
94908KDBQ DBQ20120603154511306/03/12 15:45:31  5-MIN KDBQ 032145Z 02004KT 10SM FEW038 SCT080 BKN110 23/11 A2984 1150 45 2400 020/04 RMK AO2 $
94908KDBQ DBQ20120603155012306/03/12 15:50:31  5-MIN KDBQ 032150Z 03003KT 10SM FEW038 BKN110 23/11 A2984 1150 47 2400 030/03 RMK AO2 SLP102 T02280111 $
94908KDBQ DBQ20120603155510606/03/12 15:55:31  5-MIN KDBQ 032155Z 04004KT 10SM FEW085 BKN110 23/11 A2984 1160 45 2400 040/04 RMK AO2 $
94908KDBQ DBQ20120603160010606/03/12 16:00:31  5-MIN KDBQ 032200Z 04003KT 10SM FEW085 BKN110 23/11 A2983 1160 45 2400 040/03 RMK AO2 $
94908KDBQ DBQ20120603160510606/03/12 16:05:31  5-MIN KDBQ 032205Z 00000KT 10SM FEW090 BKN110 22/11 A2984 1150 49 2300 000/00 RMK AO2 $
94908KDBQ DBQ20120603161010606/03/12 16:10:31  5-MIN KDBQ 032210Z 02003KT 10SM FEW080 BKN110 22/12 A2984 1160 51 2300 020/03 RMK AO2 $
94908KDBQ DBQ20120603161510606/03/12 16:15:31  5-MIN KDBQ 032215Z 00000KT 10SM FEW080 BKN110 23/12 A2984 1160 51 2400 000/00 RMK AO2 $
94908KDBQ DBQ20120603162010606/03/12 16:20:31  5-MIN KDBQ 032220Z 00000KT 10SM FEW080 BKN110 23/12 A2983 1160 49 2400 000/00 RMK AO2 $
94908KDBQ DBQ20120603162510606/03/12 16:25:31  5-MIN KDBQ 032225Z 00000KT 10SM FEW075 BKN100 23/11 A2983 1160 45 2400 000/00 RMK AO2 $
94908KDBQ DBQ20120603163011306/03/12 16:30:31  5-MIN KDBQ 032230Z 21005KT 10SM FEW075 BKN095 BKN110 22/11 A2984 1160 49 2300 210/05 RMK AO2 $
94908KDBQ DBQ20120603163510606/03/12 16:35:31  5-MIN KDBQ 032235Z 23007KT 10SM FEW075 BKN095 21/13 A2984 1150 60 2100 230/07 RMK AO2 $
94908KDBQ DBQ20120603164009906/03/12 16:40:31  5-MIN KDBQ 032240Z 25005KT 10SM BKN090 21/13 A2984 1150 60 2100 250/05 RMK AO2 $
94908KDBQ DBQ20120603164509906/03/12 16:45:31  5-MIN KDBQ 032245Z 24004KT 10SM OVC090 21/13 A2984 1150 60 2100 230/04 RMK AO2 $
94908KDBQ DBQ20120603165012306/03/12 16:50:31  5-MIN KDBQ 032250Z 02007KT 10SM FEW055 OVC090 21/12 A2985 1150 58 2100 020/07 RMK AO2 SLP106 T02060122 $
94908KDBQ DBQ20120603165511506/03/12 16:55:31  5-MIN KDBQ 032255Z 04008KT 9SM -RA FEW055 OVC090 19/12 A2985 1150 60 2000 040/08 RMK AO2 P0000 $
94908KDBQ DBQ20120603170011506/03/12 17:00:31  5-MIN KDBQ 032300Z 05006KT 9SM -RA FEW055 OVC085 19/12 A2985 1150 62 1900 050/06 RMK AO2 P0000 $
94908KDBQ DBQ20120603170511606/03/12 17:05:31  5-MIN KDBQ 032305Z 04006KT 10SM -RA FEW055 OVC080 19/12 A2985 1150 65 1900 040/06 RMK AO2 P0000 $
94908KDBQ DBQ20120603171011806/03/12 17:10:31  5-MIN KDBQ 032310Z 07004KT 10SM FEW055 OVC080 19/12 A2985 1150 65 1900 070/04 RMK AO2 RAE07 P0000 $
94908KDBQ DBQ20120603171511806/03/12 17:15:31  5-MIN KDBQ 032315Z 07005KT 10SM FEW055 OVC080 19/12 A2985 1150 62 2000 070/05 RMK AO2 RAE07 P0000 $
94908KDBQ DBQ20120603172011106/03/12 17:20:31  5-MIN KDBQ 032320Z 06007KT 10SM OVC080 19/12 A2985 1150 60 2000 050/07 RMK AO2 RAE07 P0000 $
94908KDBQ DBQ20120603172511106/03/12 17:25:31  5-MIN KDBQ 032325Z 07005KT 10SM OVC080 19/12 A2984 1150 62 1900 070/05 RMK AO2 RAE07 P0000 $
94908KDBQ DBQ20120603173011106/03/12 17:30:31  5-MIN KDBQ 032330Z 07004KT 10SM OVC085 19/12 A2984 1150 62 1900 070/04 RMK AO2 RAE07 P0000 $
94908KDBQ DBQ20120603173511806/03/12 17:35:31  5-MIN KDBQ 032335Z 06005KT 10SM BKN085 OVC100 19/12 A2984 1150 62 1900 060/05 RMK AO2 RAE07 P0000 $
94908KDBQ DBQ20120603174011806/03/12 17:40:31  5-MIN KDBQ 032340Z 06003KT 10SM BKN085 OVC100 19/12 A2985 1140 62 1900 060/03 RMK AO2 RAE07 P0000 $
94908KDBQ DBQ20120603174511806/03/12 17:45:31  5-MIN KDBQ 032345Z 07004KT 10SM BKN085 OVC100 19/12 A2985 1140 65 1900 060/04 RMK AO2 RAE07 P0000 $
94908KDBQ DBQ20120603175015906/03/12 17:50:31  5-MIN KDBQ 032350Z 00000KT 10SM BKN085 OVC100 19/11 A2986 1140 60 1900 000/00 RMK AO2 RAE07 SLP109 P0000 60000 T01890111 10256 20189 55000 $
94908KDBQ DBQ20120603175510606/03/12 17:55:31  5-MIN KDBQ 032355Z 06004KT 10SM BKN090 OVC100 19/11 A2986 1130 60 1900 060/04 RMK AO2 $
94908KDBQ DBQ20120603180010606/03/12 18:00:31  5-MIN KDBQ 040000Z 04006KT 10SM BKN090 OVC100 18/12 A2987 1130 65 1800 040/06 RMK AO2 $
94908KDBQ DBQ20120603180510606/03/12 18:05:31  5-MIN KDBQ 040005Z 05006KT 10SM FEW065 OVC090 18/11 A2987 1130 62 1800 050/06 RMK AO2 $
94908KDBQ DBQ20120603181011306/03/12 18:10:31  5-MIN KDBQ 040010Z 06006KT 10SM FEW065 BKN090 OVC110 18/12 A2987 1130 67 1800 060/06 RMK AO2 $
94908KDBQ DBQ20120603181512006/03/12 18:15:31  5-MIN KDBQ 040015Z 07006KT 7SM RA FEW065 OVC090 17/12 A2987 1130 72 1700 070/06 RMK AO2 RAB11 P0001 $
94908KDBQ DBQ20120603182009706/03/12 18:20:31  5-MIN KDBQ 040020Z 6SM -RA 18/13 A2987 1130 72 1800 M /M RMK AO2 RAB11 P0001 $
94908KDBQ DBQ20120603182509406/03/12 18:25:31  5-MIN KDBQ 040025Z 18/13 A2987 1120 72 1700 M /M RMK AO2 RAB11RAEMM P0001 $
94908KDBQ DBQ20120603183009406/03/12 18:30:31  5-MIN KDBQ 040030Z 18/13 A2987 1120 72 1700 M /M RMK AO2 RAB11RAEMM P0001 $
94908KDBQ DBQ20120603183508106/03/12 18:35:31  5-MIN KDBQ 040035Z A2987 M M M M /M RMK AO2 RAB11RAEMM P0001 $
94908KDBQ DBQ20120603184009906/03/12 18:40:31  5-MIN KDBQ 040040Z AUTO A2987 M M M M /M RMK AO2 RAB11RAEMM P0001 PWINO FZRANO $
94908KDBQ DBQ20120603184509906/03/12 18:45:31  5-MIN KDBQ 040045Z AUTO A2987 M M M M /M RMK AO2 RAB11RAEMM P0001 PWINO FZRANO $
94908KDBQ DBQ20120603185010506/03/12 18:50:31  5-MIN KDBQ 040050Z AUTO A2987 M M M M /M RMK AO2 RAB11RAEMM SLPNO P0001 PWINO FZRANO $
94908KDBQ DBQ20120603185508606/03/12 18:55:31  5-MIN KDBQ 040055Z AUTO A2987 M M M M /M RMK AO2 PWINO FZRANO PNO $
94908KDBQ DBQ20120603190008606/03/12 19:00:31  5-MIN KDBQ 040100Z AUTO A2987 M M M M /M RMK AO2 PWINO FZRANO PNO $
94908KDBQ DBQ20120603190508606/03/12 19:05:31  5-MIN KDBQ 040105Z AUTO A2986 M M M M /M RMK AO2 PWINO FZRANO PNO $
94908KDBQ DBQ20120603191008606/03/12 19:10:31  5-MIN KDBQ 040110Z AUTO A2987 M M M M /M RMK AO2 PWINO FZRANO PNO $
94908KDBQ DBQ20120603191508606/03/12 19:15:31  5-MIN KDBQ 040115Z AUTO A2987 M M M M /M RMK AO2 PWINO FZRANO PNO $
94908KDBQ DBQ20120603192008606/03/12 19:20:31  5-MIN KDBQ 040120Z AUTO A2987 M M M M /M RMK AO2 PWINO FZRANO PNO $
94908KDBQ DBQ20120603192508606/03/12 19:25:31  5-MIN KDBQ 040125Z AUTO A2987 M M M M /M RMK AO2 PWINO FZRANO PNO $
94908KDBQ DBQ20120603193008606/03/12 19:30:31  5-MIN KDBQ 040130Z AUTO A2987 M M M M /M RMK AO2 PWINO FZRANO PNO $
94908KDBQ DBQ20120603193508606/03/12 19:35:31  5-MIN KDBQ 040135Z AUTO A2987 M M M M /M RMK AO2 PWINO FZRANO PNO $
94908KDBQ DBQ20120603194008606/03/12 19:40:31  5-MIN KDBQ 040140Z AUTO A2987 M M M M /M RMK AO2 PWINO FZRANO PNO $
94908KDBQ DBQ20120603194508606/03/12 19:45:31  5-MIN KDBQ 040145Z AUTO A2987 M M M M /M RMK AO2 PWINO FZRANO PNO $
94908KDBQ DBQ20120603195009206/03/12 19:50:31  5-MIN KDBQ 040150Z AUTO A2987 M M M M /M RMK AO2 SLPNO PWINO FZRANO PNO $
94908KDBQ DBQ20120603195508606/03/12 19:55:31  5-MIN KDBQ 040155Z AUTO A2987 M M M M /M RMK AO2 PWINO FZRANO PNO $
94908KDBQ DBQ20120603200008606/03/12 20:00:31  5-MIN KDBQ 040200Z AUTO A2988 M M M M /M RMK AO2 PWINO FZRANO PNO $
94908KDBQ DBQ20120603200508606/03/12 20:05:31  5-MIN KDBQ 040205Z AUTO A2988 M M M M /M RMK AO2 PWINO FZRANO PNO $
94908KDBQ DBQ20120603201008606/03/12 20:10:31  5-MIN KDBQ 040210Z AUTO A2987 M M M M /M RMK AO2 PWINO FZRANO PNO $
94908KDBQ DBQ20120603201508606/03/12 20:15:31  5-MIN KDBQ 040215Z AUTO A2987 M M M M /M RMK AO2 PWINO FZRANO PNO $
94908KDBQ DBQ20120603202008606/03/12 20:20:31  5-MIN KDBQ 040220Z AUTO A2987 M M M M /M RMK AO2 PWINO FZRANO PNO $
94908KDBQ DBQ20120603202508606/03/12 20:25:31  5-MIN KDBQ 040225Z AUTO A2987 M M M M /M RMK AO2 PWINO FZRANO PNO $
94908KDBQ DBQ20120603203008606/03/12 20:30:31  5-MIN KDBQ 040230Z AUTO A2987 M M M M /M RMK AO2 PWINO FZRANO PNO $
94908KDBQ DBQ20120603203508606/03/12 20:35:31  5-MIN KDBQ 040235Z AUTO A2988 M M M M /M RMK AO2 PWINO FZRANO PNO $
94908KDBQ DBQ20120603204008606/03/12 20:40:31  5-MIN KDBQ 040240Z AUTO A2988 M M M M /M RMK AO2 PWINO FZRANO PNO $
94908KDBQ DBQ20120603204508606/03/12 20:45:31  5-MIN KDBQ 040245Z AUTO A2988 M M M M /M RMK AO2 PWINO FZRANO PNO $
94908KDBQ DBQ20120603205010406/03/12 20:50:31  5-MIN KDBQ 040250Z AUTO A2988 M M M M /M RMK AO2 SLPNO 6//// 55004 PWINO FZRANO PNO $
94908KDBQ DBQ20120603205508606/03/12 20:55:31  5-MIN KDBQ 040255Z AUTO A2988 M M M M /M RMK AO2 PWINO FZRANO PNO $
94908KDBQ DBQ20120603210008606/03/12 21:00:31  5-MIN KDBQ 040300Z AUTO A2988 M M M M /M RMK AO2 PWINO FZRANO PNO $
94908KDBQ DBQ20120603210508606/03/12 21:05:31  5-MIN KDBQ 040305Z AUTO A2987 M M M M /M RMK AO2 PWINO FZRANO PNO $
94908KDBQ DBQ20120603211008606/03/12 21:10:31  5-MIN KDBQ 040310Z AUTO A2987 M M M M /M RMK AO2 PWINO FZRANO PNO $
94908KDBQ DBQ20120603211508606/03/12 21:15:31  5-MIN KDBQ 040315Z AUTO A2987 M M M M /M RMK AO2 PWINO FZRANO PNO $
94908KDBQ DBQ20120603212008606/03/12 21:20:31  5-MIN KDBQ 040320Z AUTO A2987 M M M M /M RMK AO2 PWINO FZRANO PNO $
94908KDBQ DBQ20120603212508606/03/12 21:25:31  5-MIN KDBQ 040325Z AUTO A2987 M M M M /M RMK AO2 PWINO FZRANO PNO $
94908KDBQ DBQ20120603213008606/03/12 21:30:31  5-MIN KDBQ 040330Z AUTO A2988 M M M M /M RMK AO2 PWINO FZRANO PNO $
94908KDBQ DBQ20120603213508606/03/12 21:35:31  5-MIN KDBQ 040335Z AUTO A2988 M M M M /M RMK AO2 PWINO FZRANO PNO $
94908KDBQ DBQ20120603214008606/03/12 21:40:31  5-MIN KDBQ 040340Z AUTO A2987 M M M M /M RMK AO2 PWINO FZRANO PNO $
94908KDBQ DBQ20120603214508606/03/12 21:45:31  5-MIN KDBQ 040345Z AUTO A2986 M M M M /M RMK AO2 PWINO FZRANO PNO $
94908KDBQ DBQ20120603215009206/03/12 21:50:31  5-MIN KDBQ 040350Z AUTO A2987 M M M M /M RMK AO2 SLPNO PWINO FZRANO PNO $
94908KDBQ DBQ20120603215508606/03/12 21:55:31  5-MIN KDBQ 040355Z AUTO A2987 M M M M /M RMK AO2 PWINO FZRANO PNO $
94908KDBQ DBQ20120603220008606/03/12 22:00:31  5-MIN KDBQ 040400Z AUTO A2987 M M M M /M RMK AO2 PWINO FZRANO PNO $
94908KDBQ DBQ20120603220508606/03/12 22:05:31  5-MIN KDBQ 040405Z AUTO A2987 M M M M /M RMK AO2 PWINO FZRANO PNO $
94908KDBQ DBQ20120603221008606/03/12 22:10:31  5-MIN KDBQ 040410Z AUTO A2987 M M M M /M RMK AO2 PWINO FZRANO PNO $
94908KDBQ DBQ20120603221508606/03/12 22:15:31  5-MIN KDBQ 040415Z AUTO A2987 M M M M /M RMK AO2 PWINO FZRANO PNO $
94908KDBQ DBQ20120603222008606/03/12 22:20:31  5-MIN KDBQ 040420Z AUTO A2987 M M M M /M RMK AO2 PWINO FZRANO PNO $
94908KDBQ DBQ20120603222508606/03/12 22:25:31  5-MIN KDBQ 040425Z AUTO A2987 M M M M /M RMK AO2 PWINO FZRANO PNO $
94908KDBQ DBQ20120603223008606/03/12 22:30:31  5-MIN KDBQ 040430Z AUTO A2987 M M M M /M RMK AO2 PWINO FZRANO PNO $
94908KDBQ DBQ20120603223508606/03/12 22:35:31  5-MIN KDBQ 040435Z AUTO A2986 M M M M /M RMK AO2 PWINO FZRANO PNO $
94908KDBQ DBQ20120603224008606/03/12 22:40:31  5-MIN KDBQ 040440Z AUTO A2986 M M M M /M RMK AO2 PWINO FZRANO PNO $
94908KDBQ DBQ20120603224508606/03/12 22:45:31  5-MIN KDBQ 040445Z AUTO A2985 M M M M /M RMK AO2 PWINO FZRANO PNO $
94908KDBQ DBQ20120603225009206/03/12 22:50:31  5-MIN KDBQ 040450Z AUTO A2985 M M M M /M RMK AO2 SLPNO PWINO FZRANO PNO $
94908KDBQ DBQ20120603225508606/03/12 22:55:31  5-MIN KDBQ 040455Z AUTO A2985 M M M M /M RMK AO2 PWINO FZRANO PNO $
94908KDBQ DBQ20120603230008606/03/12 23:00:31  5-MIN KDBQ 040500Z AUTO A2985 M M M M /M RMK AO2 PWINO FZRANO PNO $
94908KDBQ DBQ20120603230508606/03/12 23:05:31  5-MIN KDBQ 040505Z AUTO A2985 M M M M /M RMK AO2 PWINO FZRANO PNO $
94908KDBQ DBQ20120603231008606/03/12 23:10:31  5-MIN KDBQ 040510Z AUTO A2985 M M M M /M RMK AO2 PWINO FZRANO PNO $
94908KDBQ DBQ20120603231508606/03/12 23:15:31  5-MIN KDBQ 040515Z AUTO A2985 M M M M /M RMK AO2 PWINO FZRANO PNO $
94908KDBQ DBQ20120604062506806/04/12 06:25:31  5-MIN KDBQ 041225Z A2988 M M M M /M RMK AO2 PNO $
94908KDBQ DBQ20120604063006806/04/12 06:30:31  5-MIN KDBQ 041230Z A2988 M M M M /M RMK AO2 PNO $
94908KDBQ DBQ20120604063506806/04/12 06:35:31  5-MIN KDBQ 041235Z A2988 M M M M /M RMK AO2 PNO $
94908KDBQ DBQ20120604064006806/04/12 06:40:31  5-MIN KDBQ 041240Z A2989 M M M M /M RMK AO2 PNO $
94908KDBQ DBQ20120604064506806/04/12 06:45:31  5-MIN KDBQ 041245Z A2989 M M M M /M RMK AO2 PNO $
94908KDBQ DBQ20120604065007406/04/12 06:50:31  5-MIN KDBQ 041250Z A2989 M M M M /M RMK AO2 SLPNO PNO $
94908KDBQ DBQ20120604065506806/04/12 06:55:31  5-MIN KDBQ 041255Z A2989 M M M M /M RMK AO2 PNO $
94908KDBQ DBQ20120604070006806/04/12 07:00:31  5-MIN KDBQ 041300Z A2989 M M M M /M RMK AO2 PNO $
94908KDBQ DBQ20120604070506806/04/12 07:05:31  5-MIN KDBQ 041305Z A2989 M M M M /M RMK AO2 PNO $
94908KDBQ DBQ20120604071006806/04/12 07:10:31  5-MIN KDBQ 041310Z A2989 M M M M /M RMK AO2 PNO $
94908KDBQ DBQ20120604071506806/04/12 07:15:31  5-MIN KDBQ 041315Z A2990 M M M M /M RMK AO2 PNO $
94908KDBQ DBQ20120604072006806/04/12 07:20:31  5-MIN KDBQ 041320Z A2990 M M M M /M RMK AO2 PNO $
94908KDBQ DBQ20120604072506806/04/12 07:25:31  5-MIN KDBQ 041325Z A2990 M M M M /M RMK AO2 PNO $
94908KDBQ DBQ20120604073006806/04/12 07:30:31  5-MIN KDBQ 041330Z A2990 M M M M /M RMK AO2 PNO $
94908KDBQ DBQ20120604073506806/04/12 07:35:31  5-MIN KDBQ 041335Z A2990 M M M M /M RMK AO2 PNO $
94908KDBQ DBQ20120604074006806/04/12 07:40:31  5-MIN KDBQ 041340Z A2991 M M M M /M RMK AO2 PNO $
94908KDBQ DBQ20120604074506806/04/12 07:45:31  5-MIN KDBQ 041345Z A2991 M M M M /M RMK AO2 PNO $
94908KDBQ DBQ20120604075007406/04/12 07:50:31  5-MIN KDBQ 041350Z A2991 M M M M /M RMK AO2 SLPNO PNO $
94908KDBQ DBQ20120604075507206/04/12 07:55:31  5-MIN KDBQ 041355Z CLR A2990 M M M M /M RMK AO2 PNO $
94908KDBQ DBQ20120604080010106/04/12 08:00:31  5-MIN KDBQ 041400Z 07007KT 10SM CLR 18/18 A2990 1090 100 1700 070/07 RMK AO2 PNO $
94908KDBQ DBQ20120604080510106/04/12 08:05:31  5-MIN KDBQ 041405Z 07007KT 10SM CLR 18/18 A2990 1090 100 1700 070/07 RMK AO2 PNO $
94908KDBQ DBQ20120604081010106/04/12 08:10:31  5-MIN KDBQ 041410Z 07007KT 10SM CLR 18/18 A2990 1090 100 1700 070/07 RMK AO2 PNO $
94908KDBQ DBQ20120604081509506/04/12 08:15:31  5-MIN KDBQ 041415Z 07007KT 10SM CLR 18/18 A2991 1090 100 1700 070/07 RMK AO2
94908KDBQ DBQ20120604082009506/04/12 08:20:31  5-MIN KDBQ 041420Z 07007KT 10SM CLR 18/18 A2991 1090 100 1700 070/07 RMK AO2
94908KDBQ DBQ20120604082509706/04/12 08:25:31  5-MIN KDBQ 041425Z 07007KT 10SM CLR 18/18 A2991 1090 100 1700 070/07 RMK AO2 $
94908KDBQ DBQ20120604083009706/04/12 08:30:31  5-MIN KDBQ 041430Z 07007KT 10SM CLR 18/18 A2991 1090 100 1700 070/07 RMK AO2 $
94908KDBQ DBQ20120604083509606/04/12 08:35:31  5-MIN KDBQ 041435Z 09008KT 10SM CLR 20/14 A2991 1090 67 2000 090/08 RMK AO2 $
94908KDBQ DBQ20120604084009606/04/12 08:40:31  5-MIN KDBQ 041440Z 08006KT 10SM CLR 20/14 A2990 1090 67 2000 080/06 RMK AO2 $
94908KDBQ DBQ20120604084509606/04/12 08:45:31  5-MIN KDBQ 041445Z 09007KT 10SM CLR 20/14 A2990 1090 67 2000 080/07 RMK AO2 $
94908KDBQ DBQ20120604085012406/04/12 08:50:31  5-MIN KDBQ 041450Z 08009KT 10SM CLR 20/14 A2991 1090 70 2000 080/09 RMK AO2 SLPNO 6//// T02000144 52006 $
94908KDBQ DBQ20120604085509606/04/12 08:55:31  5-MIN KDBQ 041455Z 08008KT 10SM CLR 21/14 A2991 1090 63 2100 080/08 RMK AO2 $
94908KDBQ DBQ20120604090009606/04/12 09:00:31  5-MIN KDBQ 041500Z 09007KT 10SM CLR 21/14 A2990 1090 63 2100 090/07 RMK AO2 $
94908KDBQ DBQ20120604090509606/04/12 09:05:31  5-MIN KDBQ 041505Z 09008KT 10SM CLR 21/14 A2991 1090 63 2100 090/08 RMK AO2 $
94908KDBQ DBQ20120604091009606/04/12 09:10:31  5-MIN KDBQ 041510Z 09009KT 10SM CLR 21/14 A2991 1090 63 2100 090/09 RMK AO2 $
94908KDBQ DBQ20120604091509206/04/12 09:15:31  5-MIN KDBQ 041515Z 09007KT 10SM 21/14 A2991 1090 63 2100 090/07 RMK AO2 $
94908KDBQ DBQ20120604092009206/04/12 09:20:31  5-MIN KDBQ 041520Z 08007KT 10SM 21/14 A2991 1090 63 2100 080/07 RMK AO2 $
94908KDBQ DBQ20120604092509206/04/12 09:25:31  5-MIN KDBQ 041525Z 07006KT 10SM 21/14 A2991 1090 63 2100 060/06 RMK AO2 $
94908KDBQ DBQ20120604093009206/04/12 09:30:31  5-MIN KDBQ 041530Z 06007KT 10SM 21/14 A2991 1090 63 2100 060/07 RMK AO2 $
94908KDBQ DBQ20120604093509606/04/12 09:35:31  5-MIN KDBQ 041535Z 05008KT 10SM CLR 22/14 A2991 1080 59 2200 050/08 RMK AO2 $
94908KDBQ DBQ20120604094009106/04/12 09:40:31  5-MIN KDBQ 041540Z 06007KT CLR 22/13 A2991 1090 58 2100 060/07 RMK AO2 $
94908KDBQ DBQ20120604094509606/04/12 09:45:31  5-MIN KDBQ 041545Z 06009KT 10SM CLR 22/13 A2992 1080 56 2200 060/09 RMK AO2 $
94908KDBQ DBQ20120604095011206/04/12 09:50:31  5-MIN KDBQ 041550Z 05007KT 10SM CLR 22/13 A2992 1080 58 2100 050/07 RMK AO2 SLPNO T02170133 $
94908KDBQ DBQ20120604095508606/04/12 09:55:31  5-MIN KDBQ 041555Z 10SM CLR 22/13 A2992 1080 56 2200 M /M RMK AO2 $
94908KDBQ DBQ20120604100008606/04/12 10:00:31  5-MIN KDBQ 041600Z 10SM CLR 22/13 A2992 1080 56 2200 M /M RMK AO2 $
94908KDBQ DBQ20120604100508606/04/12 10:05:31  5-MIN KDBQ 041605Z 10SM CLR 22/13 A2992 1080 54 2200 M /M RMK AO2 $
94908KDBQ DBQ20120604101008606/04/12 10:10:31  5-MIN KDBQ 041610Z 10SM CLR 22/13 A2992 1080 54 2200 M /M RMK AO2 $
94908KDBQ DBQ20120604101508606/04/12 10:15:31  5-MIN KDBQ 041615Z 10SM CLR 23/14 A2992 1080 57 2300 M /M RMK AO2 $
94908KDBQ DBQ20120604102009606/04/12 10:20:31  5-MIN KDBQ 041620Z 11006KT 10SM CLR 22/13 A2992 1080 56 2200 110/06 RMK AO2 $
94908KDBQ DBQ20120604102509406/04/12 10:25:31  5-MIN KDBQ 041625Z 08004KT 10SM CLR 22/13 A2991 1080 56 2200 080/04 RMK AO2
94908KDBQ DBQ20120604103009406/04/12 10:30:31  5-MIN KDBQ 041630Z 06008KT 10SM CLR 23/13 A2991 1080 55 2300 060/08 RMK AO2
94908KDBQ DBQ20120604103510006/04/12 10:35:31  5-MIN KDBQ 041635Z 07009KT 10SM CLR 23/13 A2992 1080 55 2300 070/09 RMK AO2 PNO $
94908KDBQ DBQ20120604104010006/04/12 10:40:31  5-MIN KDBQ 041640Z 10007KT 10SM CLR 23/13 A2992 1080 55 2300 100/07 RMK AO2 PNO $
94908KDBQ DBQ20120604104510006/04/12 10:45:31  5-MIN KDBQ 041645Z 05010KT 10SM CLR 23/14 A2992 1080 57 2300 050/10 RMK AO2 PNO $
94908KDBQ DBQ20120604105011606/04/12 10:50:31  5-MIN KDBQ 041650Z 06008KT 10SM CLR 23/13 A2992 1080 55 2300 060/08 RMK AO2 SLPNO T02280133 PNO $
94908KDBQ DBQ20120604105510006/04/12 10:55:31  5-MIN KDBQ 041655Z 08009KT 10SM CLR 23/14 A2992 1080 57 2300 080/09 RMK AO2 PNO $
94908KDBQ DBQ20120604110010006/04/12 11:00:31  5-MIN KDBQ 041700Z 08007KT 10SM CLR 23/13 A2992 1070 55 2300 080/07 RMK AO2 PNO $
94908KDBQ DBQ20120604110510006/04/12 11:05:31  5-MIN KDBQ 041705Z 10007KT 10SM CLR 23/13 A2993 1070 55 2300 100/07 RMK AO2 PNO $
94908KDBQ DBQ20120604111010406/04/12 11:10:31  5-MIN KDBQ 041710Z AUTO 05006KT 10SM CLR 23/13 A2992 1080 55 2300 050/06 RMK AO2 TSNO
94908KDBQ DBQ20120604111510406/04/12 11:15:31  5-MIN KDBQ 041715Z AUTO 03005KT 10SM CLR 24/14 A2992 1080 55 2400 030/05 RMK AO2 TSNO
94908KDBQ DBQ20120604112009406/04/12 11:20:31  5-MIN KDBQ 041720Z 06005KT 10SM CLR 23/14 A2992 1080 57 2300 050/05 RMK AO2
94908KDBQ DBQ20120604112509406/04/12 11:25:31  5-MIN KDBQ 041725Z VRB03KT 10SM CLR 23/14 A2992 1070 55 2300 VRB/03 RMK AO2
94908KDBQ DBQ20120604113009706/04/12 11:30:31  5-MIN KDBQ 041730Z 04007KT 10SM FEW041 24/14 A2992 1070 55 2400 040/07 RMK AO2
94908KDBQ DBQ20120604113509706/04/12 11:35:31  5-MIN KDBQ 041735Z VRB05KT 10SM FEW041 23/13 A2993 1070 53 2300 VRB/05 RMK AO2
94908KDBQ DBQ20120604114009706/04/12 11:40:31  5-MIN KDBQ 041740Z 05005KT 10SM FEW041 24/14 A2993 1070 53 2400 050/05 RMK AO2
94908KDBQ DBQ20120604114509706/04/12 11:45:31  5-MIN KDBQ 041745Z 00000KT 10SM FEW041 24/14 A2993 1070 53 2400 000/00 RMK AO2
94908KDBQ DBQ20120604115012206/04/12 11:50:31  5-MIN KDBQ 041750Z 08006KT 10SM CLR 24/13 A2993 1070 51 2400 080/06 RMK AO2 SLPNO 6//// T02390133 51016
94908KDBQ DBQ20120604115509406/04/12 11:55:31  5-MIN KDBQ 041755Z 11005KT 10SM CLR 24/13 A2993 1070 49 2400 110/05 RMK AO2
94908KDBQ DBQ20120604120009406/04/12 12:00:31  5-MIN KDBQ 041800Z 00000KT 10SM CLR 24/14 A2992 1070 53 2500 000/00 RMK AO2
94908KDBQ DBQ20120604120509406/04/12 12:05:31  5-MIN KDBQ 041805Z VRB06KT 10SM CLR 24/13 A2993 1070 49 2400 VRB/06 RMK AO2
94908KDBQ DBQ20120604121009406/04/12 12:10:31  5-MIN KDBQ 041810Z VRB03KT 10SM CLR 24/13 A2992 1080 49 2500 VRB/03 RMK AO2
94908KDBQ DBQ20120604121509706/04/12 12:15:31  5-MIN KDBQ 041815Z 04005KT 10SM FEW047 24/13 A2992 1070 47 2500 040/05 RMK AO2
94908KDBQ DBQ20120604122009706/04/12 12:20:31  5-MIN KDBQ 041820Z 05004KT 10SM FEW047 24/13 A2992 1070 49 2400 050/04 RMK AO2
94908KDBQ DBQ20120604122509406/04/12 12:25:31  5-MIN KDBQ 041825Z 05008KT 10SM CLR 24/13 A2993 1070 49 2400 050/08 RMK AO2
94908KDBQ DBQ20120604123009406/04/12 12:30:31  5-MIN KDBQ 041830Z 00000KT 10SM CLR 24/13 A2993 1070 49 2400 000/00 RMK AO2
94908KDBQ DBQ20120604123509406/04/12 12:35:31  5-MIN KDBQ 041835Z 36005KT 10SM CLR 24/12 A2993 1070 46 2400 360/05 RMK AO2
94908KDBQ DBQ20120604124009406/04/12 12:40:31  5-MIN KDBQ 041840Z 04007KT 10SM CLR 24/13 A2993 1070 47 2400 040/07 RMK AO2
94908KDBQ DBQ20120604124509406/04/12 12:45:31  5-MIN KDBQ 041845Z 05005KT 10SM CLR 25/13 A2993 1070 46 2500 040/05 RMK AO2
94908KDBQ DBQ20120604125011006/04/12 12:50:31  5-MIN KDBQ 041850Z VRB03KT 10SM CLR 24/12 A2992 1070 46 2500 VRB/03 RMK AO2 SLPNO T02440122
94908KDBQ DBQ20120604125509406/04/12 12:55:31  5-MIN KDBQ 041855Z 02009KT 10SM CLR 25/13 A2993 1070 46 2500 020/09 RMK AO2
94908KDBQ DBQ20120604130009406/04/12 13:00:31  5-MIN KDBQ 041900Z 03006KT 10SM CLR 25/13 A2992 1080 46 2500 030/06 RMK AO2
94908KDBQ DBQ20120604130509406/04/12 13:05:31  5-MIN KDBQ 041905Z VRB06KT 10SM CLR 25/13 A2992 1080 48 2500 VRB/06 RMK AO2
94908KDBQ DBQ20120604131009406/04/12 13:10:31  5-MIN KDBQ 041910Z VRB03KT 10SM CLR 24/12 A2992 1080 46 2500 VRB/03 RMK AO2
94908KDBQ DBQ20120604131509406/04/12 13:15:31  5-MIN KDBQ 041915Z 02005KT 10SM CLR 25/13 A2992 1080 48 2500 020/05 RMK AO2
94908KDBQ DBQ20120604132009406/04/12 13:20:31  5-MIN KDBQ 041920Z 02006KT 10SM CLR 25/13 A2992 1080 48 2500 020/06 RMK AO2
94908KDBQ DBQ20120604132509406/04/12 13:25:31  5-MIN KDBQ 041925Z VRB04KT 10SM CLR 25/13 A2992 1080 48 2500 VRB/04 RMK AO2
94908KDBQ DBQ20120604133009606/04/12 13:30:31  5-MIN KDBQ 041930Z 07005KT 10SM CLR 25/13 A2991 1080 46 2500 070/05 RMK AO2 $
94908KDBQ DBQ20120604133509606/04/12 13:35:31  5-MIN KDBQ 041935Z VRB05KT 10SM CLR 25/13 A2991 1080 48 2500 VRB/05 RMK AO2 $
94908KDBQ DBQ20120604134009606/04/12 13:40:31  5-MIN KDBQ 041940Z 01006KT 10SM CLR 26/13 A2991 1080 46 2600 010/06 RMK AO2 $
94908KDBQ DBQ20120604134509906/04/12 13:45:31  5-MIN KDBQ 041945Z 06008KT 10SM FEW050 24/13 A2991 1090 47 2500 060/08 RMK AO2 $
94908KDBQ DBQ20120604135012806/04/12 13:50:31  5-MIN KDBQ 041950Z 07008KT 020V100 10SM CLR 26/14 A2991 1080 48 2600 060/08 020V100 RMK AO2 SLPNO T02560139 $
94908KDBQ DBQ20120604135509606/04/12 13:55:31  5-MIN KDBQ 041955Z 03006KT 10SM CLR 26/13 A2991 1080 46 2600 030/06 RMK AO2 $
94908KDBQ DBQ20120604140009606/04/12 14:00:31  5-MIN KDBQ 042000Z 04008KT 10SM CLR 26/13 A2991 1080 46 2600 040/08 RMK AO2 $
94908KDBQ DBQ20120604140511306/04/12 14:05:31  5-MIN KDBQ 042005Z 07007KT 10SM R36/3500VP6000FT CLR 25/13 A2991 1080 48 2500 060/07 RMK AO2 $
94908KDBQ DBQ20120604141011306/04/12 14:10:31  5-MIN KDBQ 042010Z 07004KT 10SM R36/3500VP6000FT CLR 25/12 A2991 1080 44 2500 070/04 RMK AO2 $
94908KDBQ DBQ20120604141509606/04/12 14:15:31  5-MIN KDBQ 042015Z 00000KT 10SM CLR 26/12 A2991 1090 41 2600 000/00 RMK AO2 $
94908KDBQ DBQ20120604142009906/04/12 14:20:31  5-MIN KDBQ 042020Z 04006KT 10SM SCT055 26/12 A2991 1080 41 2700 040/06 RMK AO2 $
94908KDBQ DBQ20120604142509906/04/12 14:25:31  5-MIN KDBQ 042025Z 07007KT 10SM SCT055 26/13 A2992 1080 44 2600 070/07 RMK AO2 $
94908KDBQ DBQ20120604143009906/04/12 14:30:31  5-MIN KDBQ 042030Z 10004KT 10SM FEW055 24/12 A2992 1080 46 2500 100/04 RMK AO2 $
94908KDBQ DBQ20120604143509906/04/12 14:35:31  5-MIN KDBQ 042035Z 11004KT 10SM SCT055 25/12 A2992 1080 43 2500 110/04 RMK AO2 $
94908KDBQ DBQ20120604144009906/04/12 14:40:31  5-MIN KDBQ 042040Z VRB04KT 10SM SCT055 26/12 A2992 1080 41 2600 VRB/04 RMK AO2 $
94908KDBQ DBQ20120604144509906/04/12 14:45:31  5-MIN KDBQ 042045Z 04008KT 10SM SCT055 25/12 A2992 1080 44 2500 030/08 RMK AO2 $
94908KDBQ DBQ20120604145012106/04/12 14:50:31  5-MIN KDBQ 042050Z 05007KT 10SM FEW055 26/12 A2992 1080 43 2600 050/07 RMK AO2 SLPNO T02560122 53004 $
94908KDBQ DBQ20120604145509906/04/12 14:55:31  5-MIN KDBQ 042055Z 08004KT 10SM FEW055 26/11 A2991 1090 40 2600 080/04 RMK AO2 $
94908KDBQ DBQ20120604150010606/04/12 15:00:31  5-MIN KDBQ 042100Z VRB03KT 10SM FEW055 SCT070 26/11 A2991 1080 40 2600 VRB/03 RMK AO2 $
94908KDBQ DBQ20120604150509906/04/12 15:05:31  5-MIN KDBQ 042105Z 03006KT 10SM BKN070 25/11 A2991 1080 41 2500 030/06 RMK AO2 $
94908KDBQ DBQ20120604151009906/04/12 15:10:31  5-MIN KDBQ 042110Z 04005KT 10SM BKN070 24/12 A2991 1080 44 2500 040/05 RMK AO2 $
94908KDBQ DBQ20120604151509906/04/12 15:15:31  5-MIN KDBQ 042115Z 07003KT 10SM BKN070 26/12 A2991 1080 40 2700 070/03 RMK AO2 $
94908KDBQ DBQ20120604152009906/04/12 15:20:31  5-MIN KDBQ 042120Z 04006KT 10SM BKN070 26/12 A2991 1080 41 2600 040/06 RMK AO2 $
94908KDBQ DBQ20120604152509906/04/12 15:25:31  5-MIN KDBQ 042125Z 04007KT 10SM OVC070 25/12 A2991 1080 43 2500 040/07 RMK AO2 $
94908KDBQ DBQ20120604153009906/04/12 15:30:31  5-MIN KDBQ 042130Z 05007KT 10SM BKN070 24/12 A2992 1080 46 2500 050/07 RMK AO2 $
94908KDBQ DBQ20120604153509906/04/12 15:35:31  5-MIN KDBQ 042135Z 04006KT 10SM BKN070 26/12 A2992 1080 41 2600 040/06 RMK AO2 $
94908KDBQ DBQ20120604154009906/04/12 15:40:31  5-MIN KDBQ 042140Z 05005KT 10SM BKN070 26/12 A2992 1080 41 2600 050/05 RMK AO2 $
94908KDBQ DBQ20120604154509906/04/12 15:45:31  5-MIN KDBQ 042145Z VRB03KT 10SM BKN075 25/11 A2992 1080 41 2500 VRB/03 RMK AO2 $
94908KDBQ DBQ20120604155011506/04/12 15:50:31  5-MIN KDBQ 042150Z 03007KT 10SM BKN075 25/12 A2991 1080 44 2500 030/07 RMK AO2 SLPNO T02500122 $
94908KDBQ DBQ20120604155509906/04/12 15:55:31  5-MIN KDBQ 042155Z 03005KT 10SM BKN075 24/12 A2991 1090 46 2500 030/05 RMK AO2 $
94908KDBQ DBQ20120604160009906/04/12 16:00:31  5-MIN KDBQ 042200Z 05006KT 10SM BKN075 26/12 A2991 1090 43 2600 050/06 RMK AO2 $
94908KDBQ DBQ20120604160509906/04/12 16:05:31  5-MIN KDBQ 042205Z 03004KT 10SM BKN075 26/12 A2991 1090 43 2600 030/04 RMK AO2 $
94908KDBQ DBQ20120604161009906/04/12 16:10:31  5-MIN KDBQ 042210Z 01005KT 10SM SCT075 26/12 A2991 1090 41 2700 010/05 RMK AO2 $
94908KDBQ DBQ20120604161509906/04/12 16:15:31  5-MIN KDBQ 042215Z 04004KT 10SM FEW075 26/12 A2991 1090 41 2700 040/04 RMK AO2 $
94908KDBQ DBQ20120604162009906/04/12 16:20:31  5-MIN KDBQ 042220Z 36005KT 10SM FEW075 26/13 A2991 1090 43 2700 360/05 RMK AO2 $
94908KDBQ DBQ20120604162509906/04/12 16:25:31  5-MIN KDBQ 042225Z 01005KT 10SM FEW060 26/12 A2991 1090 43 2600 010/05 RMK AO2 $
94908KDBQ DBQ20120604163009906/04/12 16:30:31  5-MIN KDBQ 042230Z 04004KT 10SM SCT060 26/12 A2991 1090 41 2600 040/04 RMK AO2 $
94908KDBQ DBQ20120604163509906/04/12 16:35:31  5-MIN KDBQ 042235Z 07006KT 10SM BKN060 26/12 A2991 1090 43 2600 070/06 RMK AO2 $
94908KDBQ DBQ20120604164009906/04/12 16:40:31  5-MIN KDBQ 042240Z 08006KT 10SM BKN060 26/12 A2991 1090 41 2600 080/06 RMK AO2 $
94908KDBQ DBQ20120604164509906/04/12 16:45:31  5-MIN KDBQ 042245Z 10003KT 10SM SCT060 26/11 A2990 1090 40 2600 100/03 RMK AO2 $
94908KDBQ DBQ20120604165011506/04/12 16:50:31  5-MIN KDBQ 042250Z 00000KT 10SM SCT060 26/11 A2990 1090 40 2600 000/00 RMK AO2 SLPNO T02560111 $
94908KDBQ DBQ20120604165509906/04/12 16:55:31  5-MIN KDBQ 042255Z 10006KT 10SM SCT060 26/11 A2990 1090 40 2600 100/06 RMK AO2 $
94908KDBQ DBQ20120604170009906/04/12 17:00:31  5-MIN KDBQ 042300Z 10005KT 10SM SCT060 25/11 A2990 1090 41 2500 100/05 RMK AO2 $
94908KDBQ DBQ20120604170509906/04/12 17:05:31  5-MIN KDBQ 042305Z 08005KT 10SM SCT060 26/11 A2990 1090 40 2600 080/05 RMK AO2 $
94908KDBQ DBQ20120604171009906/04/12 17:10:31  5-MIN KDBQ 042310Z 09005KT 10SM SCT060 25/11 A2991 1090 41 2500 090/05 RMK AO2 $
94908KDBQ DBQ20120604171509906/04/12 17:15:31  5-MIN KDBQ 042315Z 01003KT 10SM FEW060 26/11 A2991 1090 40 2600 010/03 RMK AO2 $
94908KDBQ DBQ20120604172009906/04/12 17:20:31  5-MIN KDBQ 042320Z 02003KT 10SM FEW060 25/12 A2991 1090 43 2500 020/03 RMK AO2 $
94908KDBQ DBQ20120604172509906/04/12 17:25:31  5-MIN KDBQ 042325Z 05003KT 10SM FEW060 25/13 A2991 1090 46 2500 050/03 RMK AO2 $
94908KDBQ DBQ20120604173009906/04/12 17:30:31  5-MIN KDBQ 042330Z 04003KT 10SM FEW060 24/12 A2991 1090 46 2500 040/03 RMK AO2 $
94908KDBQ DBQ20120604173509606/04/12 17:35:31  5-MIN KDBQ 042335Z 00000KT 10SM CLR 25/12 A2991 1090 44 2500 000/00 RMK AO2 $
94908KDBQ DBQ20120604174009606/04/12 17:40:31  5-MIN KDBQ 042340Z 00000KT 10SM CLR 26/12 A2991 1090 41 2600 000/00 RMK AO2 $
94908KDBQ DBQ20120604174509606/04/12 17:45:31  5-MIN KDBQ 042345Z 07003KT 10SM CLR 25/12 A2991 1090 43 2500 070/03 RMK AO2 $
94908KDBQ DBQ20120604175013006/04/12 17:50:31  5-MIN KDBQ 042350Z 07003KT 10SM CLR 25/12 A2991 1090 43 2500 070/03 RMK AO2 SLPNO T02500117 10261 20239 56004 $
94908KDBQ DBQ20120604175509606/04/12 17:55:31  5-MIN KDBQ 042355Z 00000KT 10SM CLR 25/11 A2991 1080 41 2500 000/00 RMK AO2 $
94908KDBQ DBQ20120604180009606/04/12 18:00:31  5-MIN KDBQ 050000Z 09003KT 10SM CLR 25/11 A2991 1080 41 2500 090/03 RMK AO2 $
94908KDBQ DBQ20120604180509606/04/12 18:05:31  5-MIN KDBQ 050005Z 07004KT 10SM CLR 25/12 A2992 1080 44 2500 070/04 RMK AO2 $
94908KDBQ DBQ20120604181009606/04/12 18:10:31  5-MIN KDBQ 050010Z 00000KT 10SM CLR 24/12 A2992 1080 44 2500 000/00 RMK AO2 $
94908KDBQ DBQ20120604181509606/04/12 18:15:31  5-MIN KDBQ 050015Z 08003KT 10SM CLR 24/11 A2992 1080 42 2500 080/03 RMK AO2 $
94908KDBQ DBQ20120604182009606/04/12 18:20:31  5-MIN KDBQ 050020Z 07003KT 10SM CLR 24/13 A2992 1080 47 2500 070/03 RMK AO2 $
94908KDBQ DBQ20120604182509606/04/12 18:25:31  5-MIN KDBQ 050025Z 07003KT 10SM CLR 24/13 A2992 1080 47 2500 060/03 RMK AO2 $
94908KDBQ DBQ20120604183009606/04/12 18:30:31  5-MIN KDBQ 050030Z 00000KT 10SM CLR 24/12 A2992 1080 47 2400 000/00 RMK AO2 $
94908KDBQ DBQ20120604183509606/04/12 18:35:31  5-MIN KDBQ 050035Z 00000KT 10SM CLR 24/12 A2992 1080 46 2500 000/00 RMK AO2 $
94908KDBQ DBQ20120604184009606/04/12 18:40:31  5-MIN KDBQ 050040Z 00000KT 10SM CLR 24/12 A2992 1080 47 2400 000/00 RMK AO2 $
94908KDBQ DBQ20120604184509906/04/12 18:45:31  5-MIN KDBQ 050045Z 00000KT 10SM FEW070 24/12 A2992 1080 46 2400 000/00 RMK AO2 $
94908KDBQ DBQ20120604185011506/04/12 18:50:31  5-MIN KDBQ 050050Z 00000KT 10SM SCT070 24/12 A2992 1080 46 2400 000/00 RMK AO2 SLPNO T02390117 $
94908KDBQ DBQ20120604185509906/04/12 18:55:31  5-MIN KDBQ 050055Z 00000KT 10SM BKN070 24/11 A2992 1080 44 2400 000/00 RMK AO2 $
94908KDBQ DBQ20120604190009906/04/12 19:00:31  5-MIN KDBQ 050100Z 00000KT 10SM BKN070 24/11 A2992 1080 44 2400 000/00 RMK AO2 $
94908KDBQ DBQ20120604190509906/04/12 19:05:31  5-MIN KDBQ 050105Z 00000KT 10SM BKN075 24/12 A2992 1080 47 2400 000/00 RMK AO2 $
94908KDBQ DBQ20120604191009906/04/12 19:10:31  5-MIN KDBQ 050110Z 00000KT 10SM OVC075 24/11 A2992 1080 44 2400 000/00 RMK AO2 $
94908KDBQ DBQ20120604191509906/04/12 19:15:31  5-MIN KDBQ 050115Z 00000KT 10SM OVC075 24/11 A2992 1080 44 2400 000/00 RMK AO2 $
94908KDBQ DBQ20120604192009906/04/12 19:20:31  5-MIN KDBQ 050120Z 00000KT 10SM OVC075 24/11 A2992 1080 44 2400 000/00 RMK AO2 $
94908KDBQ DBQ20120604192509906/04/12 19:25:31  5-MIN KDBQ 050125Z 00000KT 10SM OVC075 23/13 A2992 1080 53 2300 000/00 RMK AO2 $
94908KDBQ DBQ20120604193009906/04/12 19:30:31  5-MIN KDBQ 050130Z 00000KT 10SM OVC080 22/14 A2992 1080 59 2200 000/00 RMK AO2 $
94908KDBQ DBQ20120604193509906/04/12 19:35:31  5-MIN KDBQ 050135Z 00000KT 10SM BKN080 22/13 A2992 1080 54 2200 000/00 RMK AO2 $
94908KDBQ DBQ20120604194009906/04/12 19:40:31  5-MIN KDBQ 050140Z 00000KT 10SM BKN075 22/13 A2992 1080 54 2200 000/00 RMK AO2 $
94908KDBQ DBQ20120604194509906/04/12 19:45:31  5-MIN KDBQ 050145Z 00000KT 10SM SCT075 23/14 A2992 1080 59 2300 000/00 RMK AO2 $
94908KDBQ DBQ20120604195011506/04/12 19:50:31  5-MIN KDBQ 050150Z 00000KT 10SM FEW080 22/14 A2992 1070 63 2100 000/00 RMK AO2 SLPNO T02170144 $
94908KDBQ DBQ20120604195509906/04/12 19:55:31  5-MIN KDBQ 050155Z 00000KT 10SM FEW080 22/16 A2993 1070 68 2100 000/00 RMK AO2 $
94908KDBQ DBQ20120604200009606/04/12 20:00:31  5-MIN KDBQ 050200Z 00000KT 10SM CLR 22/16 A2993 1070 70 2100 000/00 RMK AO2 $
94908KDBQ DBQ20120604200509606/04/12 20:05:31  5-MIN KDBQ 050205Z 00000KT 10SM CLR 22/15 A2993 1070 65 2100 000/00 RMK AO2 $
94908KDBQ DBQ20120604201009606/04/12 20:10:31  5-MIN KDBQ 050210Z 00000KT 10SM CLR 21/15 A2992 1070 70 2000 000/00 RMK AO2 $
94908KDBQ DBQ20120604201509606/04/12 20:15:31  5-MIN KDBQ 050215Z 00000KT 10SM CLR 20/16 A2993 1070 78 1900 000/00 RMK AO2 $
94908KDBQ DBQ20120604202009606/04/12 20:20:31  5-MIN KDBQ 050220Z 00000KT 10SM CLR 20/15 A2993 1070 72 1900 000/00 RMK AO2 $
94908KDBQ DBQ20120604202509606/04/12 20:25:31  5-MIN KDBQ 050225Z 00000KT 10SM CLR 19/15 A2993 1070 75 1900 000/00 RMK AO2 $
94908KDBQ DBQ20120604203009606/04/12 20:30:31  5-MIN KDBQ 050230Z 00000KT 10SM CLR 20/15 A2993 1070 72 1900 000/00 RMK AO2 $
94908KDBQ DBQ20120604203509606/04/12 20:35:31  5-MIN KDBQ 050235Z 00000KT 10SM CLR 19/15 A2993 1070 75 1900 000/00 RMK AO2 $
94908KDBQ DBQ20120604204009606/04/12 20:40:31  5-MIN KDBQ 050240Z 00000KT 10SM CLR 19/15 A2993 1070 75 1900 000/00 RMK AO2 $
94908KDBQ DBQ20120604204509606/04/12 20:45:31  5-MIN KDBQ 050245Z 00000KT 10SM CLR 19/16 A2993 1070 78 1900 000/00 RMK AO2 $
94908KDBQ DBQ20120604205011906/04/12 20:50:31  5-MIN KDBQ 050250Z 00000KT 10SM CLR 19/16 A2993 1070 78 1900 000/00 RMK AO2 SLP130 T01940156 55000 $
94908KDBQ DBQ20120604205509606/04/12 20:55:31  5-MIN KDBQ 050255Z 00000KT 10SM CLR 19/16 A2993 1070 78 1900 000/00 RMK AO2 $
94908KDBQ DBQ20120604210009606/04/12 21:00:31  5-MIN KDBQ 050300Z 00000KT 10SM CLR 19/16 A2993 1070 81 1800 000/00 RMK AO2 $
94908KDBQ DBQ20120604210509606/04/12 21:05:31  5-MIN KDBQ 050305Z 00000KT 10SM CLR 18/16 A2993 1070 84 1800 000/00 RMK AO2 $
94908KDBQ DBQ20120604211009606/04/12 21:10:31  5-MIN KDBQ 050310Z 00000KT 10SM CLR 18/15 A2993 1070 81 1700 000/00 RMK AO2 $
94908KDBQ DBQ20120604211509606/04/12 21:15:31  5-MIN KDBQ 050315Z 00000KT 10SM CLR 18/15 A2993 1070 81 1800 000/00 RMK AO2 $
94908KDBQ DBQ20120604212009606/04/12 21:20:31  5-MIN KDBQ 050320Z 00000KT 10SM CLR 18/15 A2993 1070 81 1800 000/00 RMK AO2 $
94908KDBQ DBQ20120604212509606/04/12 21:25:31  5-MIN KDBQ 050325Z 00000KT 10SM CLR 18/14 A2993 1070 81 1700 000/00 RMK AO2 $
94908KDBQ DBQ20120604213009606/04/12 21:30:31  5-MIN KDBQ 050330Z 00000KT 10SM CLR 18/14 A2993 1070 75 1800 000/00 RMK AO2 $
94908KDBQ DBQ20120604213509606/04/12 21:35:31  5-MIN KDBQ 050335Z 00000KT 10SM CLR 18/14 A2992 1070 75 1800 000/00 RMK AO2 $
94908KDBQ DBQ20120604214009606/04/12 21:40:31  5-MIN KDBQ 050340Z 00000KT 10SM CLR 18/14 A2993 1070 75 1800 000/00 RMK AO2 $
94908KDBQ DBQ20120604214509906/04/12 21:45:31  5-MIN KDBQ 050345Z 00000KT 10SM FEW075 18/14 A2993 1070 78 1800 000/00 RMK AO2 $
94908KDBQ DBQ20120604215011606/04/12 21:50:31  5-MIN KDBQ 050350Z 00000KT 10SM SCT075 18/14 A2993 1070 81 1700 000/00 RMK AO2 SLP130 T01780144 $
94908KDBQ DBQ20120604215509906/04/12 21:55:31  5-MIN KDBQ 050355Z 00000KT 10SM SCT075 18/14 A2993 1070 81 1700 000/00 RMK AO2 $
94908KDBQ DBQ20120604220009906/04/12 22:00:31  5-MIN KDBQ 050400Z 00000KT 10SM BKN070 18/14 A2993 1070 78 1700 000/00 RMK AO2 $
94908KDBQ DBQ20120604220509906/04/12 22:05:31  5-MIN KDBQ 050405Z 00000KT 10SM BKN070 18/14 A2993 1070 78 1700 000/00 RMK AO2 $
94908KDBQ DBQ20120604221009906/04/12 22:10:31  5-MIN KDBQ 050410Z 00000KT 10SM BKN075 18/14 A2993 1070 75 1700 000/00 RMK AO2 $
94908KDBQ DBQ20120604221509906/04/12 22:15:31  5-MIN KDBQ 050415Z 00000KT 10SM BKN075 18/14 A2993 1070 75 1700 000/00 RMK AO2 $
94908KDBQ DBQ20120604222009906/04/12 22:20:31  5-MIN KDBQ 050420Z 00000KT 10SM BKN075 18/15 A2993 1070 83 1700 000/00 RMK AO2 $
94908KDBQ DBQ20120604222510606/04/12 22:25:31  5-MIN KDBQ 050425Z 00000KT 10SM BKN075 BKN090 18/15 A2993 1070 81 1700 000/00 RMK AO2 $
94908KDBQ DBQ20120604223009906/04/12 22:30:31  5-MIN KDBQ 050430Z 00000KT 10SM BKN080 18/15 A2993 1070 81 1700 000/00 RMK AO2 $
94908KDBQ DBQ20120604223509906/04/12 22:35:31  5-MIN KDBQ 050435Z 00000KT 10SM BKN080 18/15 A2993 1070 81 1700 000/00 RMK AO2 $
94908KDBQ DBQ20120604224009906/04/12 22:40:31  5-MIN KDBQ 050440Z 00000KT 10SM BKN080 18/15 A2994 1060 83 1700 000/00 RMK AO2 $
94908KDBQ DBQ20120604224510606/04/12 22:45:31  5-MIN KDBQ 050445Z 05006KT 10SM SCT075 SCT085 17/13 A2994 1060 78 1600 050/06 RMK AO2 $
94908KDBQ DBQ20120604225012306/04/12 22:50:31  5-MIN KDBQ 050450Z 05006KT 10SM FEW070 SCT085 17/13 A2994 1060 77 1500 050/06 RMK AO2 SLP134 T01670128 $
94908KDBQ DBQ20120604225509906/04/12 22:55:31  5-MIN KDBQ 050455Z 11008KT 10SM FEW070 17/13 A2994 1060 75 1600 110/08 RMK AO2 $
94908KDBQ DBQ20120604230009906/04/12 23:00:31  5-MIN KDBQ 050500Z 12007KT 10SM FEW070 19/13 A2994 1060 67 1800 120/07 RMK AO2 $
94908KDBQ DBQ20120604230509906/04/12 23:05:31  5-MIN KDBQ 050505Z 11007KT 10SM FEW070 18/13 A2994 1060 72 1700 110/07 RMK AO2 $
94908KDBQ DBQ20120604231009606/04/12 23:10:31  5-MIN KDBQ 050510Z 12008KT 10SM CLR 18/13 A2994 1060 72 1700 120/08 RMK AO2 $
94908KDBQ DBQ20120604231509606/04/12 23:15:31  5-MIN KDBQ 050515Z 14009KT 10SM CLR 18/13 A2994 1060 72 1700 140/09 RMK AO2 $
94908KDBQ DBQ20120604232009606/04/12 23:20:31  5-MIN KDBQ 050520Z 13010KT 10SM CLR 18/12 A2994 1060 69 1700 130/10 RMK AO2 $
94908KDBQ DBQ20120604232509606/04/12 23:25:31  5-MIN KDBQ 050525Z 13012KT 10SM CLR 18/12 A2994 1060 67 1700 130/12 RMK AO2 $
94908KDBQ DBQ20120604233009606/04/12 23:30:31  5-MIN KDBQ 050530Z 13011KT 10SM CLR 18/12 A2995 1050 67 1700 130/11 RMK AO2 $
94908KDBQ DBQ20120604233509606/04/12 23:35:31  5-MIN KDBQ 050535Z 13012KT 10SM CLR 18/12 A2994 1060 67 1700 130/12 RMK AO2 $
94908KDBQ DBQ20120604234009606/04/12 23:40:31  5-MIN KDBQ 050540Z 13011KT 10SM CLR 18/11 A2994 1060 64 1700 130/11 RMK AO2 $
94908KDBQ DBQ20120604234509606/04/12 23:45:31  5-MIN KDBQ 050545Z 13011KT 10SM CLR 18/11 A2994 1060 64 1700 130/11 RMK AO2 $
94908KDBQ DBQ20120604235013106/04/12 23:50:31  5-MIN KDBQ 050550Z 13013KT 10SM CLR 18/11 A2995 1050 62 1700 130/13 RMK AO2 SLP136 T01780106 10250 20167 51005 $
94908KDBQ DBQ20120604235509606/04/12 23:55:31  5-MIN KDBQ 050555Z 13012KT 10SM CLR 18/11 A2995 1060 62 1700 130/12 RMK AO2 $
94908KDBQ DBQ20120605000009606/05/12 00:00:38  5-MIN KDBQ 050600Z 13013KT 10SM CLR 18/11 A2995 1050 62 1700 130/13 RMK AO2 $
94908KDBQ DBQ20120605000509606/05/12 00:05:31  5-MIN KDBQ 050605Z 13013KT 10SM CLR 17/11 A2995 1050 64 1600 130/13 RMK AO2 $
94908KDBQ DBQ20120605001009606/05/12 00:10:31  5-MIN KDBQ 050610Z 14012KT 10SM CLR 17/11 A2995 1050 64 1600 140/12 RMK AO2 $
94908KDBQ DBQ20120605001509606/05/12 00:15:32  5-MIN KDBQ 050615Z 14011KT 10SM CLR 17/10 A2995 1050 62 1600 140/11 RMK AO2 $
94908KDBQ DBQ20120605002009606/05/12 00:20:31  5-MIN KDBQ 050620Z 14010KT 10SM CLR 17/10 A2995 1050 64 1500 140/10 RMK AO2 $
94908KDBQ DBQ20120605002509606/05/12 00:25:31  5-MIN KDBQ 050625Z 14010KT 10SM CLR 17/10 A2995 1050 64 1500 140/10 RMK AO2 $
94908KDBQ DBQ20120605003009606/05/12 00:30:31  5-MIN KDBQ 050630Z 14009KT 10SM CLR 17/11 A2996 1050 67 1500 140/09 RMK AO2 $
94908KDBQ DBQ20120605003509606/05/12 00:35:31  5-MIN KDBQ 050635Z 14008KT 10SM CLR 16/10 A2996 1040 67 1500 130/08 RMK AO2 $
94908KDBQ DBQ20120605004009606/05/12 00:40:31  5-MIN KDBQ 050640Z 14007KT 10SM CLR 17/10 A2996 1040 64 1500 140/07 RMK AO2 $
94908KDBQ DBQ20120605004509906/05/12 00:45:31  5-MIN KDBQ 050645Z 13008KT 10SM FEW065 17/11 A2996 1040 67 1500 130/08 RMK AO2 $
94908KDBQ DBQ20120605005011606/05/12 00:50:31  5-MIN KDBQ 050650Z 13007KT 10SM SCT065 17/11 A2996 1040 67 1500 130/07 RMK AO2 SLP141 T01670106 $
94908KDBQ DBQ20120605005509906/05/12 00:55:31  5-MIN KDBQ 050655Z 15003KT 10SM BKN065 17/11 A2996 1040 67 1500 150/03 RMK AO2 $
94908KDBQ DBQ20120605010009906/05/12 01:00:31  5-MIN KDBQ 050700Z 15004KT 10SM BKN065 17/11 A2996 1040 67 1500 150/04 RMK AO2 $
94908KDBQ DBQ20120605010509906/05/12 01:05:31  5-MIN KDBQ 050705Z 15005KT 10SM BKN065 17/11 A2996 1040 67 1500 150/05 RMK AO2 $
94908KDBQ DBQ20120605011009906/05/12 01:10:31  5-MIN KDBQ 050710Z 15005KT 10SM OVC065 17/11 A2996 1040 67 1500 150/05 RMK AO2 $
94908KDBQ DBQ20120605011509906/05/12 01:15:31  5-MIN KDBQ 050715Z 16005KT 10SM OVC070 17/11 A2996 1040 67 1500 160/05 RMK AO2 $
94908KDBQ DBQ20120605012009906/05/12 01:20:31  5-MIN KDBQ 050720Z 15004KT 10SM OVC070 17/11 A2996 1040 67 1500 140/04 RMK AO2 $
94908KDBQ DBQ20120605012509906/05/12 01:25:31  5-MIN KDBQ 050725Z 15003KT 10SM OVC070 17/11 A2996 1040 67 1500 150/03 RMK AO2 $
94908KDBQ DBQ20120605013010606/05/12 01:30:31  5-MIN KDBQ 050730Z 00000KT 10SM BKN070 OVC085 17/11 A2996 1040 67 1500 000/00 RMK AO2 $
94908KDBQ DBQ20120605013510606/05/12 01:35:31  5-MIN KDBQ 050735Z 00000KT 10SM BKN070 OVC085 16/11 A2996 1040 72 1500 000/00 RMK AO2 $
94908KDBQ DBQ20120605014010606/05/12 01:40:31  5-MIN KDBQ 050740Z 20003KT 10SM BKN070 OVC090 16/11 A2996 1040 69 1500 200/03 RMK AO2 $
94908KDBQ DBQ20120605014509906/05/12 01:45:31  5-MIN KDBQ 050745Z 18003KT 10SM OVC065 16/11 A2996 1040 69 1400 180/03 RMK AO2 $
94908KDBQ DBQ20120605015012306/05/12 01:50:31  5-MIN KDBQ 050750Z 17003KT 10SM BKN070 OVC085 16/10 A2996 1040 67 1400 160/03 RMK AO2 SLP142 T01610100 $
94908KDBQ DBQ20120605015510606/05/12 01:55:31  5-MIN KDBQ 050755Z 15003KT 10SM BKN070 OVC090 17/10 A2996 1040 64 1500 150/03 RMK AO2 $
94908KDBQ DBQ20120605020010606/05/12 02:00:31  5-MIN KDBQ 050800Z 00000KT 10SM SCT070 OVC090 17/10 A2997 1040 64 1500 000/00 RMK AO2 $
94908KDBQ DBQ20120605020510606/05/12 02:05:31  5-MIN KDBQ 050805Z 18003KT 10SM BKN070 OVC090 16/10 A2997 1040 67 1400 180/03 RMK AO2 $
94908KDBQ DBQ20120605021010606/05/12 02:10:31  5-MIN KDBQ 050810Z 17003KT 10SM BKN070 OVC090 16/10 A2997 1040 67 1400 170/03 RMK AO2 $
94908KDBQ DBQ20120605021510606/05/12 02:15:31  5-MIN KDBQ 050815Z 00000KT 10SM BKN075 OVC090 16/10 A2997 1040 67 1400 000/00 RMK AO2 $
94908KDBQ DBQ20120605022010606/05/12 02:20:31  5-MIN KDBQ 050820Z 00000KT 10SM BKN075 OVC090 16/10 A2997 1030 67 1400 000/00 RMK AO2 $
94908KDBQ DBQ20120605022510606/05/12 02:25:31  5-MIN KDBQ 050825Z 00000KT 10SM BKN075 OVC090 16/11 A2997 1030 69 1400 000/00 RMK AO2 $
94908KDBQ DBQ20120605023010606/05/12 02:30:31  5-MIN KDBQ 050830Z 00000KT 10SM BKN075 OVC090 16/10 A2997 1030 67 1400 000/00 RMK AO2 $
94908KDBQ DBQ20120605023510606/05/12 02:35:31  5-MIN KDBQ 050835Z 00000KT 10SM BKN075 OVC090 17/10 A2997 1030 64 1500 000/00 RMK AO2 $
94908KDBQ DBQ20120605024010606/05/12 02:40:31  5-MIN KDBQ 050840Z 15003KT 10SM BKN075 OVC090 16/10 A2997 1030 67 1400 150/03 RMK AO2 $
94908KDBQ DBQ20120605024510606/05/12 02:45:31  5-MIN KDBQ 050845Z 00000KT 10SM BKN070 OVC090 16/10 A2997 1030 67 1400 000/00 RMK AO2 $
94908KDBQ DBQ20120605025012206/05/12 02:50:31  5-MIN KDBQ 050850Z 00000KT 10SM OVC070 17/10 A2997 1030 64 1500 000/00 RMK AO2 SLP145 T01670100 53006 $
94908KDBQ DBQ20120605025510606/05/12 02:55:31  5-MIN KDBQ 050855Z 16003KT 10SM BKN070 OVC085 17/09 A2997 1030 62 1500 160/03 RMK AO2 $
94908KDBQ DBQ20120605030010606/05/12 03:00:31  5-MIN KDBQ 050900Z 17003KT 10SM BKN070 OVC090 16/10 A2997 1030 67 1400 170/03 RMK AO2 $
94908KDBQ DBQ20120605030510606/05/12 03:05:31  5-MIN KDBQ 050905Z 00000KT 10SM BKN070 OVC080 16/10 A2997 1030 67 1400 000/00 RMK AO2 $
94908KDBQ DBQ20120605031010606/05/12 03:10:31  5-MIN KDBQ 050910Z 00000KT 10SM BKN070 OVC085 16/10 A2997 1030 67 1400 000/00 RMK AO2 $
94908KDBQ DBQ20120605031510606/05/12 03:15:31  5-MIN KDBQ 050915Z 00000KT 10SM BKN070 OVC085 16/10 A2997 1030 67 1400 000/00 RMK AO2 $
94908KDBQ DBQ20120605032010606/05/12 03:20:31  5-MIN KDBQ 050920Z 00000KT 10SM BKN070 OVC085 16/10 A2998 1030 67 1400 000/00 RMK AO2 $
94908KDBQ DBQ20120605032510606/05/12 03:25:31  5-MIN KDBQ 050925Z 00000KT 10SM BKN070 OVC085 16/10 A2998 1030 67 1400 000/00 RMK AO2 $
94908KDBQ DBQ20120605033010606/05/12 03:30:31  5-MIN KDBQ 050930Z 00000KT 10SM BKN070 OVC080 16/10 A2998 1030 67 1400 000/00 RMK AO2 $
94908KDBQ DBQ20120605033510606/05/12 03:35:31  5-MIN KDBQ 050935Z 00000KT 10SM BKN070 OVC080 16/10 A2998 1030 67 1400 000/00 RMK AO2 $
94908KDBQ DBQ20120605034010606/05/12 03:40:31  5-MIN KDBQ 050940Z 20003KT 10SM BKN065 OVC085 16/11 A2998 1030 72 1400 200/03 RMK AO2 $
94908KDBQ DBQ20120605034509906/05/12 03:45:31  5-MIN KDBQ 050945Z 21003KT 10SM OVC065 16/11 A2998 1020 72 1400 210/03 RMK AO2 $
94908KDBQ DBQ20120605035011606/05/12 03:50:31  5-MIN KDBQ 050950Z 00000KT 10SM OVC065 16/11 A2998 1020 74 1400 000/00 RMK AO2 SLP148 T01560111 $
94908KDBQ DBQ20120605035509906/05/12 03:55:31  5-MIN KDBQ 050955Z 20003KT 10SM OVC065 16/11 A2998 1020 69 1400 200/03 RMK AO2 $
94908KDBQ DBQ20120605040010606/05/12 04:00:31  5-MIN KDBQ 051000Z 21003KT 10SM BKN065 OVC080 16/11 A2999 1020 69 1400 210/03 RMK AO2 $
94908KDBQ DBQ20120605040510606/05/12 04:05:31  5-MIN KDBQ 051005Z 00000KT 10SM BKN065 OVC080 16/11 A2999 1020 74 1400 000/00 RMK AO2 $
94908KDBQ DBQ20120605041010606/05/12 04:10:31  5-MIN KDBQ 051010Z 00000KT 10SM BKN065 OVC080 16/11 A2999 1020 69 1400 000/00 RMK AO2 $
94908KDBQ DBQ20120605041511306/05/12 04:15:31  5-MIN KDBQ 051015Z 00000KT 10SM BKN065 BKN080 OVC090 16/11 A2999 1010 69 1400 000/00 RMK AO2 $
94908KDBQ DBQ20120605042010606/05/12 04:20:31  5-MIN KDBQ 051020Z 00000KT 10SM SCT065 OVC085 16/11 A2999 1010 69 1400 000/00 RMK AO2 $
94908KDBQ DBQ20120605042510606/05/12 04:25:31  5-MIN KDBQ 051025Z 00000KT 10SM SCT065 OVC085 16/11 A3000 1010 69 1400 000/00 RMK AO2 $
94908KDBQ DBQ20120605043010606/05/12 04:30:31  5-MIN KDBQ 051030Z 00000KT 10SM BKN075 OVC090 16/11 A3000 1000 74 1300 000/00 RMK AO2 $
94908KDBQ DBQ20120605043510606/05/12 04:35:31  5-MIN KDBQ 051035Z 00000KT 10SM BKN070 OVC090 16/12 A3000 1000 77 1300 000/00 RMK AO2 $
94908KDBQ DBQ20120605044010606/05/12 04:40:31  5-MIN KDBQ 051040Z 00000KT 10SM BKN070 OVC090 16/11 A3001 1000 74 1300 000/00 RMK AO2 $
94908KDBQ DBQ20120605044510606/05/12 04:45:31  5-MIN KDBQ 051045Z 00000KT 10SM BKN065 OVC085 16/11 A3001 1000 74 1300 000/00 RMK AO2 $
94908KDBQ DBQ20120605045012306/05/12 04:50:31  5-MIN KDBQ 051050Z 00000KT 10SM BKN070 OVC085 16/11 A3001 1000 72 1400 000/00 RMK AO2 SLP157 T01610111 $
94908KDBQ DBQ20120605045510506/05/12 04:55:31  5-MIN KDBQ 051055Z 00000KT 10SM BKN070 OVC085 16/11 A3001 990 74 1300 000/00 RMK AO2 $
94908KDBQ DBQ20120605050010506/05/12 05:00:31  5-MIN KDBQ 051100Z 00000KT 10SM SCT070 OVC090 16/11 A3001 990 72 1400 000/00 RMK AO2 $
94908KDBQ DBQ20120605050510506/05/12 05:05:31  5-MIN KDBQ 051105Z 00000KT 10SM FEW065 OVC090 16/11 A3001 990 72 1400 000/00 RMK AO2 $
94908KDBQ DBQ20120605051010506/05/12 05:10:31  5-MIN KDBQ 051110Z 00000KT 10SM FEW065 OVC085 16/12 A3001 990 75 1400 000/00 RMK AO2 $
94908KDBQ DBQ20120605051509806/05/12 05:15:31  5-MIN KDBQ 051115Z 00000KT 10SM OVC085 16/12 A3001 990 75 1400 000/00 RMK AO2 $
94908KDBQ DBQ20120605052009806/05/12 05:20:31  5-MIN KDBQ 051120Z 00000KT 10SM OVC085 16/11 A3002 990 72 1400 000/00 RMK AO2 $
94908KDBQ DBQ20120612175509306/12/12 17:55:31  5-MIN KDBQ 122355Z 36007KT 10SM CLR 20/07 A3012 890 41 1700 360/07 RMK AO2
94908KDBQ DBQ20120612180009306/12/12 18:00:31  5-MIN KDBQ 130000Z 35005KT 10SM CLR 20/07 A3012 890 41 1700 350/05 RMK AO2
94908KDBQ DBQ20120612180509306/12/12 18:05:31  5-MIN KDBQ 130005Z 35007KT 10SM CLR 20/07 A3013 890 41 1700 350/07 RMK AO2
94908KDBQ DBQ20120612181009306/12/12 18:10:31  5-MIN KDBQ 130010Z 34007KT 10SM CLR 20/07 A3013 890 41 1700 340/07 RMK AO2
94908KDBQ DBQ20120612181509306/12/12 18:15:31  5-MIN KDBQ 130015Z 35006KT 10SM CLR 19/07 A3013 890 44 1700 350/06 RMK AO2
94908KDBQ DBQ20120612182009306/12/12 18:20:31  5-MIN KDBQ 130020Z 36004KT 10SM CLR 19/07 A3013 890 44 1700 360/04 RMK AO2
94908KDBQ DBQ20120612182509306/12/12 18:25:31  5-MIN KDBQ 130025Z 35005KT 10SM CLR 19/08 A3013 890 46 1600 350/05 RMK AO2
94908KDBQ DBQ20120612183009306/12/12 18:30:31  5-MIN KDBQ 130030Z 35004KT 10SM CLR 19/08 A3013 890 46 1600 350/04 RMK AO2
94908KDBQ DBQ20120612183509306/12/12 18:35:31  5-MIN KDBQ 130035Z 36005KT 10SM CLR 19/08 A3013 890 48 1600 360/05 RMK AO2
94908KDBQ DBQ20120612184009306/12/12 18:40:31  5-MIN KDBQ 130040Z 01006KT 10SM CLR 19/07 A3012 890 46 1600 010/06 RMK AO2
94908KDBQ DBQ20120612184509306/12/12 18:45:31  5-MIN KDBQ 130045Z 01005KT 10SM CLR 18/07 A3013 890 48 1500 360/05 RMK AO2
94908KDBQ DBQ20120612185011006/12/12 18:50:31  5-MIN KDBQ 130050Z 36006KT 10SM CLR 18/07 A3013 890 48 1500 360/06 RMK AO2 SLP202 T01830072
94908KDBQ DBQ20120612185509806/12/12 18:55:31  5-MIN KDBQ 130055Z AUTO 36005KT 10SM CLR 18/07 A3013 890 49 1500 360/05 RMK AO2
94908KDBQ DBQ20120612190009806/12/12 19:00:31  5-MIN KDBQ 130100Z AUTO 36006KT 10SM CLR 17/08 A3012 890 53 1400 350/06 RMK AO2
94908KDBQ DBQ20120612190509806/12/12 19:05:31  5-MIN KDBQ 130105Z AUTO 36004KT 10SM CLR 17/07 A3012 890 53 1300 360/04 RMK AO2
94908KDBQ DBQ20120612191009806/12/12 19:10:31  5-MIN KDBQ 130110Z AUTO 36005KT 10SM CLR 17/08 A3012 890 55 1300 360/05 RMK AO2
94908KDBQ DBQ20120612191509806/12/12 19:15:31  5-MIN KDBQ 130115Z AUTO 36003KT 10SM CLR 17/07 A3012 890 53 1300 360/03 RMK AO2
94908KDBQ DBQ20120612192009806/12/12 19:20:31  5-MIN KDBQ 130120Z AUTO 36004KT 10SM CLR 17/07 A3012 890 51 1300 360/04 RMK AO2
94908KDBQ DBQ20120612192509806/12/12 19:25:31  5-MIN KDBQ 130125Z AUTO 36004KT 10SM CLR 17/07 A3012 890 53 1300 360/04 RMK AO2
94908KDBQ DBQ20120612193009806/12/12 19:30:31  5-MIN KDBQ 130130Z AUTO 35004KT 10SM CLR 17/07 A3013 890 53 1300 350/04 RMK AO2
94908KDBQ DBQ20120612193509806/12/12 19:35:31  5-MIN KDBQ 130135Z AUTO 36004KT 10SM CLR 17/07 A3013 890 51 1300 360/04 RMK AO2
94908KDBQ DBQ20120612194009806/12/12 19:40:31  5-MIN KDBQ 130140Z AUTO 35003KT 10SM CLR 16/07 A3013 890 53 1300 350/03 RMK AO2
94908KDBQ DBQ20120612194509806/12/12 19:45:31  5-MIN KDBQ 130145Z AUTO 36003KT 10SM CLR 17/07 A3013 890 51 1300 360/03 RMK AO2
94908KDBQ DBQ20120612195011506/12/12 19:50:31  5-MIN KDBQ 130150Z AUTO 00000KT 10SM CLR 16/07 A3013 880 53 1300 000/00 RMK AO2 SLP203 T01610067
94908KDBQ DBQ20120612195509806/12/12 19:55:31  5-MIN KDBQ 130155Z AUTO 00000KT 10SM CLR 16/07 A3013 880 57 1200 000/00 RMK AO2
94908KDBQ DBQ20120612200009806/12/12 20:00:31  5-MIN KDBQ 130200Z AUTO 00000KT 10SM CLR 16/07 A3014 880 53 1300 000/00 RMK AO2
94908KDBQ DBQ20120612200509806/12/12 20:05:31  5-MIN KDBQ 130205Z AUTO 00000KT 10SM CLR 16/07 A3013 880 55 1300 000/00 RMK AO2
94908KDBQ DBQ20120612201009806/12/12 20:10:31  5-MIN KDBQ 130210Z AUTO 00000KT 10SM CLR 16/09 A3013 880 64 1200 000/00 RMK AO2
94908KDBQ DBQ20120612201509806/12/12 20:15:31  5-MIN KDBQ 130215Z AUTO 00000KT 10SM CLR 16/09 A3014 880 64 1200 000/00 RMK AO2
94908KDBQ DBQ20120612202009806/12/12 20:20:31  5-MIN KDBQ 130220Z AUTO 10003KT 10SM CLR 15/09 A3014 880 69 1100 100/03 RMK AO2
94908KDBQ DBQ20120612202509806/12/12 20:25:31  5-MIN KDBQ 130225Z AUTO 00000KT 10SM CLR 16/09 A3014 870 64 1200 000/00 RMK AO2
94908KDBQ DBQ20120612203009806/12/12 20:30:31  5-MIN KDBQ 130230Z AUTO 00000KT 10SM CLR 16/08 A3014 880 59 1200 000/00 RMK AO2
94908KDBQ DBQ20120612203509806/12/12 20:35:31  5-MIN KDBQ 130235Z AUTO 07003KT 10SM CLR 16/08 A3014 870 62 1200 070/03 RMK AO2
94908KDBQ DBQ20120612204009806/12/12 20:40:31  5-MIN KDBQ 130240Z AUTO 07003KT 10SM CLR 14/09 A3015 870 72 1000 070/03 RMK AO2
94908KDBQ DBQ20120612204509806/12/12 20:45:31  5-MIN KDBQ 130245Z AUTO 07003KT 10SM CLR 15/08 A3015 870 64 1100 070/03 RMK AO2
94908KDBQ DBQ20120612205012106/12/12 20:50:31  5-MIN KDBQ 130250Z AUTO 07004KT 10SM CLR 16/08 A3015 870 59 1200 070/04 RMK AO2 SLP208 T01560078 58005
94908KDBQ DBQ20120612205509806/12/12 20:55:31  5-MIN KDBQ 130255Z AUTO 07004KT 10SM CLR 16/08 A3015 870 59 1200 070/04 RMK AO2
94908KDBQ DBQ20120612210009806/12/12 21:00:31  5-MIN KDBQ 130300Z AUTO 07003KT 10SM CLR 15/08 A3015 870 62 1100 070/03 RMK AO2
94908KDBQ DBQ20120612210509806/12/12 21:05:31  5-MIN KDBQ 130305Z AUTO 06003KT 10SM CLR 16/07 A3015 860 57 1200 060/03 RMK AO2
94908KDBQ DBQ20120612211009806/12/12 21:10:31  5-MIN KDBQ 130310Z AUTO 05003KT 10SM CLR 15/07 A3015 860 59 1100 050/03 RMK AO2
94908KDBQ DBQ20120612211509806/12/12 21:15:31  5-MIN KDBQ 130315Z AUTO 05003KT 10SM CLR 15/07 A3016 860 59 1100 050/03 RMK AO2
94908KDBQ DBQ20120612212009806/12/12 21:20:31  5-MIN KDBQ 130320Z AUTO 05003KT 10SM CLR 16/07 A3016 860 55 1200 050/03 RMK AO2
94908KDBQ DBQ20120612212509806/12/12 21:25:31  5-MIN KDBQ 130325Z AUTO 05004KT 10SM CLR 15/06 A3016 860 55 1100 050/04 RMK AO2
94908KDBQ DBQ20120612213009806/12/12 21:30:31  5-MIN KDBQ 130330Z AUTO 05003KT 10SM CLR 15/06 A3016 860 55 1100 050/03 RMK AO2
94908KDBQ DBQ20120612213509806/12/12 21:35:31  5-MIN KDBQ 130335Z AUTO 00000KT 10SM CLR 16/06 A3016 860 53 1200 000/00 RMK AO2
94908KDBQ DBQ20120612214009806/12/12 21:40:31  5-MIN KDBQ 130340Z AUTO 05003KT 10SM CLR 14/06 A3016 860 57 1000 050/03 RMK AO2
94908KDBQ DBQ20120612214509706/12/12 21:45:31  5-MIN KDBQ 130345Z AUTO 00000KT 10SM CLR 13/08 A3016 860 69 900 000/00 RMK AO2
94908KDBQ DBQ20120612215011406/12/12 21:50:31  5-MIN KDBQ 130350Z AUTO 00000KT 10SM CLR 13/08 A3016 860 74 800 000/00 RMK AO2 SLP213 T01280083
94908KDBQ DBQ20120612215509706/12/12 21:55:31  5-MIN KDBQ 130355Z AUTO 00000KT 10SM CLR 13/08 A3016 860 71 900 000/00 RMK AO2
94908KDBQ DBQ20120612220009706/12/12 22:00:31  5-MIN KDBQ 130400Z AUTO 00000KT 10SM CLR 13/08 A3016 860 71 900 000/00 RMK AO2
94908KDBQ DBQ20120612220509706/12/12 22:05:31  5-MIN KDBQ 130405Z AUTO 00000KT 10SM CLR 13/08 A3016 860 74 800 000/00 RMK AO2
94908KDBQ DBQ20120612221009706/12/12 22:10:31  5-MIN KDBQ 130410Z AUTO 09003KT 10SM CLR 13/08 A3016 860 74 800 080/03 RMK AO2
94908KDBQ DBQ20120612221509706/12/12 22:15:31  5-MIN KDBQ 130415Z AUTO 06004KT 10SM CLR 13/08 A3015 860 74 800 060/04 RMK AO2
94908KDBQ DBQ20120612222009806/12/12 22:20:31  5-MIN KDBQ 130420Z AUTO 05005KT 10SM CLR 14/07 A3015 860 64 1000 050/05 RMK AO2
94908KDBQ DBQ20120612222509706/12/12 22:25:31  5-MIN KDBQ 130425Z AUTO 05005KT 10SM CLR 13/07 A3015 860 66 800 050/05 RMK AO2
94908KDBQ DBQ20120612223009706/12/12 22:30:31  5-MIN KDBQ 130430Z AUTO 05004KT 10SM CLR 13/07 A3015 860 64 900 050/04 RMK AO2
94908KDBQ DBQ20120612223509806/12/12 22:35:31  5-MIN KDBQ 130435Z AUTO 06004KT 10SM CLR 14/07 A3015 870 61 1000 060/04 RMK AO2
94908KDBQ DBQ20120612224009806/12/12 22:40:31  5-MIN KDBQ 130440Z AUTO 06004KT 10SM CLR 14/07 A3015 870 59 1000 060/04 RMK AO2
94908KDBQ DBQ20120612224509806/12/12 22:45:31  5-MIN KDBQ 130445Z AUTO 06004KT 10SM CLR 14/07 A3015 870 59 1000 060/04 RMK AO2
94908KDBQ DBQ20120612225011506/12/12 22:50:31  5-MIN KDBQ 130450Z AUTO 06005KT 10SM CLR 14/07 A3015 870 61 1000 060/05 RMK AO2 SLP208 T01390067
94908KDBQ DBQ20120612225509806/12/12 22:55:31  5-MIN KDBQ 130455Z AUTO 07005KT 10SM CLR 14/07 A3014 870 61 1000 070/05 RMK AO2
94908KDBQ DBQ20120612230009806/12/12 23:00:31  5-MIN KDBQ 130500Z AUTO 06005KT 10SM CLR 14/07 A3014 870 61 1000 060/05 RMK AO2
94908KDBQ DBQ20120612230509706/12/12 23:05:31  5-MIN KDBQ 130505Z AUTO 06005KT 10SM CLR 13/07 A3015 870 64 900 060/05 RMK AO2
94908KDBQ DBQ20120612231009706/12/12 23:10:31  5-MIN KDBQ 130510Z AUTO 07004KT 10SM CLR 13/07 A3015 870 64 900 070/04 RMK AO2
94908KDBQ DBQ20120612231509806/12/12 23:15:31  5-MIN KDBQ 130515Z AUTO 07004KT 10SM CLR 14/07 A3015 870 61 1000 060/04 RMK AO2
94908KDBQ DBQ20120612232009806/12/12 23:20:31  5-MIN KDBQ 130520Z AUTO 06004KT 10SM CLR 14/07 A3015 860 61 1000 060/04 RMK AO2
94908KDBQ DBQ20120612232509806/12/12 23:25:31  5-MIN KDBQ 130525Z AUTO 07004KT 10SM CLR 14/07 A3015 870 61 1000 070/04 RMK AO2
94908KDBQ DBQ20120612233009706/12/12 23:30:31  5-MIN KDBQ 130530Z AUTO 07003KT 10SM CLR 13/07 A3016 860 66 900 060/03 RMK AO2
94908KDBQ DBQ20120612233509706/12/12 23:35:31  5-MIN KDBQ 130535Z AUTO 07003KT 10SM CLR 12/07 A3015 860 68 800 070/03 RMK AO2
94908KDBQ DBQ20120612234009706/12/12 23:40:31  5-MIN KDBQ 130540Z AUTO 06004KT 10SM CLR 12/08 A3015 870 74 800 060/04 RMK AO2
94908KDBQ DBQ20120612234509706/12/12 23:45:31  5-MIN KDBQ 130545Z AUTO 07004KT 10SM CLR 13/08 A3015 870 71 800 070/04 RMK AO2
94908KDBQ DBQ20120612235014206/12/12 23:50:31  5-MIN KDBQ 130550Z AUTO 07004KT 10SM CLR 13/07 A3015 870 69 800 070/04 RMK AO2 SLP210 T01280072 10200 20122 402110111 53008
94908KDBQ DBQ20120612235509706/12/12 23:55:31  5-MIN KDBQ 130555Z AUTO 07005KT 10SM CLR 13/07 A3015 870 69 800 070/05 RMK AO2
94908KDBQ DBQ20120613000009706/13/12 00:00:38  5-MIN KDBQ 130600Z AUTO 06005KT 10SM CLR 13/07 A3015 870 66 900 060/05 RMK AO2
94908KDBQ DBQ20120613000509706/13/12 00:05:31  5-MIN KDBQ 130605Z AUTO 06005KT 10SM CLR 13/07 A3015 870 66 800 060/05 RMK AO2
94908KDBQ DBQ20120613001009706/13/12 00:10:31  5-MIN KDBQ 130610Z AUTO 07005KT 10SM CLR 13/07 A3015 860 66 900 070/05 RMK AO2
94908KDBQ DBQ20120613001509706/13/12 00:15:33  5-MIN KDBQ 130615Z AUTO 06004KT 10SM CLR 13/07 A3016 860 66 900 060/04 RMK AO2
94908KDBQ DBQ20120613002009706/13/12 00:20:31  5-MIN KDBQ 130620Z AUTO 06004KT 10SM CLR 13/07 A3016 860 66 800 060/04 RMK AO2
94908KDBQ DBQ20120613002509706/13/12 00:25:31  5-MIN KDBQ 130625Z AUTO 07004KT 10SM CLR 13/07 A3015 860 64 900 070/04 RMK AO2
94908KDBQ DBQ20120613003009706/13/12 00:30:31  5-MIN KDBQ 130630Z AUTO 07005KT 10SM CLR 13/07 A3015 860 66 900 060/05 RMK AO2
94908KDBQ DBQ20120613003509706/13/12 00:35:31  5-MIN KDBQ 130635Z AUTO 07004KT 10SM CLR 13/07 A3016 860 66 900 070/04 RMK AO2
94908KDBQ DBQ20120613004009706/13/12 00:40:31  5-MIN KDBQ 130640Z AUTO 07003KT 10SM CLR 13/07 A3016 860 69 800 070/03 RMK AO2
94908KDBQ DBQ20120613004509706/13/12 00:45:31  5-MIN KDBQ 130645Z AUTO 00000KT 10SM CLR 12/07 A3016 860 74 700 000/00 RMK AO2
94908KDBQ DBQ20120613005011406/13/12 00:50:31  5-MIN KDBQ 130650Z AUTO 00000KT 10SM CLR 12/07 A3016 860 71 800 000/00 RMK AO2 SLP213 T01220072
94908KDBQ DBQ20120613005509706/13/12 00:55:31  5-MIN KDBQ 130655Z AUTO 00000KT 10SM CLR 12/07 A3017 850 71 800 000/00 RMK AO2
94908KDBQ DBQ20120613010009706/13/12 01:00:31  5-MIN KDBQ 130700Z AUTO 00000KT 10SM CLR 12/07 A3017 850 74 700 000/00 RMK AO2
94908KDBQ DBQ20120613010509706/13/12 01:05:31  5-MIN KDBQ 130705Z AUTO 00000KT 10SM CLR 12/07 A3016 850 74 700 000/00 RMK AO2
94908KDBQ DBQ20120613011009706/13/12 01:10:31  5-MIN KDBQ 130710Z AUTO 00000KT 10SM CLR 11/07 A3016 860 77 600 000/00 RMK AO2
94908KDBQ DBQ20120613011509706/13/12 01:15:31  5-MIN KDBQ 130715Z AUTO 00000KT 10SM CLR 11/07 A3016 860 80 600 000/00 RMK AO2
94908KDBQ DBQ20120613012009706/13/12 01:20:31  5-MIN KDBQ 130720Z AUTO 00000KT 10SM CLR 11/07 A3016 850 77 600 000/00 RMK AO2
94908KDBQ DBQ20120613012509706/13/12 01:25:31  5-MIN KDBQ 130725Z AUTO 00000KT 10SM CLR 11/07 A3017 850 77 600 000/00 RMK AO2
94908KDBQ DBQ20120613013009706/13/12 01:30:31  5-MIN KDBQ 130730Z AUTO 00000KT 10SM CLR 12/07 A3017 850 74 700 000/00 RMK AO2
94908KDBQ DBQ20120613013509706/13/12 01:35:31  5-MIN KDBQ 130735Z AUTO 11003KT 10SM CLR 11/07 A3016 850 77 600 110/03 RMK AO2
94908KDBQ DBQ20120613014009706/13/12 01:40:31  5-MIN KDBQ 130740Z AUTO 10003KT 10SM CLR 11/07 A3016 860 77 600 100/03 RMK AO2
94908KDBQ DBQ20120613014509706/13/12 01:45:31  5-MIN KDBQ 130745Z AUTO 11003KT 10SM CLR 12/07 A3017 850 74 700 110/03 RMK AO2
94908KDBQ DBQ20120613015011406/13/12 01:50:31  5-MIN KDBQ 130750Z AUTO 11003KT 10SM CLR 11/07 A3017 850 77 600 110/03 RMK AO2 SLP215 T01110072
94908KDBQ DBQ20120613015509706/13/12 01:55:31  5-MIN KDBQ 130755Z AUTO 11003KT 10SM CLR 12/07 A3016 850 74 700 110/03 RMK AO2
94908KDBQ DBQ20120613020009706/13/12 02:00:31  5-MIN KDBQ 130800Z AUTO 11005KT 10SM CLR 12/07 A3016 860 71 800 100/05 RMK AO2
94908KDBQ DBQ20120613020509706/13/12 02:05:31  5-MIN KDBQ 130805Z AUTO 10004KT 10SM CLR 12/07 A3016 850 71 800 100/04 RMK AO2
94908KDBQ DBQ20120613021009706/13/12 02:10:31  5-MIN KDBQ 130810Z AUTO 10003KT 10SM CLR 12/07 A3017 850 74 700 100/03 RMK AO2
94908KDBQ DBQ20120613021509706/13/12 02:15:31  5-MIN KDBQ 130815Z AUTO 11003KT 10SM CLR 11/07 A3017 850 77 600 110/03 RMK AO2
94908KDBQ DBQ20120613022009706/13/12 02:20:31  5-MIN KDBQ 130820Z AUTO 11004KT 10SM CLR 11/07 A3017 850 80 600 110/04 RMK AO2
94908KDBQ DBQ20120613022509706/13/12 02:25:31  5-MIN KDBQ 130825Z AUTO 11003KT 10SM CLR 12/07 A3017 850 74 700 110/03 RMK AO2
94908KDBQ DBQ20120613023009706/13/12 02:30:31  5-MIN KDBQ 130830Z AUTO 00000KT 10SM CLR 12/07 A3017 850 74 700 000/00 RMK AO2
94908KDBQ DBQ20120613023509706/13/12 02:35:31  5-MIN KDBQ 130835Z AUTO 10003KT 10SM CLR 12/07 A3017 850 74 700 100/03 RMK AO2
94908KDBQ DBQ20120613024009706/13/12 02:40:31  5-MIN KDBQ 130840Z AUTO 00000KT 10SM CLR 12/07 A3017 840 71 800 000/00 RMK AO2
94908KDBQ DBQ20120613024509706/13/12 02:45:31  5-MIN KDBQ 130845Z AUTO 14003KT 10SM CLR 12/07 A3018 840 74 700 140/03 RMK AO2
94908KDBQ DBQ20120613025012006/13/12 02:50:31  5-MIN KDBQ 130850Z AUTO 12003KT 10SM CLR 12/07 A3018 840 68 800 120/03 RMK AO2 SLP218 T01220067 50000
94908KDBQ DBQ20120613025509706/13/12 02:55:31  5-MIN KDBQ 130855Z AUTO 00000KT 10SM CLR 12/07 A3017 850 74 700 000/00 RMK AO2
94908KDBQ DBQ20120613030009706/13/12 03:00:31  5-MIN KDBQ 130900Z AUTO 00000KT 10SM CLR 12/07 A3017 850 68 800 000/00 RMK AO2
94908KDBQ DBQ20120613030509706/13/12 03:05:31  5-MIN KDBQ 130905Z AUTO 00000KT 10SM CLR 12/07 A3017 850 68 800 000/00 RMK AO2
94908KDBQ DBQ20120613031009706/13/12 03:10:31  5-MIN KDBQ 130910Z AUTO 00000KT 10SM CLR 12/07 A3017 850 68 800 000/00 RMK AO2
94908KDBQ DBQ20120613031509706/13/12 03:15:31  5-MIN KDBQ 130915Z AUTO 00000KT 10SM CLR 12/07 A3017 850 71 700 000/00 RMK AO2
94908KDBQ DBQ20120613032009706/13/12 03:20:31  5-MIN KDBQ 130920Z AUTO 00000KT 10SM CLR 11/07 A3017 850 74 600 000/00 RMK AO2
94908KDBQ DBQ20120613032509706/13/12 03:25:31  5-MIN KDBQ 130925Z AUTO 00000KT 10SM CLR 11/07 A3017 850 74 600 000/00 RMK AO2
94908KDBQ DBQ20120613033009706/13/12 03:30:31  5-MIN KDBQ 130930Z AUTO 00000KT 10SM CLR 11/06 A3017 840 74 600 000/00 RMK AO2
94908KDBQ DBQ20120613033509706/13/12 03:35:31  5-MIN KDBQ 130935Z AUTO 00000KT 10SM CLR 09/06 A3017 840 79 400 000/00 RMK AO2
94908KDBQ DBQ20120613034009706/13/12 03:40:31  5-MIN KDBQ 130940Z AUTO 00000KT 10SM CLR 10/06 A3018 840 77 500 000/00 RMK AO2
94908KDBQ DBQ20120613034509706/13/12 03:45:31  5-MIN KDBQ 130945Z AUTO 00000KT 10SM CLR 11/07 A3018 840 77 600 000/00 RMK AO2
94908KDBQ DBQ20120613035011406/13/12 03:50:31  5-MIN KDBQ 130950Z AUTO 00000KT 10SM CLR 11/06 A3017 840 74 600 000/00 RMK AO2 SLP217 T01060061
94908KDBQ DBQ20120613035509706/13/12 03:55:31  5-MIN KDBQ 130955Z AUTO 00000KT 10SM CLR 10/06 A3017 850 77 500 000/00 RMK AO2
94908KDBQ DBQ20120613040009706/13/12 04:00:31  5-MIN KDBQ 131000Z AUTO 00000KT 10SM CLR 11/07 A3017 850 77 600 000/00 RMK AO2
94908KDBQ DBQ20120613040509706/13/12 04:05:31  5-MIN KDBQ 131005Z AUTO 00000KT 10SM CLR 11/07 A3017 850 74 600 000/00 RMK AO2
94908KDBQ DBQ20120613041009706/13/12 04:10:31  5-MIN KDBQ 131010Z AUTO 00000KT 10SM CLR 11/06 A3017 850 74 600 000/00 RMK AO2
94908KDBQ DBQ20120613041509706/13/12 04:15:31  5-MIN KDBQ 131015Z AUTO 00000KT 10SM CLR 11/06 A3017 850 71 600 000/00 RMK AO2
94908KDBQ DBQ20120613042009706/13/12 04:20:31  5-MIN KDBQ 131020Z AUTO 00000KT 10SM CLR 11/07 A3017 850 77 600 000/00 RMK AO2
94908KDBQ DBQ20120613042509706/13/12 04:25:31  5-MIN KDBQ 131025Z AUTO 00000KT 10SM CLR 11/07 A3017 850 77 600 000/00 RMK AO2
94908KDBQ DBQ20120613043009706/13/12 04:30:31  5-MIN KDBQ 131030Z AUTO 00000KT 10SM CLR 11/06 A3017 850 74 600 000/00 RMK AO2
94908KDBQ DBQ20120613043509706/13/12 04:35:31  5-MIN KDBQ 131035Z AUTO 00000KT 10SM CLR 11/07 A3017 850 74 600 000/00 RMK AO2
94908KDBQ DBQ20120613044009706/13/12 04:40:31  5-MIN KDBQ 131040Z AUTO 09003KT 10SM CLR 11/07 A3017 850 74 600 090/03 RMK AO2
94908KDBQ DBQ20120613044509706/13/12 04:45:31  5-MIN KDBQ 131045Z AUTO 09003KT 10SM CLR 11/07 A3017 850 74 600 090/03 RMK AO2
94908KDBQ DBQ20120613045011406/13/12 04:50:31  5-MIN KDBQ 131050Z AUTO 09003KT 10SM CLR 12/07 A3017 850 71 700 090/03 RMK AO2 SLP215 T01170067
94908KDBQ DBQ20120613045509206/13/12 04:55:31  5-MIN KDBQ 131055Z 00000KT 10SM CLR 12/07 A3017 850 71 700 000/00 RMK AO2
94908KDBQ DBQ20120613050009206/13/12 05:00:31  5-MIN KDBQ 131100Z 00000KT 10SM CLR 12/07 A3017 840 71 700 000/00 RMK AO2
94908KDBQ DBQ20120613050509206/13/12 05:05:31  5-MIN KDBQ 131105Z 00000KT 10SM CLR 12/07 A3018 840 74 700 000/00 RMK AO2
94908KDBQ DBQ20120613051009206/13/12 05:10:31  5-MIN KDBQ 131110Z 00000KT 10SM CLR 12/07 A3017 840 71 700 000/00 RMK AO2
94908KDBQ DBQ20120613051509206/13/12 05:15:31  5-MIN KDBQ 131115Z 00000KT 10SM CLR 11/07 A3018 840 77 600 000/00 RMK AO2
94908KDBQ DBQ20120613052009206/13/12 05:20:31  5-MIN KDBQ 131120Z 00000KT 10SM CLR 12/07 A3018 840 74 700 000/00 RMK AO2
94908KDBQ DBQ20120613052509206/13/12 05:25:31  5-MIN KDBQ 131125Z 00000KT 10SM CLR 11/08 A3018 830 80 600 000/00 RMK AO2
94908KDBQ DBQ20120613053009206/13/12 05:30:31  5-MIN KDBQ 131130Z 00000KT 10SM CLR 12/07 A3019 830 74 700 000/00 RMK AO2
94908KDBQ DBQ20120613053509206/13/12 05:35:31  5-MIN KDBQ 131135Z 00000KT 10SM CLR 12/08 A3019 830 74 700 000/00 RMK AO2
94908KDBQ DBQ20120613054009206/13/12 05:40:31  5-MIN KDBQ 131140Z 00000KT 10SM CLR 13/08 A3019 830 69 900 000/00 RMK AO2
94908KDBQ DBQ20120613054509206/13/12 05:45:31  5-MIN KDBQ 131145Z 00000KT 10SM CLR 13/09 A3019 830 77 800 000/00 RMK AO2
94908KDBQ DBQ20120613055012706/13/12 05:50:31  5-MIN KDBQ 131150Z 00000KT 10SM CLR 13/09 A3019 830 74 900 000/00 RMK AO2 SLP222 T01330089 10133 20094 51007
94908KDBQ DBQ20120613055509206/13/12 05:55:31  5-MIN KDBQ 131155Z 00000KT 10SM CLR 13/08 A3019 830 71 900 000/00 RMK AO2
94908KDBQ DBQ20120613060009206/13/12 06:00:31  5-MIN KDBQ 131200Z 00000KT 10SM CLR 14/09 A3019 830 71 900 000/00 RMK AO2
94908KDBQ DBQ20120613060509306/13/12 06:05:31  5-MIN KDBQ 131205Z 00000KT 10SM CLR 14/09 A3019 830 69 1000 000/00 RMK AO2
94908KDBQ DBQ20120613061009306/13/12 06:10:31  5-MIN KDBQ 131210Z 14004KT 10SM CLR 14/09 A3019 830 69 1000 140/04 RMK AO2
94908KDBQ DBQ20120613061509306/13/12 06:15:31  5-MIN KDBQ 131215Z 14005KT 10SM CLR 15/08 A3019 830 64 1100 140/05 RMK AO2
94908KDBQ DBQ20120613062009306/13/12 06:20:31  5-MIN KDBQ 131220Z 15005KT 10SM CLR 15/09 A3019 830 66 1100 150/05 RMK AO2
94908KDBQ DBQ20120613062509306/13/12 06:25:31  5-MIN KDBQ 131225Z 15005KT 10SM CLR 16/09 A3019 830 64 1100 150/05 RMK AO2
94908KDBQ DBQ20120613063009306/13/12 06:30:31  5-MIN KDBQ 131230Z 14006KT 10SM CLR 16/09 A3019 830 64 1100 140/06 RMK AO2
94908KDBQ DBQ20120613063509306/13/12 06:35:31  5-MIN KDBQ 131235Z 15006KT 10SM CLR 16/09 A3018 830 64 1100 150/06 RMK AO2
94908KDBQ DBQ20120613064009306/13/12 06:40:31  5-MIN KDBQ 131240Z 16007KT 10SM CLR 16/09 A3019 830 64 1100 160/07 RMK AO2
94908KDBQ DBQ20120613064509306/13/12 06:45:31  5-MIN KDBQ 131245Z 15007KT 10SM CLR 16/09 A3019 830 62 1200 150/07 RMK AO2
94908KDBQ DBQ20120613065011006/13/12 06:50:31  5-MIN KDBQ 131250Z 15007KT 10SM CLR 16/09 A3019 830 64 1200 150/07 RMK AO2 SLP222 T01610094
94908KDBQ DBQ20120613065509306/13/12 06:55:31  5-MIN KDBQ 131255Z 16007KT 10SM CLR 16/09 A3019 830 64 1200 160/07 RMK AO2
94908KDBQ DBQ20120613070009306/13/12 07:00:31  5-MIN KDBQ 131300Z 17008KT 10SM CLR 16/09 A3020 820 64 1200 170/08 RMK AO2
94908KDBQ DBQ20120613070509306/13/12 07:05:31  5-MIN KDBQ 131305Z 17007KT 10SM CLR 17/09 A3020 820 62 1200 170/07 RMK AO2
94908KDBQ DBQ20120613071009306/13/12 07:10:31  5-MIN KDBQ 131310Z 17009KT 10SM CLR 17/10 A3020 820 64 1200 170/09 RMK AO2
94908KDBQ DBQ20120613071509306/13/12 07:15:31  5-MIN KDBQ 131315Z 17009KT 10SM CLR 17/09 A3020 820 62 1200 170/09 RMK AO2
94908KDBQ DBQ20120613072009306/13/12 07:20:31  5-MIN KDBQ 131320Z 18008KT 10SM CLR 17/10 A3020 820 64 1300 180/08 RMK AO2
94908KDBQ DBQ20120613072509306/13/12 07:25:31  5-MIN KDBQ 131325Z 17008KT 10SM CLR 17/10 A3020 820 64 1300 170/08 RMK AO2
94908KDBQ DBQ20120613073009306/13/12 07:30:31  5-MIN KDBQ 131330Z 17007KT 10SM CLR 17/10 A3019 830 64 1300 170/07 RMK AO2
94908KDBQ DBQ20120613073509306/13/12 07:35:31  5-MIN KDBQ 131335Z 17009KT 10SM CLR 16/09 A3019 830 64 1200 170/09 RMK AO2
94908KDBQ DBQ20120613074009306/13/12 07:40:31  5-MIN KDBQ 131340Z 17008KT 10SM CLR 16/09 A3019 830 64 1200 170/08 RMK AO2
94908KDBQ DBQ20120613074509306/13/12 07:45:31  5-MIN KDBQ 131345Z 17009KT 10SM CLR 17/10 A3019 830 64 1300 170/09 RMK AO2
94908KDBQ DBQ20120613075011006/13/12 07:50:31  5-MIN KDBQ 131350Z 18007KT 10SM CLR 17/10 A3019 830 64 1300 180/07 RMK AO2 SLP222 T01670100
94908KDBQ DBQ20120613075509306/13/12 07:55:31  5-MIN KDBQ 131355Z 18008KT 10SM CLR 17/11 A3019 830 64 1300 180/08 RMK AO2
94908KDBQ DBQ20120613080009306/13/12 08:00:31  5-MIN KDBQ 131400Z 18008KT 10SM CLR 17/10 A3019 830 62 1300 180/08 RMK AO2
94908KDBQ DBQ20120613080509306/13/12 08:05:31  5-MIN KDBQ 131405Z 16008KT 10SM CLR 18/11 A3019 830 62 1400 160/08 RMK AO2
94908KDBQ DBQ20120613081009306/13/12 08:10:31  5-MIN KDBQ 131410Z 17008KT 10SM CLR 18/10 A3018 840 60 1400 160/08 RMK AO2
94908KDBQ DBQ20120613081509306/13/12 08:15:31  5-MIN KDBQ 131415Z 17008KT 10SM CLR 18/11 A3018 830 60 1500 170/08 RMK AO2
94908KDBQ DBQ20120613082009306/13/12 08:20:31  5-MIN KDBQ 131420Z 16011KT 10SM CLR 18/10 A3018 840 58 1500 150/11 RMK AO2
94908KDBQ DBQ20120613082509306/13/12 08:25:31  5-MIN KDBQ 131425Z 17008KT 10SM CLR 18/10 A3018 840 58 1500 160/08 RMK AO2
94908KDBQ DBQ20120613083009306/13/12 08:30:31  5-MIN KDBQ 131430Z 17009KT 10SM CLR 18/10 A3018 840 58 1500 170/09 RMK AO2
94908KDBQ DBQ20120613083509306/13/12 08:35:31  5-MIN KDBQ 131435Z 17010KT 10SM CLR 18/10 A3018 840 58 1500 170/10 RMK AO2
94908KDBQ DBQ20120613084009306/13/12 08:40:31  5-MIN KDBQ 131440Z 16010KT 10SM CLR 18/09 A3018 840 56 1500 160/10 RMK AO2
94908KDBQ DBQ20120613084509606/13/12 08:45:31  5-MIN KDBQ 131445Z 16010KT 10SM FEW120 18/09 A3017 840 56 1500 160/10 RMK AO2
94908KDBQ DBQ20120613085011906/13/12 08:50:31  5-MIN KDBQ 131450Z 17011KT 10SM SCT120 18/09 A3017 840 58 1400 160/11 RMK AO2 SLP216 T01780094 53005
94908KDBQ DBQ20120613085509606/13/12 08:55:31  5-MIN KDBQ 131455Z 16009KT 10SM FEW120 19/10 A3018 840 56 1500 160/09 RMK AO2
94908KDBQ DBQ20120613090009606/13/12 09:00:31  5-MIN KDBQ 131500Z 16009KT 10SM FEW120 18/09 A3018 840 56 1500 160/09 RMK AO2
94908KDBQ DBQ20120613090509606/13/12 09:05:31  5-MIN KDBQ 131505Z 18009KT 10SM FEW120 18/10 A3018 840 58 1500 180/09 RMK AO2
94908KDBQ DBQ20120613091009606/13/12 09:10:31  5-MIN KDBQ 131510Z 18009KT 10SM FEW120 18/10 A3018 840 58 1500 180/09 RMK AO2
94908KDBQ DBQ20120613091509306/13/12 09:15:31  5-MIN KDBQ 131515Z 18009KT 10SM CLR 18/10 A3018 840 58 1500 180/09 RMK AO2
94908KDBQ DBQ20120613092009306/13/12 09:20:31  5-MIN KDBQ 131520Z 18009KT 10SM CLR 19/10 A3018 840 56 1500 170/09 RMK AO2
94908KDBQ DBQ20120613092509306/13/12 09:25:31  5-MIN KDBQ 131525Z 17010KT 10SM CLR 19/10 A3019 830 56 1500 170/10 RMK AO2
94908KDBQ DBQ20120613093009906/13/12 09:30:31  5-MIN KDBQ 131530Z 17011G16KT 10SM CLR 19/11 A3018 830 58 1500 170/11G16 RMK AO2
94908KDBQ DBQ20120613093509306/13/12 09:35:31  5-MIN KDBQ 131535Z 18011KT 10SM CLR 19/11 A3019 830 56 1600 180/11 RMK AO2
94908KDBQ DBQ20120613094009306/13/12 09:40:31  5-MIN KDBQ 131540Z 18010KT 10SM CLR 19/11 A3019 830 56 1600 180/10 RMK AO2
94908KDBQ DBQ20120613094509306/13/12 09:45:31  5-MIN KDBQ 131545Z 18011KT 10SM CLR 19/09 A3019 830 54 1500 170/11 RMK AO2
94908KDBQ DBQ20120613095011006/13/12 09:50:31  5-MIN KDBQ 131550Z 16010KT 10SM CLR 19/09 A3019 830 54 1500 160/10 RMK AO2 SLP223 T01890094
94908KDBQ DBQ20120613095509906/13/12 09:55:31  5-MIN KDBQ 131555Z 16013G16KT 10SM CLR 19/09 A3019 830 52 1600 160/13G16 RMK AO2
94908KDBQ DBQ20120613100009306/13/12 10:00:31  5-MIN KDBQ 131600Z 17009KT 10SM CLR 19/09 A3019 830 50 1600 160/09 RMK AO2
94908KDBQ DBQ20120613100509306/13/12 10:05:31  5-MIN KDBQ 131605Z 17009KT 10SM CLR 20/09 A3019 830 50 1600 170/09 RMK AO2
94908KDBQ DBQ20120613101009306/13/12 10:10:31  5-MIN KDBQ 131610Z 18008KT 10SM CLR 20/10 A3019 830 52 1600 180/08 RMK AO2
94908KDBQ DBQ20120613101509306/13/12 10:15:31  5-MIN KDBQ 131615Z 17011KT 10SM CLR 20/10 A3019 830 52 1600 160/11 RMK AO2
94908KDBQ DBQ20120613102009906/13/12 10:20:31  5-MIN KDBQ 131620Z 15007G14KT 10SM CLR 20/09 A3019 830 50 1600 140/07G14 RMK AO2
94908KDBQ DBQ20120613102509906/13/12 10:25:31  5-MIN KDBQ 131625Z 17010G14KT 10SM CLR 20/09 A3019 830 50 1600 160/10G14 RMK AO2
94908KDBQ DBQ20120613103009306/13/12 10:30:31  5-MIN KDBQ 131630Z 19009KT 10SM CLR 21/09 A3019 830 46 1700 190/09 RMK AO2
94908KDBQ DBQ20120613103509306/13/12 10:35:31  5-MIN KDBQ 131635Z 17006KT 10SM CLR 20/09 A3019 830 50 1600 170/06 RMK AO2
94908KDBQ DBQ20120613104009306/13/12 10:40:31  5-MIN KDBQ 131640Z 16009KT 10SM CLR 21/09 A3019 830 48 1700 160/09 RMK AO2
94908KDBQ DBQ20120613104509906/13/12 10:45:31  5-MIN KDBQ 131645Z 18011G15KT 10SM CLR 21/10 A3019 830 50 1700 180/11G15 RMK AO2
94908KDBQ DBQ20120613105011006/13/12 10:50:31  5-MIN KDBQ 131650Z 20008KT 10SM CLR 21/10 A3019 830 50 1700 200/08 RMK AO2 SLP223 T02060100
94908KDBQ DBQ20120613105509906/13/12 10:55:31  5-MIN KDBQ 131655Z 17010G15KT 10SM CLR 20/09 A3019 830 50 1600 170/10G15 RMK AO2
94908KDBQ DBQ20120613110009906/13/12 11:00:31  5-MIN KDBQ 131700Z 19009G16KT 10SM CLR 21/09 A3019 830 48 1700 190/09G16 RMK AO2
94908KDBQ DBQ20120613110509906/13/12 11:05:31  5-MIN KDBQ 131705Z 16009G16KT 10SM CLR 21/09 A3020 820 48 1700 160/09G16 RMK AO2
94908KDBQ DBQ20120613112009306/13/12 11:20:31  5-MIN KDBQ 131720Z 18009KT 10SM CLR 21/08 A3019 830 43 1800 180/09 RMK AO2
94908KDBQ DBQ20120613112509306/13/12 11:25:31  5-MIN KDBQ 131725Z 15009KT 10SM CLR 22/09 A3019 830 45 1800 150/09 RMK AO2
94908KDBQ DBQ20120613113009306/13/12 11:30:31  5-MIN KDBQ 131730Z 18006KT 10SM CLR 22/10 A3019 830 45 1900 180/06 RMK AO2
94908KDBQ DBQ20120613113509306/13/12 11:35:31  5-MIN KDBQ 131735Z 13007KT 10SM CLR 21/08 A3019 830 43 1800 130/07 RMK AO2
94908KDBQ DBQ20120613114010906/13/12 11:40:31  5-MIN KDBQ 131740Z 17007KT 140V210 10SM CLR 21/09 A3019 830 45 1800 170/07 140V210 RMK AO2
94908KDBQ DBQ20120613114509306/13/12 11:45:31  5-MIN KDBQ 131745Z 17008KT 10SM CLR 21/09 A3019 830 47 1800 170/08 RMK AO2
94908KDBQ DBQ20120613115012806/13/12 11:50:31  5-MIN KDBQ 131750Z 18008KT 10SM CLR 21/09 A3019 830 45 1800 180/08 RMK AO2 SLP221 T02110089 10222 20133 58004
94908KDBQ DBQ20120613115509306/13/12 11:55:31  5-MIN KDBQ 131755Z 18006KT 10SM CLR 21/09 A3018 840 47 1800 170/06 RMK AO2
94908KDBQ DBQ20120613120009906/13/12 12:00:31  5-MIN KDBQ 131800Z 17009G15KT 10SM CLR 22/09 A3018 840 45 1800 170/09G15 RMK AO2
94908KDBQ DBQ20120613120509906/13/12 12:05:31  5-MIN KDBQ 131805Z 17008G15KT 10SM CLR 21/09 A3018 840 45 1800 170/08G15 RMK AO2
94908KDBQ DBQ20120613121009306/13/12 12:10:31  5-MIN KDBQ 131810Z 16009KT 10SM CLR 21/08 A3018 840 43 1800 160/09 RMK AO2
94908KDBQ DBQ20120613121509306/13/12 12:15:31  5-MIN KDBQ 131815Z 16008KT 10SM CLR 22/09 A3018 840 43 1900 160/08 RMK AO2
94908KDBQ DBQ20120613122009606/13/12 12:20:31  5-MIN KDBQ 131820Z 19010KT 10SM FEW120 21/09 A3017 840 45 1800 180/10 RMK AO2
94908KDBQ DBQ20120613122509606/13/12 12:25:31  5-MIN KDBQ 131825Z 19007KT 10SM SCT120 21/09 A3017 850 45 1800 190/07 RMK AO2
94908KDBQ DBQ20120613123009606/13/12 12:30:31  5-MIN KDBQ 131830Z 15009KT 10SM BKN120 21/08 A3017 850 42 1800 150/09 RMK AO2
94908KDBQ DBQ20120613123509606/13/12 12:35:31  5-MIN KDBQ 131835Z 15005KT 10SM BKN120 21/08 A3016 850 43 1800 150/05 RMK AO2
94908KDBQ DBQ20120613124010306/13/12 12:40:31  5-MIN KDBQ 131840Z 13006KT 10SM FEW003 SCT120 21/08 A3016 850 43 1800 120/06 RMK AO2
94908KDBQ DBQ20120613124510306/13/12 12:45:31  5-MIN KDBQ 131845Z 12007KT 10SM FEW005 SCT120 22/08 A3016 860 42 1900 120/07 RMK AO2
94908KDBQ DBQ20120613125012606/13/12 12:50:31  5-MIN KDBQ 131850Z 17008G15KT 10SM FEW007 SCT120 21/08 A3016 850 42 1800 170/08G15 RMK AO2 SLP213 T02110078
94908KDBQ DBQ20120613125510206/13/12 12:55:31  5-MIN KDBQ 131855Z 17009G15KT 10SM FEW120 21/08 A3016 860 42 1800 170/09G15 RMK AO2
94908KDBQ DBQ20120613130009606/13/12 13:00:31  5-MIN KDBQ 131900Z 16006KT 10SM FEW120 21/08 A3016 860 43 1800 160/06 RMK AO2
94908KDBQ DBQ20120613130509306/13/12 13:05:31  5-MIN KDBQ 131905Z 17007KT 10SM CLR 21/08 A3015 860 43 1800 170/07 RMK AO2
94908KDBQ DBQ20120613131009306/13/12 13:10:31  5-MIN KDBQ 131910Z 13007KT 10SM CLR 21/08 A3015 870 43 1800 130/07 RMK AO2
94908KDBQ DBQ20120613131510206/13/12 13:15:31  5-MIN KDBQ 131915Z 13009KT 9SM FEW002 21/08 A3014 880 43 1800 130/09 RMK AO2 PRESFR
94908KDBQ DBQ20120613132010206/13/12 13:20:31  5-MIN KDBQ 131920Z 14008KT 9SM FEW120 21/09 A3013 880 45 1800 140/08 RMK AO2 PRESFR
94908KDBQ DBQ20120613132510106/13/12 13:25:31  5-MIN KDBQ 131925Z 14011G15KT 9SM FEW120 21/08 A3013 880 42 1800 140/11G15 RMK AO2
94908KDBQ DBQ20120613133009506/13/12 13:30:31  5-MIN KDBQ 131930Z 15010KT 9SM FEW120 22/08 A3014 880 42 1900 150/10 RMK AO2
94908KDBQ DBQ20120613133509506/13/12 13:35:31  5-MIN KDBQ 131935Z 13010KT 9SM FEW120 22/08 A3014 880 42 1900 130/10 RMK AO2
94908KDBQ DBQ20120613134010206/13/12 13:40:31  5-MIN KDBQ 131940Z 14009G15KT 10SM FEW120 22/08 A3013 880 42 1900 130/09G15 RMK AO2
94908KDBQ DBQ20120613134510206/13/12 13:45:31  5-MIN KDBQ 131945Z 14009G15KT 10SM FEW120 22/08 A3013 890 42 1900 140/09G15 RMK AO2
94908KDBQ DBQ20120613135011806/13/12 13:50:31  5-MIN KDBQ 131950Z AUTO 13011KT 10SM FEW120 21/09 A3013 880 45 1800 130/11 RMK AO2 SLP203 T02110089
94908KDBQ DBQ20120613135509306/13/12 13:55:31  5-MIN KDBQ 131955Z 14008KT 10SM CLR 21/08 A3013 890 42 1800 140/08 RMK AO2
94908KDBQ DBQ20120613140009206/13/12 14:00:31  5-MIN KDBQ 132000Z 13007KT 9SM CLR 21/08 A3013 890 43 1800 130/07 RMK AO2
94908KDBQ DBQ20120613140509206/13/12 14:05:31  5-MIN KDBQ 132005Z 13010KT 9SM CLR 21/08 A3012 890 43 1800 130/10 RMK AO2
94908KDBQ DBQ20120613141009306/13/12 14:10:31  5-MIN KDBQ 132010Z 12009KT 10SM CLR 21/09 A3012 900 45 1900 120/09 RMK AO2
94908KDBQ DBQ20120613141509306/13/12 14:15:31  5-MIN KDBQ 132015Z 12006KT 10SM CLR 21/08 A3012 890 43 1800 120/06 RMK AO2
94908KDBQ DBQ20120613142009306/13/12 14:20:31  5-MIN KDBQ 132020Z 13010KT 10SM CLR 22/09 A3012 890 43 1900 130/10 RMK AO2
94908KDBQ DBQ20120613142509306/13/12 14:25:31  5-MIN KDBQ 132025Z 13008KT 10SM CLR 22/08 A3012 900 42 1900 130/08 RMK AO2
94908KDBQ DBQ20120613143009306/13/12 14:30:31  5-MIN KDBQ 132030Z 12009KT 10SM CLR 22/09 A3012 900 42 2000 120/09 RMK AO2
94908KDBQ DBQ20120613143509306/13/12 14:35:31  5-MIN KDBQ 132035Z 12011KT 10SM CLR 22/09 A3011 900 43 2000 120/11 RMK AO2
94908KDBQ DBQ20120613144009906/13/12 14:40:31  5-MIN KDBQ 132040Z 11010G16KT 10SM CLR 22/09 A3011 900 43 2000 110/10G16 RMK AO2
94908KDBQ DBQ20120613144509806/13/12 14:45:31  5-MIN KDBQ 132045Z 13011G16KT 9SM CLR 22/09 A3011 900 43 1900 130/11G16 RMK AO2
94908KDBQ DBQ20120613145012106/13/12 14:50:31  5-MIN KDBQ 132050Z 14010G16KT 8SM CLR 22/09 A3011 900 43 2000 140/10G16 RMK AO2 SLP195 T02220094 50003
94908KDBQ DBQ20120613145509806/13/12 14:55:31  5-MIN KDBQ 132055Z 12012G16KT 9SM CLR 22/09 A3011 900 43 2000 120/12G16 RMK AO2
94908KDBQ DBQ20120613150009306/13/12 15:00:31  5-MIN KDBQ 132100Z 10010KT 10SM CLR 22/09 A3011 900 42 2000 100/10 RMK AO2
94908KDBQ DBQ20120613150509306/13/12 15:05:31  5-MIN KDBQ 132105Z 11011KT 10SM CLR 22/09 A3011 900 42 2000 110/11 RMK AO2
94908KDBQ DBQ20120613151009306/13/12 15:10:31  5-MIN KDBQ 132110Z 12011KT 10SM CLR 22/09 A3011 900 43 2000 120/11 RMK AO2
94908KDBQ DBQ20120613151509306/13/12 15:15:31  5-MIN KDBQ 132115Z 11011KT 10SM CLR 21/08 A3011 910 43 1900 110/11 RMK AO2
94908KDBQ DBQ20120613152009306/13/12 15:20:31  5-MIN KDBQ 132120Z 12010KT 10SM CLR 22/09 A3011 910 43 1900 120/10 RMK AO2
94908KDBQ DBQ20120613152509206/13/12 15:25:31  5-MIN KDBQ 132125Z 12011KT 9SM CLR 22/09 A3010 910 42 2000 120/11 RMK AO2
94908KDBQ DBQ20120613153009206/13/12 15:30:31  5-MIN KDBQ 132130Z 12014KT 9SM CLR 22/09 A3010 920 42 2000 120/14 RMK AO2
94908KDBQ DBQ20120613153509506/13/12 15:35:31  5-MIN KDBQ 132135Z 14012KT 9SM FEW120 22/08 A3009 920 42 2000 140/12 RMK AO2
94908KDBQ DBQ20120613154010306/13/12 15:40:31  5-MIN KDBQ 132140Z 12014KT 10SM FEW120 22/08 A3008 930 39 2000 120/14 RMK AO2 PRESFR
94908KDBQ DBQ20120613154509306/13/12 15:45:31  5-MIN KDBQ 132145Z 13013KT 10SM CLR 22/08 A3007 940 40 2000 130/13 RMK AO2
94908KDBQ DBQ20120613155011606/13/12 15:50:31  5-MIN KDBQ 132150Z 11011G18KT 10SM CLR 21/06 A3008 930 37 1900 110/11G18 RMK AO2 SLP186 T02110061
94908KDBQ DBQ20120613155509906/13/12 15:55:31  5-MIN KDBQ 132155Z 12010G18KT 10SM CLR 22/07 A3008 930 39 2000 120/10G18 RMK AO2
94908KDBQ DBQ20120613160009306/13/12 16:00:31  5-MIN KDBQ 132200Z 14009KT 10SM CLR 22/08 A3009 920 40 2000 140/09 RMK AO2
94908KDBQ DBQ20120613160509306/13/12 16:05:31  5-MIN KDBQ 132205Z 13009KT 10SM CLR 22/08 A3009 920 42 1900 130/09 RMK AO2
94908KDBQ DBQ20120613161009306/13/12 16:10:31  5-MIN KDBQ 132210Z 12011KT 10SM CLR 22/09 A3009 920 42 2000 120/11 RMK AO2
94908KDBQ DBQ20120613161509306/13/12 16:15:31  5-MIN KDBQ 132215Z 13011KT 10SM CLR 22/08 A3009 930 42 2000 130/11 RMK AO2
94908KDBQ DBQ20120613162009306/13/12 16:20:31  5-MIN KDBQ 132220Z 13009KT 10SM CLR 22/08 A3009 920 42 2000 130/09 RMK AO2
94908KDBQ DBQ20120613162509306/13/12 16:25:31  5-MIN KDBQ 132225Z 12010KT 10SM CLR 22/08 A3009 920 42 2000 120/10 RMK AO2
94908KDBQ DBQ20120613163009306/13/12 16:30:31  5-MIN KDBQ 132230Z 12010KT 10SM CLR 22/09 A3009 920 43 2000 120/10 RMK AO2
94908KDBQ DBQ20120613163509306/13/12 16:35:31  5-MIN KDBQ 132235Z 12010KT 10SM CLR 21/08 A3009 920 43 1900 120/10 RMK AO2
94908KDBQ DBQ20120613164009306/13/12 16:40:31  5-MIN KDBQ 132240Z 12011KT 10SM CLR 21/08 A3009 920 43 1900 120/11 RMK AO2
94908KDBQ DBQ20120613164509306/13/12 16:45:31  5-MIN KDBQ 132245Z 14011KT 10SM CLR 22/09 A3009 920 43 2000 140/11 RMK AO2
94908KDBQ DBQ20120613165011006/13/12 16:50:31  5-MIN KDBQ 132250Z 14010KT 10SM CLR 22/09 A3009 920 43 2000 140/10 RMK AO2 SLP187 T02170089
94908KDBQ DBQ20120613165509306/13/12 16:55:31  5-MIN KDBQ 132255Z 13010KT 10SM CLR 22/09 A3009 930 43 2000 130/10 RMK AO2
94908KDBQ DBQ20120613170009306/13/12 17:00:31  5-MIN KDBQ 132300Z 14012KT 10SM CLR 22/08 A3008 930 42 2000 130/12 RMK AO2
94908KDBQ DBQ20120613170509306/13/12 17:05:31  5-MIN KDBQ 132305Z 16011KT 10SM CLR 21/08 A3009 920 42 1900 160/11 RMK AO2
94908KDBQ DBQ20120613171009306/13/12 17:10:31  5-MIN KDBQ 132310Z 14013KT 10SM CLR 21/08 A3008 930 42 1900 140/13 RMK AO2
94908KDBQ DBQ20120613171509306/13/12 17:15:31  5-MIN KDBQ 132315Z 15009KT 10SM CLR 21/08 A3008 930 42 1900 150/09 RMK AO2
94908KDBQ DBQ20120613172009306/13/12 17:20:31  5-MIN KDBQ 132320Z 14010KT 10SM CLR 21/08 A3008 930 43 1800 130/10 RMK AO2
94908KDBQ DBQ20120613172509306/13/12 17:25:31  5-MIN KDBQ 132325Z 14008KT 10SM CLR 21/08 A3008 930 45 1800 140/08 RMK AO2
94908KDBQ DBQ20120613173009306/13/12 17:30:31  5-MIN KDBQ 132330Z 13009KT 10SM CLR 21/08 A3008 930 43 1900 130/09 RMK AO2
94908KDBQ DBQ20120613173509306/13/12 17:35:31  5-MIN KDBQ 132335Z 14009KT 10SM CLR 21/08 A3008 930 43 1900 140/09 RMK AO2
94908KDBQ DBQ20120613174009306/13/12 17:40:31  5-MIN KDBQ 132340Z 14008KT 10SM CLR 21/08 A3008 930 43 1900 140/08 RMK AO2
94908KDBQ DBQ20120613174509306/13/12 17:45:31  5-MIN KDBQ 132345Z 14012KT 10SM CLR 21/09 A3007 940 45 1900 140/12 RMK AO2
94908KDBQ DBQ20120613175012806/13/12 17:50:31  5-MIN KDBQ 132350Z 14012KT 10SM CLR 21/08 A3007 940 45 1800 140/12 RMK AO2 SLP181 T02060083 10222 20206 56024
94908KDBQ DBQ20120613175509306/13/12 17:55:31  5-MIN KDBQ 132355Z 14011KT 10SM CLR 21/08 A3007 940 45 1800 140/11 RMK AO2
94908KDBQ DBQ20120613180009306/13/12 18:00:31  5-MIN KDBQ 140000Z 14011KT 10SM CLR 21/08 A3007 940 45 1800 140/11 RMK AO2
94908KDBQ DBQ20120613180509306/13/12 18:05:31  5-MIN KDBQ 140005Z 15010KT 10SM CLR 21/08 A3007 940 45 1800 140/10 RMK AO2
94908KDBQ DBQ20120613181009306/13/12 18:10:31  5-MIN KDBQ 140010Z 14008KT 10SM CLR 21/08 A3007 940 45 1800 140/08 RMK AO2
94908KDBQ DBQ20120613181509306/13/12 18:15:31  5-MIN KDBQ 140015Z 14009KT 10SM CLR 21/08 A3007 940 45 1800 140/09 RMK AO2
94908KDBQ DBQ20120613182009306/13/12 18:20:31  5-MIN KDBQ 140020Z 14008KT 10SM CLR 21/08 A3007 940 45 1800 140/08 RMK AO2
94908KDBQ DBQ20120613182509306/13/12 18:25:31  5-MIN KDBQ 140025Z 14009KT 10SM CLR 21/08 A3007 940 45 1800 140/09 RMK AO2
94908KDBQ DBQ20120613183009306/13/12 18:30:31  5-MIN KDBQ 140030Z 14008KT 10SM CLR 21/08 A3007 940 45 1800 140/08 RMK AO2
94908KDBQ DBQ20120613183509306/13/12 18:35:31  5-MIN KDBQ 140035Z 14007KT 10SM CLR 20/08 A3007 940 46 1800 140/07 RMK AO2
94908KDBQ DBQ20120613184009306/13/12 18:40:31  5-MIN KDBQ 140040Z 13006KT 10SM CLR 20/08 A3007 940 46 1800 130/06 RMK AO2
94908KDBQ DBQ20120613184509306/13/12 18:45:31  5-MIN KDBQ 140045Z 13007KT 10SM CLR 20/08 A3007 940 46 1800 130/07 RMK AO2
94908KDBQ DBQ20120613185011006/13/12 18:50:31  5-MIN KDBQ 140050Z 14006KT 10SM CLR 20/09 A3007 940 48 1800 140/06 RMK AO2 SLP180 T02000089
94908KDBQ DBQ20120613185509806/13/12 18:55:31  5-MIN KDBQ 140055Z AUTO 14006KT 10SM CLR 20/09 A3007 940 48 1800 140/06 RMK AO2
94908KDBQ DBQ20120613190009806/13/12 19:00:31  5-MIN KDBQ 140100Z AUTO 14006KT 10SM CLR 19/09 A3007 940 50 1700 140/06 RMK AO2
94908KDBQ DBQ20120613190509806/13/12 19:05:31  5-MIN KDBQ 140105Z AUTO 14005KT 10SM CLR 19/09 A3007 940 50 1700 140/05 RMK AO2
94908KDBQ DBQ20120613191009806/13/12 19:10:31  5-MIN KDBQ 140110Z AUTO 14006KT 10SM CLR 19/09 A3007 940 52 1700 140/06 RMK AO2
94908KDBQ DBQ20120613191509806/13/12 19:15:31  5-MIN KDBQ 140115Z AUTO 14006KT 10SM CLR 19/09 A3007 940 54 1700 140/06 RMK AO2
94908KDBQ DBQ20120613192009806/13/12 19:20:31  5-MIN KDBQ 140120Z AUTO 14006KT 10SM CLR 18/09 A3007 940 56 1600 140/06 RMK AO2
94908KDBQ DBQ20120613192509806/13/12 19:25:31  5-MIN KDBQ 140125Z AUTO 14006KT 10SM CLR 18/09 A3007 940 58 1500 140/06 RMK AO2
94908KDBQ DBQ20120613193009806/13/12 19:30:31  5-MIN KDBQ 140130Z AUTO 15006KT 10SM CLR 18/09 A3007 940 58 1500 140/06 RMK AO2
94908KDBQ DBQ20120613193509806/13/12 19:35:31  5-MIN KDBQ 140135Z AUTO 14005KT 10SM CLR 18/09 A3007 940 58 1500 140/05 RMK AO2
94908KDBQ DBQ20120613194009806/13/12 19:40:31  5-MIN KDBQ 140140Z AUTO 15006KT 10SM CLR 18/09 A3007 940 58 1500 140/06 RMK AO2
94908KDBQ DBQ20120613194509806/13/12 19:45:31  5-MIN KDBQ 140145Z AUTO 15006KT 10SM CLR 17/09 A3007 940 60 1500 150/06 RMK AO2
94908KDBQ DBQ20120613195011506/13/12 19:50:31  5-MIN KDBQ 140150Z AUTO 15006KT 10SM CLR 17/09 A3007 940 60 1500 150/06 RMK AO2 SLP182 T01720094
94908KDBQ DBQ20120613195509806/13/12 19:55:31  5-MIN KDBQ 140155Z AUTO 15007KT 10SM CLR 18/09 A3007 940 55 1500 150/07 RMK AO2
94908KDBQ DBQ20120613200009806/13/12 20:00:31  5-MIN KDBQ 140200Z AUTO 16009KT 10SM CLR 18/09 A3007 940 55 1500 160/09 RMK AO2
94908KDBQ DBQ20120613200509806/13/12 20:05:31  5-MIN KDBQ 140205Z AUTO 17008KT 10SM CLR 18/08 A3008 930 53 1500 170/08 RMK AO2
94908KDBQ DBQ20120613201009806/13/12 20:10:31  5-MIN KDBQ 140210Z AUTO 18004KT 10SM CLR 18/08 A3009 930 53 1500 180/04 RMK AO2
94908KDBQ DBQ20120613201510106/13/12 20:15:31  5-MIN KDBQ 140215Z AUTO 17003KT 10SM FEW110 18/08 A3009 920 53 1500 170/03 RMK AO2
94908KDBQ DBQ20120613202010806/13/12 20:20:31  5-MIN KDBQ 140220Z AUTO 14007KT 10SM FEW034 SCT110 18/08 A3007 940 53 1500 140/07 RMK AO2
94908KDBQ DBQ20120613202511506/13/12 20:25:31  5-MIN KDBQ 140225Z AUTO 14009KT 10SM FEW040 SCT090 BKN110 18/08 A3006 950 53 1500 140/09 RMK AO2
94908KDBQ DBQ20120613203012206/13/12 20:30:31  5-MIN KDBQ 140230Z AUTO 14013KT 10SM FEW036 SCT090 BKN110 18/08 A3004 970 53 1600 140/13 RMK AO2 PRESFR
94908KDBQ DBQ20120613203511506/13/12 20:35:31  5-MIN KDBQ 140235Z AUTO 15012KT 10SM FEW036 SCT090 BKN110 18/08 A3004 970 50 1600 150/12 RMK AO2
94908KDBQ DBQ20120613204011406/13/12 20:40:31  5-MIN KDBQ 140240Z AUTO 16013G19KT 10SM FEW036 BKN110 19/07 A3004 970 44 1700 160/13G19 RMK AO2
94908KDBQ DBQ20120613204511406/13/12 20:45:31  5-MIN KDBQ 140245Z AUTO 17012G19KT 10SM FEW046 SCT110 19/07 A3005 960 44 1700 170/12G19 RMK AO2
94908KDBQ DBQ20120613205012906/13/12 20:50:31  5-MIN KDBQ 140250Z AUTO 16013KT 10SM FEW090 19/07 A3005 960 44 1700 160/13 RMK AO2 SLP174 T01890067 56014 TSNO
94908KDBQ DBQ20120613205510606/13/12 20:55:31  5-MIN KDBQ 140255Z AUTO 16013KT 10SM FEW090 18/07 A3005 950 46 1600 160/13 RMK AO2 TSNO
94908KDBQ DBQ20120613210010906/13/12 21:00:31  5-MIN KDBQ 140300Z AUTO 16011G19KT 10SM CLR 18/07 A3006 950 46 1600 160/11G19 RMK AO2 TSNO
94908KDBQ DBQ20120613210510306/13/12 21:05:31  5-MIN KDBQ 140305Z AUTO 15011KT 10SM CLR 18/06 A3006 950 44 1600 150/11 RMK AO2 TSNO
94908KDBQ DBQ20120613211010406/13/12 21:10:31  5-MIN KDBQ 140310Z AUTO 15009G16KT 10SM CLR 18/06 A3006 950 44 1600 150/09G16 RMK AO2
94908KDBQ DBQ20120613211509806/13/12 21:15:31  5-MIN KDBQ 140315Z AUTO 15008KT 10SM CLR 18/06 A3007 940 44 1600 150/08 RMK AO2
94908KDBQ DBQ20120613212009806/13/12 21:20:31  5-MIN KDBQ 140320Z AUTO 15007KT 10SM CLR 18/06 A3007 940 42 1600 150/07 RMK AO2
94908KDBQ DBQ20120613212509806/13/12 21:25:31  5-MIN KDBQ 140325Z AUTO 16010KT 10SM CLR 18/06 A3007 940 44 1500 160/10 RMK AO2
94908KDBQ DBQ20120613213009806/13/12 21:30:31  5-MIN KDBQ 140330Z AUTO 16010KT 10SM CLR 18/06 A3007 940 44 1500 160/10 RMK AO2
94908KDBQ DBQ20120613213509806/13/12 21:35:31  5-MIN KDBQ 140335Z AUTO 16009KT 10SM CLR 18/06 A3007 940 44 1500 160/09 RMK AO2
94908KDBQ DBQ20120613214009806/13/12 21:40:31  5-MIN KDBQ 140340Z AUTO 16010KT 10SM CLR 18/06 A3007 940 44 1500 160/10 RMK AO2
94908KDBQ DBQ20120613214509806/13/12 21:45:31  5-MIN KDBQ 140345Z AUTO 16009KT 10SM CLR 17/06 A3007 940 46 1500 160/09 RMK AO2
94908KDBQ DBQ20120613215011506/13/12 21:50:31  5-MIN KDBQ 140350Z AUTO 16009KT 10SM CLR 17/06 A3007 940 46 1500 160/09 RMK AO2 SLP180 T01720056
94908KDBQ DBQ20120613215509806/13/12 21:55:31  5-MIN KDBQ 140355Z AUTO 16009KT 10SM CLR 17/06 A3007 940 46 1500 160/09 RMK AO2
94908KDBQ DBQ20120613220009806/13/12 22:00:31  5-MIN KDBQ 140400Z AUTO 16008KT 10SM CLR 17/06 A3008 930 46 1500 160/08 RMK AO2
94908KDBQ DBQ20120613220509806/13/12 22:05:31  5-MIN KDBQ 140405Z AUTO 16008KT 10SM CLR 17/06 A3008 930 46 1400 160/08 RMK AO2
94908KDBQ DBQ20120613221009806/13/12 22:10:31  5-MIN KDBQ 140410Z AUTO 16008KT 10SM CLR 17/06 A3008 930 46 1400 160/08 RMK AO2
94908KDBQ DBQ20120613221510106/13/12 22:15:31  5-MIN KDBQ 140415Z AUTO 16008KT 10SM FEW120 17/06 A3008 930 46 1400 160/08 RMK AO2
94908KDBQ DBQ20120613222010106/13/12 22:20:31  5-MIN KDBQ 140420Z AUTO 16009KT 10SM FEW120 17/06 A3008 930 47 1400 160/09 RMK AO2
94908KDBQ DBQ20120613222510106/13/12 22:25:31  5-MIN KDBQ 140425Z AUTO 15008KT 10SM FEW120 17/06 A3008 930 49 1400 150/08 RMK AO2
94908KDBQ DBQ20120613223010106/13/12 22:30:31  5-MIN KDBQ 140430Z AUTO 15008KT 10SM FEW120 16/06 A3008 930 51 1300 150/08 RMK AO2
94908KDBQ DBQ20120613223510106/13/12 22:35:31  5-MIN KDBQ 140435Z AUTO 15007KT 10SM FEW120 16/06 A3007 940 51 1300 150/07 RMK AO2
94908KDBQ DBQ20120613224010106/13/12 22:40:31  5-MIN KDBQ 140440Z AUTO 15007KT 10SM FEW120 16/06 A3007 940 51 1300 140/07 RMK AO2
94908KDBQ DBQ20120613224509806/13/12 22:45:31  5-MIN KDBQ 140445Z AUTO 14007KT 10SM CLR 16/07 A3007 940 55 1300 140/07 RMK AO2
94908KDBQ DBQ20120613225011506/13/12 22:50:31  5-MIN KDBQ 140450Z AUTO 14007KT 10SM CLR 16/07 A3007 940 55 1300 140/07 RMK AO2 SLP181 T01560067
94908KDBQ DBQ20120613225509806/13/12 22:55:31  5-MIN KDBQ 140455Z AUTO 14006KT 10SM CLR 15/07 A3007 940 57 1200 140/06 RMK AO2
94908KDBQ DBQ20120613230009806/13/12 23:00:31  5-MIN KDBQ 140500Z AUTO 14006KT 10SM CLR 15/07 A3008 940 57 1200 140/06 RMK AO2
94908KDBQ DBQ20120613230509806/13/12 23:05:31  5-MIN KDBQ 140505Z AUTO 14006KT 10SM CLR 15/07 A3008 940 57 1200 140/06 RMK AO2
94908KDBQ DBQ20120613231009806/13/12 23:10:31  5-MIN KDBQ 140510Z AUTO 14006KT 10SM CLR 15/07 A3007 940 59 1200 140/06 RMK AO2
94908KDBQ DBQ20120613231509806/13/12 23:15:31  5-MIN KDBQ 140515Z AUTO 14008KT 10SM CLR 15/07 A3007 940 57 1200 140/08 RMK AO2
94908KDBQ DBQ20120613232009806/13/12 23:20:31  5-MIN KDBQ 140520Z AUTO 14007KT 10SM CLR 15/07 A3007 940 57 1200 140/07 RMK AO2
94908KDBQ DBQ20120613232509806/13/12 23:25:31  5-MIN KDBQ 140525Z AUTO 14006KT 10SM CLR 15/07 A3008 940 59 1200 140/06 RMK AO2
94908KDBQ DBQ20120613233009806/13/12 23:30:31  5-MIN KDBQ 140530Z AUTO 14005KT 10SM CLR 15/07 A3008 930 59 1200 140/05 RMK AO2
94908KDBQ DBQ20120613233509806/13/12 23:35:31  5-MIN KDBQ 140535Z AUTO 15006KT 10SM CLR 15/07 A3008 930 57 1200 150/06 RMK AO2
94908KDBQ DBQ20120613234009806/13/12 23:40:31  5-MIN KDBQ 140540Z AUTO 14006KT 10SM CLR 15/07 A3008 940 57 1200 140/06 RMK AO2
94908KDBQ DBQ20120613234509806/13/12 23:45:31  5-MIN KDBQ 140545Z AUTO 14006KT 10SM CLR 14/07 A3008 940 59 1100 140/06 RMK AO2
94908KDBQ DBQ20120613235014306/13/12 23:50:31  5-MIN KDBQ 140550Z AUTO 14005KT 10SM CLR 14/07 A3008 930 59 1100 140/05 RMK AO2 SLP183 T01440067 10206 20144 402220094 58005
94908KDBQ DBQ20120613235509806/13/12 23:55:31  5-MIN KDBQ 140555Z AUTO 15005KT 10SM CLR 14/07 A3008 930 59 1100 150/05 RMK AO2
94908KDBQ DBQ20120614000009806/14/12 00:00:38  5-MIN KDBQ 140600Z AUTO 14005KT 10SM CLR 14/07 A3008 930 59 1100 140/05 RMK AO2
94908KDBQ DBQ20120614000509806/14/12 00:05:31  5-MIN KDBQ 140605Z AUTO 14005KT 10SM CLR 14/07 A3008 930 59 1100 140/05 RMK AO2
94908KDBQ DBQ20120614001009806/14/12 00:10:31  5-MIN KDBQ 140610Z AUTO 14006KT 10SM CLR 14/07 A3008 930 59 1100 130/06 RMK AO2
94908KDBQ DBQ20120614001509806/14/12 00:15:33  5-MIN KDBQ 140615Z AUTO 13007KT 10SM CLR 14/07 A3008 930 59 1100 130/07 RMK AO2
94908KDBQ DBQ20120614002009806/14/12 00:20:31  5-MIN KDBQ 140620Z AUTO 13008KT 10SM CLR 14/07 A3008 930 59 1100 130/08 RMK AO2
94908KDBQ DBQ20120614002509806/14/12 00:25:31  5-MIN KDBQ 140625Z AUTO 13010KT 10SM CLR 15/06 A3008 930 55 1200 130/10 RMK AO2
94908KDBQ DBQ20120614003009806/14/12 00:30:31  5-MIN KDBQ 140630Z AUTO 13010KT 10SM CLR 14/06 A3007 940 57 1100 130/10 RMK AO2
94908KDBQ DBQ20120614003509806/14/12 00:35:31  5-MIN KDBQ 140635Z AUTO 13011KT 10SM CLR 15/06 A3007 940 55 1200 130/11 RMK AO2
94908KDBQ DBQ20120614004009806/14/12 00:40:31  5-MIN KDBQ 140640Z AUTO 13011KT 10SM CLR 15/06 A3007 940 55 1200 130/11 RMK AO2
94908KDBQ DBQ20120614004509806/14/12 00:45:31  5-MIN KDBQ 140645Z AUTO 13010KT 10SM CLR 15/06 A3007 940 55 1200 130/10 RMK AO2
94908KDBQ DBQ20120614005011506/14/12 00:50:31  5-MIN KDBQ 140650Z AUTO 13010KT 10SM CLR 15/06 A3007 940 55 1200 130/10 RMK AO2 SLP179 T01500061
94908KDBQ DBQ20120614005509806/14/12 00:55:31  5-MIN KDBQ 140655Z AUTO 14010KT 10SM CLR 14/06 A3007 940 57 1100 130/10 RMK AO2
94908KDBQ DBQ20120614010009806/14/12 01:00:31  5-MIN KDBQ 140700Z AUTO 14009KT 10SM CLR 14/06 A3007 940 57 1100 130/09 RMK AO2
94908KDBQ DBQ20120614010509806/14/12 01:05:31  5-MIN KDBQ 140705Z AUTO 13010KT 10SM CLR 14/06 A3007 940 57 1100 130/10 RMK AO2
94908KDBQ DBQ20120614011009806/14/12 01:10:31  5-MIN KDBQ 140710Z AUTO 14010KT 10SM CLR 14/06 A3007 940 57 1100 140/10 RMK AO2
94908KDBQ DBQ20120614011509806/14/12 01:15:31  5-MIN KDBQ 140715Z AUTO 14009KT 10SM CLR 14/06 A3007 940 57 1100 140/09 RMK AO2
94908KDBQ DBQ20120614012009806/14/12 01:20:31  5-MIN KDBQ 140720Z AUTO 14009KT 10SM CLR 14/06 A3007 940 57 1100 140/09 RMK AO2
94908KDBQ DBQ20120614012509806/14/12 01:25:31  5-MIN KDBQ 140725Z AUTO 13010KT 10SM CLR 14/06 A3007 940 59 1100 130/10 RMK AO2
94908KDBQ DBQ20120614013009806/14/12 01:30:31  5-MIN KDBQ 140730Z AUTO 13010KT 10SM CLR 14/06 A3006 950 59 1100 130/10 RMK AO2
94908KDBQ DBQ20120614013509806/14/12 01:35:31  5-MIN KDBQ 140735Z AUTO 14010KT 10SM CLR 14/06 A3006 950 59 1100 130/10 RMK AO2
94908KDBQ DBQ20120614014009806/14/12 01:40:31  5-MIN KDBQ 140740Z AUTO 14010KT 10SM CLR 14/06 A3006 950 59 1100 140/10 RMK AO2
94908KDBQ DBQ20120614014509806/14/12 01:45:31  5-MIN KDBQ 140745Z AUTO 14009KT 10SM CLR 14/06 A3006 950 59 1100 140/09 RMK AO2
94908KDBQ DBQ20120614015011506/14/12 01:50:31  5-MIN KDBQ 140750Z AUTO 14009KT 10SM CLR 14/06 A3006 950 59 1100 140/09 RMK AO2 SLP178 T01390061
94908KDBQ DBQ20120614015509806/14/12 01:55:31  5-MIN KDBQ 140755Z AUTO 14009KT 10SM CLR 14/06 A3006 950 59 1100 140/09 RMK AO2
94908KDBQ DBQ20120614020009806/14/12 02:00:31  5-MIN KDBQ 140800Z AUTO 14008KT 10SM CLR 13/06 A3006 950 61 1000 140/08 RMK AO2
94908KDBQ DBQ20120614020509806/14/12 02:05:31  5-MIN KDBQ 140805Z AUTO 14008KT 10SM CLR 13/06 A3006 950 61 1000 140/08 RMK AO2
94908KDBQ DBQ20120614021009806/14/12 02:10:31  5-MIN KDBQ 140810Z AUTO 14008KT 10SM CLR 13/06 A3006 950 61 1000 140/08 RMK AO2
94908KDBQ DBQ20120614021509806/14/12 02:15:31  5-MIN KDBQ 140815Z AUTO 14008KT 10SM CLR 13/06 A3006 950 61 1000 140/08 RMK AO2
94908KDBQ DBQ20120614022009806/14/12 02:20:31  5-MIN KDBQ 140820Z AUTO 14009KT 10SM CLR 13/06 A3006 950 61 1000 140/09 RMK AO2
94908KDBQ DBQ20120614022509806/14/12 02:25:31  5-MIN KDBQ 140825Z AUTO 14009KT 10SM CLR 13/06 A3006 950 61 1000 140/09 RMK AO2
94908KDBQ DBQ20120614023009806/14/12 02:30:31  5-MIN KDBQ 140830Z AUTO 15009KT 10SM CLR 13/06 A3006 950 61 1000 140/09 RMK AO2
94908KDBQ DBQ20120614023509806/14/12 02:35:31  5-MIN KDBQ 140835Z AUTO 14009KT 10SM CLR 13/06 A3006 950 61 1000 140/09 RMK AO2
94908KDBQ DBQ20120614024009806/14/12 02:40:31  5-MIN KDBQ 140840Z AUTO 14008KT 10SM CLR 13/06 A3006 950 61 1000 140/08 RMK AO2
94908KDBQ DBQ20120614024509806/14/12 02:45:31  5-MIN KDBQ 140845Z AUTO 14010KT 10SM CLR 13/07 A3005 960 64 1000 140/10 RMK AO2
94908KDBQ DBQ20120614025012106/14/12 02:50:31  5-MIN KDBQ 140850Z AUTO 14010KT 10SM CLR 13/07 A3005 960 64 1000 140/10 RMK AO2 SLP174 T01330067 51009
94908KDBQ DBQ20120614025509806/14/12 02:55:31  5-MIN KDBQ 140855Z AUTO 14009KT 10SM CLR 13/07 A3005 960 64 1000 140/09 RMK AO2
94908KDBQ DBQ20120614030009806/14/12 03:00:31  5-MIN KDBQ 140900Z AUTO 14010KT 10SM CLR 13/07 A3005 960 64 1000 140/10 RMK AO2
94908KDBQ DBQ20120614030509806/14/12 03:05:31  5-MIN KDBQ 140905Z AUTO 14011KT 10SM CLR 13/07 A3005 960 64 1000 140/11 RMK AO2
94908KDBQ DBQ20120614031009806/14/12 03:10:31  5-MIN KDBQ 140910Z AUTO 14011KT 10SM CLR 13/07 A3005 960 64 1000 140/11 RMK AO2
94908KDBQ DBQ20120614031509806/14/12 03:15:31  5-MIN KDBQ 140915Z AUTO 15012KT 10SM CLR 13/07 A3005 960 64 1000 150/12 RMK AO2
94908KDBQ DBQ20120614032009806/14/12 03:20:31  5-MIN KDBQ 140920Z AUTO 15011KT 10SM CLR 13/07 A3005 960 64 1000 150/11 RMK AO2
94908KDBQ DBQ20120614032509806/14/12 03:25:31  5-MIN KDBQ 140925Z AUTO 15012KT 10SM CLR 14/07 A3005 950 61 1100 150/12 RMK AO2
94908KDBQ DBQ20120614033009806/14/12 03:30:31  5-MIN KDBQ 140930Z AUTO 15011KT 10SM CLR 14/07 A3005 960 61 1100 150/11 RMK AO2
94908KDBQ DBQ20120614033509806/14/12 03:35:31  5-MIN KDBQ 140935Z AUTO 15012KT 10SM CLR 14/07 A3005 950 61 1100 150/12 RMK AO2
94908KDBQ DBQ20120614034009806/14/12 03:40:31  5-MIN KDBQ 140940Z AUTO 15013KT 10SM CLR 14/07 A3005 950 61 1100 150/13 RMK AO2
94908KDBQ DBQ20120614034509806/14/12 03:45:31  5-MIN KDBQ 140945Z AUTO 15011KT 10SM CLR 14/07 A3006 950 61 1100 150/11 RMK AO2
94908KDBQ DBQ20120614035011506/14/12 03:50:31  5-MIN KDBQ 140950Z AUTO 15011KT 10SM CLR 14/07 A3005 950 61 1100 150/11 RMK AO2 SLP175 T01390067
94908KDBQ DBQ20120614035509806/14/12 03:55:31  5-MIN KDBQ 140955Z AUTO 15012KT 10SM CLR 14/07 A3005 960 61 1100 150/12 RMK AO2
94908KDBQ DBQ20120614040009806/14/12 04:00:31  5-MIN KDBQ 141000Z AUTO 15013KT 10SM CLR 14/07 A3006 950 61 1100 150/13 RMK AO2
94908KDBQ DBQ20120614040509806/14/12 04:05:31  5-MIN KDBQ 141005Z AUTO 15012KT 10SM CLR 13/07 A3005 960 64 1000 150/12 RMK AO2
94908KDBQ DBQ20120614041009806/14/12 04:10:31  5-MIN KDBQ 141010Z AUTO 15012KT 10SM CLR 13/07 A3005 960 64 1000 150/12 RMK AO2
94908KDBQ DBQ20120614041509806/14/12 04:15:31  5-MIN KDBQ 141015Z AUTO 15011KT 10SM CLR 13/07 A3005 960 64 1000 150/11 RMK AO2
94908KDBQ DBQ20120614042009806/14/12 04:20:31  5-MIN KDBQ 141020Z AUTO 15011KT 10SM CLR 13/07 A3005 960 64 1000 150/11 RMK AO2
94908KDBQ DBQ20120614042509806/14/12 04:25:31  5-MIN KDBQ 141025Z AUTO 15011KT 10SM CLR 13/07 A3005 960 64 1000 150/11 RMK AO2
94908KDBQ DBQ20120614043009806/14/12 04:30:31  5-MIN KDBQ 141030Z AUTO 16009KT 10SM CLR 13/07 A3005 960 64 1000 150/09 RMK AO2
94908KDBQ DBQ20120614043509806/14/12 04:35:31  5-MIN KDBQ 141035Z AUTO 16008KT 10SM CLR 13/07 A3005 950 64 1000 160/08 RMK AO2
94908KDBQ DBQ20120614044009806/14/12 04:40:31  5-MIN KDBQ 141040Z AUTO 16007KT 10SM CLR 13/07 A3005 960 64 1000 160/07 RMK AO2
94908KDBQ DBQ20120614044509806/14/12 04:45:31  5-MIN KDBQ 141045Z AUTO 16009KT 10SM CLR 13/07 A3005 950 64 1000 160/09 RMK AO2
94908KDBQ DBQ20120614045011006/14/12 04:50:31  5-MIN KDBQ 141050Z 16009KT 10SM CLR 13/07 A3005 960 64 1000 160/09 RMK AO2 SLP174 T01330067
94908KDBQ DBQ20120614045509306/14/12 04:55:31  5-MIN KDBQ 141055Z 16008KT 10SM CLR 13/07 A3005 960 64 1000 160/08 RMK AO2
94908KDBQ DBQ20120614050009306/14/12 05:00:31  5-MIN KDBQ 141100Z 16009KT 10SM CLR 13/07 A3005 960 64 1000 160/09 RMK AO2
94908KDBQ DBQ20120614050509306/14/12 05:05:31  5-MIN KDBQ 141105Z 16009KT 10SM CLR 13/07 A3005 950 66 1000 160/09 RMK AO2
94908KDBQ DBQ20120614051009306/14/12 05:10:31  5-MIN KDBQ 141110Z 16008KT 10SM CLR 13/07 A3006 950 66 1000 160/08 RMK AO2
94908KDBQ DBQ20120614051509306/14/12 05:15:31  5-MIN KDBQ 141115Z 16009KT 10SM CLR 13/07 A3006 950 66 1000 160/09 RMK AO2
94908KDBQ DBQ20120614052009306/14/12 05:20:31  5-MIN KDBQ 141120Z 16010KT 10SM CLR 13/07 A3005 950 66 1000 160/10 RMK AO2
94908KDBQ DBQ20120614052509306/14/12 05:25:31  5-MIN KDBQ 141125Z 16011KT 10SM CLR 14/07 A3005 950 64 1100 160/11 RMK AO2
94908KDBQ DBQ20120614053009906/14/12 05:30:31  5-MIN KDBQ 141130Z 16010G17KT 10SM CLR 14/07 A3006 950 64 1100 160/10G17 RMK AO2
94908KDBQ DBQ20120614053509906/14/12 05:35:31  5-MIN KDBQ 141135Z 16011G17KT 10SM CLR 14/07 A3006 950 64 1100 160/11G17 RMK AO2
94908KDBQ DBQ20120614054009306/14/12 05:40:31  5-MIN KDBQ 141140Z 15011KT 10SM CLR 14/07 A3006 950 61 1100 150/11 RMK AO2
94908KDBQ DBQ20120614054509306/14/12 05:45:31  5-MIN KDBQ 141145Z 15011KT 10SM CLR 14/08 A3006 950 64 1100 150/11 RMK AO2
94908KDBQ DBQ20120614055012806/14/12 05:50:31  5-MIN KDBQ 141150Z 15011KT 10SM CLR 14/08 A3005 960 64 1200 150/11 RMK AO2 SLP174 T01440078 10150 20133 57009
94908KDBQ DBQ20120614055509306/14/12 05:55:31  5-MIN KDBQ 141155Z 15013KT 10SM CLR 14/08 A3005 960 64 1200 150/13 RMK AO2
94908KDBQ DBQ20120614060009306/14/12 06:00:31  5-MIN KDBQ 141200Z 15012KT 10SM CLR 14/08 A3005 960 64 1200 150/12 RMK AO2
94908KDBQ DBQ20120614060509306/14/12 06:05:31  5-MIN KDBQ 141205Z 15013KT 10SM CLR 15/08 A3005 960 62 1200 150/13 RMK AO2
94908KDBQ DBQ20120614061009306/14/12 06:10:31  5-MIN KDBQ 141210Z 15012KT 10SM CLR 15/08 A3005 960 62 1200 150/12 RMK AO2
94908KDBQ DBQ20120614061509906/14/12 06:15:31  5-MIN KDBQ 141215Z 15012G20KT 10SM CLR 15/08 A3005 960 62 1200 150/12G20 RMK AO2
94908KDBQ DBQ20120614062009906/14/12 06:20:31  5-MIN KDBQ 141220Z 15012G20KT 10SM CLR 16/08 A3005 960 59 1300 150/12G20 RMK AO2
94908KDBQ DBQ20120614062509306/14/12 06:25:31  5-MIN KDBQ 141225Z 16012KT 10SM CLR 16/08 A3006 950 59 1300 150/12 RMK AO2
94908KDBQ DBQ20120614063009306/14/12 06:30:31  5-MIN KDBQ 141230Z 15013KT 10SM CLR 16/08 A3006 950 57 1300 150/13 RMK AO2
94908KDBQ DBQ20120614063509906/14/12 06:35:31  5-MIN KDBQ 141235Z 15014G19KT 10SM CLR 16/08 A3006 950 57 1300 150/14G19 RMK AO2
94908KDBQ DBQ20120614064009906/14/12 06:40:31  5-MIN KDBQ 141240Z 15011G19KT 10SM CLR 16/08 A3006 950 57 1300 150/11G19 RMK AO2
94908KDBQ DBQ20120614064509306/14/12 06:45:31  5-MIN KDBQ 141245Z 15012KT 10SM CLR 17/08 A3006 950 57 1400 150/12 RMK AO2
94908KDBQ DBQ20120614065011606/14/12 06:50:31  5-MIN KDBQ 141250Z 15014G20KT 10SM CLR 17/08 A3006 950 57 1400 150/14G20 RMK AO2 SLP177 T01670083
94908KDBQ DBQ20120614065509906/14/12 06:55:31  5-MIN KDBQ 141255Z 16010G20KT 10SM CLR 17/08 A3006 950 55 1500 160/10G20 RMK AO2
94908KDBQ DBQ20120614070009906/14/12 07:00:31  5-MIN KDBQ 141300Z 16013G18KT 10SM CLR 17/09 A3006 950 57 1500 150/13G18 RMK AO2
94908KDBQ DBQ20120614070509906/14/12 07:05:31  5-MIN KDBQ 141305Z 16011G17KT 10SM CLR 18/09 A3007 940 55 1500 150/11G17 RMK AO2
94908KDBQ DBQ20120614071009306/14/12 07:10:31  5-MIN KDBQ 141310Z 16012KT 10SM CLR 18/09 A3007 940 55 1500 160/12 RMK AO2
94908KDBQ DBQ20120614071509306/14/12 07:15:31  5-MIN KDBQ 141315Z 16012KT 10SM CLR 18/09 A3007 940 54 1600 160/12 RMK AO2
94908KDBQ DBQ20120614072009306/14/12 07:20:31  5-MIN KDBQ 141320Z 15011KT 10SM CLR 18/09 A3007 940 56 1600 150/11 RMK AO2
94908KDBQ DBQ20120614072509906/14/12 07:25:31  5-MIN KDBQ 141325Z 16012G16KT 10SM CLR 19/09 A3007 940 54 1700 160/12G16 RMK AO2
94908KDBQ DBQ20120614073009906/14/12 07:30:31  5-MIN KDBQ 141330Z 17011G16KT 10SM CLR 18/09 A3008 940 54 1600 170/11G16 RMK AO2
94908KDBQ DBQ20120614073509306/14/12 07:35:31  5-MIN KDBQ 141335Z 16009KT 10SM CLR 18/09 A3008 930 56 1600 160/09 RMK AO2
94908KDBQ DBQ20120614074009306/14/12 07:40:31  5-MIN KDBQ 141340Z 16009KT 10SM CLR 18/09 A3008 930 56 1600 150/09 RMK AO2
94908KDBQ DBQ20120614074509306/14/12 07:45:31  5-MIN KDBQ 141345Z 16010KT 10SM CLR 19/10 A3008 940 56 1600 160/10 RMK AO2
94908KDBQ DBQ20120614075011006/14/12 07:50:31  5-MIN KDBQ 141350Z 15010KT 10SM CLR 19/10 A3007 940 54 1700 150/10 RMK AO2 SLP181 T01940100
94908KDBQ DBQ20120614075509306/14/12 07:55:31  5-MIN KDBQ 141355Z 16008KT 10SM CLR 19/10 A3007 940 54 1700 160/08 RMK AO2
94908KDBQ DBQ20120614080009306/14/12 08:00:31  5-MIN KDBQ 141400Z 15009KT 10SM CLR 19/10 A3007 940 54 1700 150/09 RMK AO2
94908KDBQ DBQ20120614080509306/14/12 08:05:31  5-MIN KDBQ 141405Z 16010KT 10SM CLR 19/10 A3007 940 54 1700 160/10 RMK AO2
94908KDBQ DBQ20120614081009306/14/12 08:10:31  5-MIN KDBQ 141410Z 16010KT 10SM CLR 19/11 A3007 940 56 1700 160/10 RMK AO2
94908KDBQ DBQ20120614081509906/14/12 08:15:31  5-MIN KDBQ 141415Z 16013G17KT 10SM CLR 19/10 A3007 940 54 1700 160/13G17 RMK AO2
94908KDBQ DBQ20120614082009306/14/12 08:20:31  5-MIN KDBQ 141420Z 15011KT 10SM CLR 19/10 A3006 950 54 1700 150/11 RMK AO2
94908KDBQ DBQ20120614082509306/14/12 08:25:31  5-MIN KDBQ 141425Z 16014KT 10SM CLR 19/11 A3006 950 56 1700 160/14 RMK AO2
94908KDBQ DBQ20120614083009306/14/12 08:30:31  5-MIN KDBQ 141430Z 16012KT 10SM CLR 20/11 A3006 950 54 1800 160/12 RMK AO2
94908KDBQ DBQ20120614083509306/14/12 08:35:31  5-MIN KDBQ 141435Z 17011KT 10SM CLR 21/11 A3006 950 52 1900 160/11 RMK AO2
94908KDBQ DBQ20120614084009306/14/12 08:40:31  5-MIN KDBQ 141440Z 16013KT 10SM CLR 21/11 A3005 960 52 1900 160/13 RMK AO2
94908KDBQ DBQ20120614084509306/14/12 08:45:31  5-MIN KDBQ 141445Z 17013KT 10SM CLR 21/11 A3005 960 52 1900 170/13 RMK AO2
94908KDBQ DBQ20120614085011606/14/12 08:50:31  5-MIN KDBQ 141450Z 16012KT 10SM CLR 21/11 A3004 960 50 1900 160/12 RMK AO2 SLP170 T02110106 58001
94908KDBQ DBQ20120614085509906/14/12 08:55:31  5-MIN KDBQ 141455Z 17016G19KT 10SM CLR 21/11 A3004 970 50 1900 160/16G19 RMK AO2
94908KDBQ DBQ20120614090009906/14/12 09:00:31  5-MIN KDBQ 141500Z 17011G19KT 10SM CLR 21/11 A3004 970 50 1900 160/11G19 RMK AO2
94908KDBQ DBQ20120614090509906/14/12 09:05:31  5-MIN KDBQ 141505Z 17015G18KT 10SM CLR 22/11 A3003 970 50 2000 170/15G18 RMK AO2
94908KDBQ DBQ20120614091009906/14/12 09:10:31  5-MIN KDBQ 141510Z 17015G19KT 10SM CLR 22/11 A3003 980 49 2000 170/15G19 RMK AO2
94908KDBQ DBQ20120614091509306/14/12 09:15:31  5-MIN KDBQ 141515Z 16015KT 10SM CLR 22/11 A3003 980 50 2000 160/15 RMK AO2
94908KDBQ DBQ20120614092009906/14/12 09:20:31  5-MIN KDBQ 141520Z 16014G19KT 10SM CLR 22/11 A3003 980 49 2000 160/14G19 RMK AO2
94908KDBQ DBQ20120614092509906/14/12 09:25:31  5-MIN KDBQ 141525Z 16016G19KT 10SM CLR 22/11 A3003 980 49 2100 160/16G19 RMK AO2
94908KDBQ DBQ20120614093009306/14/12 09:30:31  5-MIN KDBQ 141530Z 17013KT 10SM CLR 22/11 A3003 970 49 2100 170/13 RMK AO2
94908KDBQ DBQ20120614093509306/14/12 09:35:31  5-MIN KDBQ 141535Z 18015KT 10SM CLR 23/11 A3003 970 47 2100 170/15 RMK AO2
94908KDBQ DBQ20120614094009306/14/12 09:40:31  5-MIN KDBQ 141540Z 16015KT 10SM CLR 23/11 A3003 980 47 2100 160/15 RMK AO2
94908KDBQ DBQ20120614094509906/14/12 09:45:31  5-MIN KDBQ 141545Z 17015G20KT 10SM CLR 23/12 A3003 980 49 2100 170/15G20 RMK AO2
94908KDBQ DBQ20120614095011606/14/12 09:50:31  5-MIN KDBQ 141550Z 16015G20KT 10SM CLR 23/11 A3002 980 45 2200 160/15G20 RMK AO2 SLP162 T02330111
94908KDBQ DBQ20120614095509906/14/12 09:55:31  5-MIN KDBQ 141555Z 17014G20KT 10SM CLR 23/12 A3002 980 47 2200 170/14G20 RMK AO2
94908KDBQ DBQ20120614100009306/14/12 10:00:31  5-MIN KDBQ 141600Z 18017KT 10SM CLR 23/11 A3002 980 45 2200 180/17 RMK AO2
94908KDBQ DBQ20120614100509306/14/12 10:05:31  5-MIN KDBQ 141605Z 17017KT 10SM CLR 23/11 A3002 990 45 2200 170/17 RMK AO2
94908KDBQ DBQ20120614101009906/14/12 10:10:31  5-MIN KDBQ 141610Z 18017G23KT 10SM CLR 24/12 A3002 990 46 2300 180/17G23 RMK AO2
94908KDBQ DBQ20120614101509906/14/12 10:15:31  5-MIN KDBQ 141615Z 17016G23KT 10SM CLR 24/12 A3003 980 46 2300 170/16G23 RMK AO2
94908KDBQ DBQ20120614102009906/14/12 10:20:31  5-MIN KDBQ 141620Z 17017G24KT 10SM CLR 24/12 A3003 980 46 2300 170/17G24 RMK AO2
94908KDBQ DBQ20120614102509906/14/12 10:25:31  5-MIN KDBQ 141625Z 17016G24KT 10SM CLR 24/12 A3002 980 46 2300 170/16G24 RMK AO2
94908KDBQ DBQ20120614103009906/14/12 10:30:31  5-MIN KDBQ 141630Z 17014G20KT 10SM CLR 24/12 A3002 980 46 2300 170/14G20 RMK AO2
94908KDBQ DBQ20120614103509906/14/12 10:35:31  5-MIN KDBQ 141635Z 19016G21KT 10SM CLR 24/12 A3002 980 46 2300 180/16G21 RMK AO2
94908KDBQ DBQ20120614104009306/14/12 10:40:31  5-MIN KDBQ 141640Z 17016KT 10SM CLR 24/12 A3002 980 44 2300 170/16 RMK AO2
94908KDBQ DBQ20120614104509906/14/12 10:45:31  5-MIN KDBQ 141645Z 18015G22KT 10SM CLR 24/12 A3002 980 46 2300 180/15G22 RMK AO2
94908KDBQ DBQ20120614105011606/14/12 10:50:31  5-MIN KDBQ 141650Z 18014G22KT 10SM CLR 24/12 A3002 980 46 2300 180/14G22 RMK AO2 SLP163 T02440122
94908KDBQ DBQ20120614105509306/14/12 10:55:31  5-MIN KDBQ 141655Z 18014KT 10SM CLR 25/12 A3002 980 44 2400 180/14 RMK AO2
94908KDBQ DBQ20120614110009906/14/12 11:00:31  5-MIN KDBQ 141700Z 18016G21KT 10SM CLR 25/13 A3003 980 46 2400 180/16G21 RMK AO2
94908KDBQ DBQ20120614110509906/14/12 11:05:31  5-MIN KDBQ 141705Z 18014G21KT 10SM CLR 25/12 A3003 980 44 2400 180/14G21 RMK AO2
94908KDBQ DBQ20120614111009906/14/12 11:10:31  5-MIN KDBQ 141710Z 18013G19KT 10SM CLR 25/12 A3002 980 44 2400 180/13G19 RMK AO2
94908KDBQ DBQ20120614111509906/14/12 11:15:31  5-MIN KDBQ 141715Z 17014G19KT 10SM CLR 26/13 A3002 980 44 2500 170/14G19 RMK AO2
94908KDBQ DBQ20120614112009306/14/12 11:20:31  5-MIN KDBQ 141720Z 19014KT 10SM CLR 26/13 A3002 980 44 2500 190/14 RMK AO2
94908KDBQ DBQ20120614112509906/14/12 11:25:31  5-MIN KDBQ 141725Z 17013G20KT 10SM CLR 26/13 A3002 980 44 2500 170/13G20 RMK AO2
94908KDBQ DBQ20120614113009906/14/12 11:30:31  5-MIN KDBQ 141730Z 18016G20KT 10SM CLR 26/13 A3002 990 43 2500 180/16G20 RMK AO2
94908KDBQ DBQ20120614113509906/14/12 11:35:31  5-MIN KDBQ 141735Z 17019G22KT 10SM CLR 26/13 A3002 980 43 2500 170/19G22 RMK AO2
94908KDBQ DBQ20120614114009906/14/12 11:40:31  5-MIN KDBQ 141740Z 17014G22KT 10SM CLR 26/12 A3002 990 41 2500 170/14G22 RMK AO2
94908KDBQ DBQ20120614114509906/14/12 11:45:31  5-MIN KDBQ 141745Z 18016G23KT 10SM CLR 26/13 A3002 990 43 2500 170/16G23 RMK AO2
94908KDBQ DBQ20120614115013406/14/12 11:50:31  5-MIN KDBQ 141750Z 17014G23KT 10SM CLR 26/12 A3002 990 41 2500 170/14G23 RMK AO2 SLP161 T02610122 10261 20144 58003
94908KDBQ DBQ20120614115509906/14/12 11:55:31  5-MIN KDBQ 141755Z 17014G22KT 10SM CLR 27/13 A3002 990 41 2600 170/14G22 RMK AO2
94908KDBQ DBQ20120614120009906/14/12 12:00:31  5-MIN KDBQ 141800Z 19017G25KT 10SM CLR 27/13 A3002 990 41 2600 190/17G25 RMK AO2
94908KDBQ DBQ20120614120509906/14/12 12:05:31  5-MIN KDBQ 141805Z 18015G25KT 10SM CLR 27/13 A3002 990 43 2600 180/15G25 RMK AO2
94908KDBQ DBQ20120614121009906/14/12 12:10:31  5-MIN KDBQ 141810Z 18018G22KT 10SM CLR 27/13 A3002 990 41 2600 180/18G22 RMK AO2
94908KDBQ DBQ20120614121509906/14/12 12:15:31  5-MIN KDBQ 141815Z 17013G22KT 10SM CLR 27/13 A3002 990 41 2600 170/13G22 RMK AO2
94908KDBQ DBQ20120614122009906/14/12 12:20:31  5-MIN KDBQ 141820Z 17016G21KT 10SM CLR 27/13 A3002 990 42 2700 170/16G21 RMK AO2
94908KDBQ DBQ20120614122509906/14/12 12:25:31  5-MIN KDBQ 141825Z 18016G22KT 10SM CLR 27/13 A3002 990 40 2700 170/16G22 RMK AO2
94908KDBQ DBQ20120614123009906/14/12 12:30:31  5-MIN KDBQ 141830Z 18015G22KT 10SM CLR 27/13 A3002 990 40 2700 180/15G22 RMK AO2
94908KDBQ DBQ20120614123509306/14/12 12:35:31  5-MIN KDBQ 141835Z 18015KT 10SM CLR 27/13 A3002 990 40 2700 180/15 RMK AO2
94908KDBQ DBQ20120614124009906/14/12 12:40:31  5-MIN KDBQ 141840Z 18017G20KT 10SM CLR 27/13 A3002 980 40 2700 180/17G20 RMK AO2
94908KDBQ DBQ20120614124509306/14/12 12:45:31  5-MIN KDBQ 141845Z 18016KT 10SM CLR 27/13 A3002 980 40 2700 170/16 RMK AO2
94908KDBQ DBQ20120614125011006/14/12 12:50:31  5-MIN KDBQ 141850Z 19016KT 10SM CLR 27/13 A3002 980 40 2700 190/16 RMK AO2 SLP162 T02720128
94908KDBQ DBQ20120614125509906/14/12 12:55:31  5-MIN KDBQ 141855Z 19015G21KT 10SM CLR 27/13 A3002 980 40 2700 190/15G21 RMK AO2
94908KDBQ DBQ20120614130009906/14/12 13:00:31  5-MIN KDBQ 141900Z 19016G21KT 10SM CLR 27/12 A3002 980 40 2600 190/16G21 RMK AO2
94908KDBQ DBQ20120614130509906/14/12 13:05:31  5-MIN KDBQ 141905Z 19014G20KT 10SM CLR 27/13 A3002 980 40 2700 190/14G20 RMK AO2
94908KDBQ DBQ20120614131009906/14/12 13:10:31  5-MIN KDBQ 141910Z 18013G19KT 10SM CLR 27/13 A3003 980 40 2600 180/13G19 RMK AO2
94908KDBQ DBQ20120614131509906/14/12 13:15:31  5-MIN KDBQ 141915Z 18015G20KT 10SM CLR 27/13 A3003 980 40 2600 180/15G20 RMK AO2
94908KDBQ DBQ20120614132009906/14/12 13:20:31  5-MIN KDBQ 141920Z 17014G20KT 10SM CLR 27/12 A3003 980 39 2600 170/14G20 RMK AO2
94908KDBQ DBQ20120614132509906/14/12 13:25:31  5-MIN KDBQ 141925Z 20011G20KT 10SM CLR 28/13 A3003 980 39 2700 200/11G20 RMK AO2
94908KDBQ DBQ20120614133009306/14/12 13:30:31  5-MIN KDBQ 141930Z 17010KT 10SM CLR 28/13 A3003 980 39 2700 160/10 RMK AO2
94908KDBQ DBQ20120614133509906/14/12 13:35:31  5-MIN KDBQ 141935Z 18012G18KT 10SM CLR 28/13 A3003 980 39 2700 180/12G18 RMK AO2
94908KDBQ DBQ20120614134009906/14/12 13:40:31  5-MIN KDBQ 141940Z 17013G18KT 10SM CLR 28/13 A3003 980 39 2700 170/13G18 RMK AO2
94908KDBQ DBQ20120614134509906/14/12 13:45:31  5-MIN KDBQ 141945Z 17014G19KT 10SM CLR 28/12 A3003 980 37 2700 170/14G19 RMK AO2
94908KDBQ DBQ20120614135011606/14/12 13:50:31  5-MIN KDBQ 141950Z 19016G20KT 10SM CLR 28/12 A3003 980 37 2700 190/16G20 RMK AO2 SLP163 T02780122
94908KDBQ DBQ20120614135509906/14/12 13:55:31  5-MIN KDBQ 141955Z 17009G20KT 10SM CLR 28/13 A3003 980 39 2700 170/09G20 RMK AO2
94908KDBQ DBQ20120614140009906/14/12 14:00:31  5-MIN KDBQ 142000Z 17014G17KT 10SM CLR 28/13 A3002 980 39 2800 170/14G17 RMK AO2
94908KDBQ DBQ20120614140509906/14/12 14:05:31  5-MIN KDBQ 142005Z 18012G18KT 10SM CLR 28/13 A3002 990 39 2700 180/12G18 RMK AO2
94908KDBQ DBQ20120614141009906/14/12 14:10:31  5-MIN KDBQ 142010Z 16014G18KT 10SM CLR 28/13 A3002 990 40 2700 160/14G18 RMK AO2
94908KDBQ DBQ20120614141508906/14/12 14:15:31  5-MIN KDBQ 142015Z 10SM CLR 28/13 A3002 990 40 2700 M /M RMK AO2 PNO $
94908KDBQ DBQ20120614142010106/14/12 14:20:31  5-MIN KDBQ 142020Z 17010G18KT 10SM CLR 28/13 A3002 990 39 2700 170/10G18 RMK AO2 $
94908KDBQ DBQ20120614142510106/14/12 14:25:31  5-MIN KDBQ 142025Z 16015G20KT 10SM CLR 28/13 A3002 990 39 2700 160/15G20 RMK AO2 $
94908KDBQ DBQ20120614143010106/14/12 14:30:31  5-MIN KDBQ 142030Z 16015G20KT 10SM CLR 28/13 A3001 990 39 2700 160/15G20 RMK AO2 $
94908KDBQ DBQ20120614143510106/14/12 14:35:31  5-MIN KDBQ 142035Z 16012G20KT 10SM CLR 28/12 A3002 990 37 2700 160/12G20 RMK AO2 $
94908KDBQ DBQ20120614144009506/14/12 14:40:31  5-MIN KDBQ 142040Z 18012KT 10SM CLR 28/13 A3002 990 37 2800 180/12 RMK AO2 $
94908KDBQ DBQ20120614144510106/14/12 14:45:31  5-MIN KDBQ 142045Z 17015G20KT 10SM CLR 28/12 A3001 990 36 2800 170/15G20 RMK AO2 $
94908KDBQ DBQ20120614145012406/14/12 14:50:31  5-MIN KDBQ 142050Z 19013G20KT 10SM CLR 28/12 A3001 990 36 2800 190/13G20 RMK AO2 SLP158 T02830122 56007 $
94908KDBQ DBQ20120614145510206/14/12 14:55:31  5-MIN KDBQ 142055Z 16013G20KT 10SM CLR 28/13 A3001 1000 37 2800 160/13G20 RMK AO2 $
94908KDBQ DBQ20120614150010206/14/12 15:00:31  5-MIN KDBQ 142100Z 17013G21KT 10SM CLR 28/13 A3001 1000 37 2800 170/13G21 RMK AO2 $
94908KDBQ DBQ20120614150510206/14/12 15:05:31  5-MIN KDBQ 142105Z 17015G21KT 10SM CLR 28/13 A3000 1000 37 2800 170/15G21 RMK AO2 $
94908KDBQ DBQ20120614151010206/14/12 15:10:31  5-MIN KDBQ 142110Z 17012G21KT 10SM CLR 28/12 A3000 1000 36 2800 170/12G21 RMK AO2 $
94908KDBQ DBQ20120614151510206/14/12 15:15:31  5-MIN KDBQ 142115Z 16013G21KT 10SM CLR 28/13 A3000 1010 39 2800 160/13G21 RMK AO2 $
94908KDBQ DBQ20120614152010206/14/12 15:20:31  5-MIN KDBQ 142120Z 17015G21KT 10SM CLR 28/13 A2999 1010 37 2800 170/15G21 RMK AO2 $
94908KDBQ DBQ20120614152510206/14/12 15:25:31  5-MIN KDBQ 142125Z 17015G21KT 10SM CLR 28/12 A2999 1010 37 2700 170/15G21 RMK AO2 $
94908KDBQ DBQ20120614153010206/14/12 15:30:31  5-MIN KDBQ 142130Z 15014G22KT 10SM CLR 28/12 A2999 1010 36 2800 150/14G22 RMK AO2 $
94908KDBQ DBQ20120614153510206/14/12 15:35:31  5-MIN KDBQ 142135Z 16015G22KT 10SM CLR 28/12 A2999 1020 36 2800 160/15G22 RMK AO2 $
94908KDBQ DBQ20120614154010206/14/12 15:40:31  5-MIN KDBQ 142140Z 18016G22KT 10SM CLR 28/12 A2999 1020 36 2800 180/16G22 RMK AO2 $
94908KDBQ DBQ20120614154510206/14/12 15:45:31  5-MIN KDBQ 142145Z 18016G22KT 10SM CLR 28/12 A2999 1010 36 2700 180/16G22 RMK AO2 $
94908KDBQ DBQ20120614155011306/14/12 15:50:31  5-MIN KDBQ 142150Z 16015KT 10SM CLR 28/12 A2999 1010 35 2800 150/15 RMK AO2 SLP151 T02830117 $
94908KDBQ DBQ20120614155510206/14/12 15:55:31  5-MIN KDBQ 142155Z 16015G22KT 10SM CLR 28/12 A2999 1010 36 2800 160/15G22 RMK AO2 $
94908KDBQ DBQ20120614160010206/14/12 16:00:31  5-MIN KDBQ 142200Z 17013G22KT 10SM CLR 28/12 A2999 1010 35 2800 170/13G22 RMK AO2 $
94908KDBQ DBQ20120614160510206/14/12 16:05:31  5-MIN KDBQ 142205Z 17014G22KT 10SM CLR 28/12 A2999 1010 36 2800 170/14G22 RMK AO2 $
94908KDBQ DBQ20120614161010206/14/12 16:10:31  5-MIN KDBQ 142210Z 17013G23KT 10SM CLR 28/12 A2999 1010 35 2800 170/13G23 RMK AO2 $
94908KDBQ DBQ20120614161510206/14/12 16:15:31  5-MIN KDBQ 142215Z 16016G23KT 10SM CLR 28/12 A2999 1010 36 2800 160/16G23 RMK AO2 $
94908KDBQ DBQ20120614162010206/14/12 16:20:31  5-MIN KDBQ 142220Z 19014G20KT 10SM CLR 28/12 A2999 1020 36 2800 180/14G20 RMK AO2 $
94908KDBQ DBQ20120614162510206/14/12 16:25:31  5-MIN KDBQ 142225Z 17016G21KT 10SM CLR 28/12 A2998 1020 36 2800 170/16G21 RMK AO2 $
94908KDBQ DBQ20120614163010206/14/12 16:30:31  5-MIN KDBQ 142230Z 18015G21KT 10SM CLR 28/12 A2998 1020 35 2800 180/15G21 RMK AO2 $
94908KDBQ DBQ20120614163510206/14/12 16:35:31  5-MIN KDBQ 142235Z 18014G21KT 10SM CLR 28/12 A2998 1020 36 2800 180/14G21 RMK AO2 $
94908KDBQ DBQ20120614164010206/14/12 16:40:31  5-MIN KDBQ 142240Z 18015G20KT 10SM CLR 28/12 A2998 1030 37 2800 180/15G20 RMK AO2 $
94908KDBQ DBQ20120614164510206/14/12 16:45:31  5-MIN KDBQ 142245Z 16014G20KT 10SM CLR 28/12 A2997 1030 36 2800 160/14G20 RMK AO2 $
94908KDBQ DBQ20120614165011906/14/12 16:50:31  5-MIN KDBQ 142250Z 16015G21KT 10SM CLR 28/12 A2997 1030 36 2800 160/15G21 RMK AO2 SLP143 T02780117 $
94908KDBQ DBQ20120614165510206/14/12 16:55:31  5-MIN KDBQ 142255Z 17015G21KT 10SM CLR 28/12 A2996 1040 36 2800 170/15G21 RMK AO2 $
94908KDBQ DBQ20120614170010206/14/12 17:00:31  5-MIN KDBQ 142300Z 17017G21KT 10SM CLR 28/12 A2996 1040 36 2800 170/17G21 RMK AO2 $
94908KDBQ DBQ20120614170510206/14/12 17:05:31  5-MIN KDBQ 142305Z 17014G21KT 10SM CLR 28/12 A2996 1040 36 2800 170/14G21 RMK AO2 $
94908KDBQ DBQ20120614171010206/14/12 17:10:31  5-MIN KDBQ 142310Z 18012G21KT 10SM CLR 28/12 A2996 1040 36 2800 180/12G21 RMK AO2 $
94908KDBQ DBQ20120614171509606/14/12 17:15:31  5-MIN KDBQ 142315Z 17012KT 10SM CLR 28/12 A2996 1050 37 2800 170/12 RMK AO2 $
94908KDBQ DBQ20120614172010206/14/12 17:20:31  5-MIN KDBQ 142320Z 16017G23KT 10SM CLR 28/12 A2995 1050 36 2800 160/17G23 RMK AO2 $
94908KDBQ DBQ20120614172510206/14/12 17:25:31  5-MIN KDBQ 142325Z 17014G23KT 10SM CLR 27/12 A2995 1050 37 2700 160/14G23 RMK AO2 $
94908KDBQ DBQ20120614173010206/14/12 17:30:31  5-MIN KDBQ 142330Z 17016G21KT 10SM CLR 27/12 A2995 1050 37 2700 170/16G21 RMK AO2 $
94908KDBQ DBQ20120614173510206/14/12 17:35:31  5-MIN KDBQ 142335Z 16014G21KT 10SM CLR 27/12 A2995 1050 37 2700 160/14G21 RMK AO2 $
94908KDBQ DBQ20120614174009606/14/12 17:40:31  5-MIN KDBQ 142340Z 17016KT 10SM CLR 27/12 A2995 1050 37 2700 170/16 RMK AO2 $
94908KDBQ DBQ20120614174509606/14/12 17:45:31  5-MIN KDBQ 142345Z 17011KT 10SM CLR 27/12 A2995 1050 39 2700 170/11 RMK AO2 $
94908KDBQ DBQ20120614175013706/14/12 17:50:31  5-MIN KDBQ 142350Z 17009G17KT 10SM CLR 27/12 A2995 1050 39 2700 170/09G17 RMK AO2 SLP137 T02720122 10283 20267 58003 $
94908KDBQ DBQ20120614175510206/14/12 17:55:31  5-MIN KDBQ 142355Z 17014G19KT 10SM CLR 27/12 A2995 1050 39 2700 170/14G19 RMK AO2 $
94908KDBQ DBQ20120614180010206/14/12 18:00:31  5-MIN KDBQ 150000Z 17014G19KT 10SM CLR 27/12 A2994 1060 37 2700 170/14G19 RMK AO2 $
94908KDBQ DBQ20120614180509606/14/12 18:05:31  5-MIN KDBQ 150005Z 16012KT 10SM CLR 27/12 A2994 1060 39 2700 160/12 RMK AO2 $
94908KDBQ DBQ20120614181010206/14/12 18:10:31  5-MIN KDBQ 150010Z 16014G19KT 10SM CLR 27/12 A2994 1060 40 2700 160/14G19 RMK AO2 $
94908KDBQ DBQ20120614181510206/14/12 18:15:31  5-MIN KDBQ 150015Z 16010G19KT 10SM CLR 27/12 A2994 1060 38 2700 160/10G19 RMK AO2 $
94908KDBQ DBQ20120614182010206/14/12 18:20:31  5-MIN KDBQ 150020Z 16011G18KT 10SM CLR 27/12 A2994 1060 38 2700 160/11G18 RMK AO2 $
94908KDBQ DBQ20120614182510206/14/12 18:25:31  5-MIN KDBQ 150025Z 15010G18KT 10SM CLR 27/12 A2994 1060 40 2700 150/10G18 RMK AO2 $
94908KDBQ DBQ20120614183009606/14/12 18:30:31  5-MIN KDBQ 150030Z 16013KT 10SM CLR 27/12 A2994 1060 40 2700 160/13 RMK AO2 $
94908KDBQ DBQ20120614183509606/14/12 18:35:31  5-MIN KDBQ 150035Z 16012KT 10SM CLR 26/12 A2993 1070 41 2600 160/12 RMK AO2 $
94908KDBQ DBQ20120614184009606/14/12 18:40:31  5-MIN KDBQ 150040Z 16013KT 10SM CLR 26/12 A2993 1070 41 2600 160/13 RMK AO2 $
94908KDBQ DBQ20120614184509606/14/12 18:45:31  5-MIN KDBQ 150045Z 16011KT 10SM CLR 26/12 A2993 1070 41 2600 160/11 RMK AO2 $
94908KDBQ DBQ20120614185011306/14/12 18:50:31  5-MIN KDBQ 150050Z 16010KT 10SM CLR 26/12 A2993 1070 41 2600 160/10 RMK AO2 SLP131 T02610122 $
94908KDBQ DBQ20120614185510106/14/12 18:55:31  5-MIN KDBQ 150055Z AUTO 16010KT 10SM CLR 26/13 A2993 1070 44 2600 160/10 RMK AO2 $
94908KDBQ DBQ20120614190010106/14/12 19:00:31  5-MIN KDBQ 150100Z AUTO 16012KT 10SM CLR 26/13 A2993 1070 44 2600 160/12 RMK AO2 $
94908KDBQ DBQ20120614190510106/14/12 19:05:31  5-MIN KDBQ 150105Z AUTO 16012KT 10SM CLR 26/12 A2993 1070 43 2600 160/12 RMK AO2 $
94908KDBQ DBQ20120614191010106/14/12 19:10:31  5-MIN KDBQ 150110Z AUTO 16011KT 10SM CLR 26/12 A2993 1070 43 2600 160/11 RMK AO2 $
94908KDBQ DBQ20120614191510106/14/12 19:15:31  5-MIN KDBQ 150115Z AUTO 16012KT 10SM CLR 25/12 A2993 1070 44 2500 160/12 RMK AO2 $
94908KDBQ DBQ20120614192010106/14/12 19:20:31  5-MIN KDBQ 150120Z AUTO 16011KT 10SM CLR 25/12 A2993 1070 44 2500 160/11 RMK AO2 $
94908KDBQ DBQ20120614192510106/14/12 19:25:31  5-MIN KDBQ 150125Z AUTO 16010KT 10SM CLR 24/12 A2993 1070 46 2400 160/10 RMK AO2 $
94908KDBQ DBQ20120614193010106/14/12 19:30:31  5-MIN KDBQ 150130Z AUTO 16009KT 10SM CLR 24/12 A2993 1070 46 2400 160/09 RMK AO2 $
94908KDBQ DBQ20120614193510106/14/12 19:35:31  5-MIN KDBQ 150135Z AUTO 16009KT 10SM CLR 24/12 A2993 1070 47 2400 160/09 RMK AO2 $
94908KDBQ DBQ20120614194010106/14/12 19:40:31  5-MIN KDBQ 150140Z AUTO 16009KT 10SM CLR 24/12 A2993 1070 47 2400 160/09 RMK AO2 $
94908KDBQ DBQ20120614194510106/14/12 19:45:31  5-MIN KDBQ 150145Z AUTO 16009KT 10SM CLR 24/12 A2994 1060 47 2400 160/09 RMK AO2 $
94908KDBQ DBQ20120614195011806/14/12 19:50:31  5-MIN KDBQ 150150Z AUTO 16008KT 10SM CLR 23/12 A2995 1050 49 2300 160/08 RMK AO2 SLP135 T02330122 $
94908KDBQ DBQ20120614195510106/14/12 19:55:31  5-MIN KDBQ 150155Z AUTO 16009KT 10SM CLR 23/12 A2995 1050 49 2300 160/09 RMK AO2 $
94908KDBQ DBQ20120614200010106/14/12 20:00:31  5-MIN KDBQ 150200Z AUTO 16009KT 10SM CLR 23/12 A2995 1050 49 2300 160/09 RMK AO2 $
94908KDBQ DBQ20120614200510106/14/12 20:05:31  5-MIN KDBQ 150205Z AUTO 16010KT 10SM CLR 23/12 A2996 1050 49 2300 160/10 RMK AO2 $
94908KDBQ DBQ20120614201010106/14/12 20:10:31  5-MIN KDBQ 150210Z AUTO 16009KT 10SM CLR 23/12 A2996 1040 47 2300 160/09 RMK AO2 $
94908KDBQ DBQ20120614201510806/14/12 20:15:31  5-MIN KDBQ 150215Z AUTO 17008KT 10SM CLR 23/12 A2997 1030 51 2200 170/08 RMK AO2 PRESRR $
94908KDBQ DBQ20120614202010106/14/12 20:20:31  5-MIN KDBQ 150220Z AUTO 17009KT 10SM CLR 22/12 A2997 1030 52 2100 170/09 RMK AO2 $
94908KDBQ DBQ20120614202510106/14/12 20:25:31  5-MIN KDBQ 150225Z AUTO 17008KT 10SM CLR 22/12 A2997 1030 52 2100 160/08 RMK AO2 $
94908KDBQ DBQ20120614203010106/14/12 20:30:31  5-MIN KDBQ 150230Z AUTO 16007KT 10SM CLR 22/12 A2997 1030 52 2100 160/07 RMK AO2 $
94908KDBQ DBQ20120614203510106/14/12 20:35:31  5-MIN KDBQ 150235Z AUTO 16006KT 10SM CLR 22/12 A2998 1020 52 2100 160/06 RMK AO2 $
94908KDBQ DBQ20120614204010106/14/12 20:40:31  5-MIN KDBQ 150240Z AUTO 15006KT 10SM CLR 22/12 A2998 1020 52 2100 150/06 RMK AO2 $
94908KDBQ DBQ20120614204510106/14/12 20:45:31  5-MIN KDBQ 150245Z AUTO 15008KT 10SM CLR 22/12 A2998 1020 52 2100 150/08 RMK AO2 $
94908KDBQ DBQ20120614205012406/14/12 20:50:31  5-MIN KDBQ 150250Z AUTO 15008KT 10SM CLR 22/12 A2998 1020 52 2100 150/08 RMK AO2 SLP148 T02220122 56020 $
94908KDBQ DBQ20120614205510106/14/12 20:55:31  5-MIN KDBQ 150255Z AUTO 15007KT 10SM CLR 22/12 A2999 1010 52 2100 150/07 RMK AO2 $
94908KDBQ DBQ20120614210010106/14/12 21:00:31  5-MIN KDBQ 150300Z AUTO 16006KT 10SM CLR 22/12 A3000 1010 52 2100 150/06 RMK AO2 $
94908KDBQ DBQ20120614210510106/14/12 21:05:31  5-MIN KDBQ 150305Z AUTO 16004KT 10SM CLR 21/13 A3000 1010 58 2000 160/04 RMK AO2 $
94908KDBQ DBQ20120614211010106/14/12 21:10:31  5-MIN KDBQ 150310Z AUTO 14006KT 10SM CLR 21/13 A2999 1010 60 1900 140/06 RMK AO2 $
94908KDBQ DBQ20120614211510106/14/12 21:15:31  5-MIN KDBQ 150315Z AUTO 13008KT 10SM CLR 21/13 A2999 1010 60 1900 130/08 RMK AO2 $
94908KDBQ DBQ20120614212010106/14/12 21:20:31  5-MIN KDBQ 150320Z AUTO 13008KT 10SM CLR 21/13 A2999 1010 58 2000 130/08 RMK AO2 $
94908KDBQ DBQ20120614212510106/14/12 21:25:31  5-MIN KDBQ 150325Z AUTO 14009KT 10SM CLR 21/13 A2999 1020 58 2000 140/09 RMK AO2 $
94908KDBQ DBQ20120614213010106/14/12 21:30:31  5-MIN KDBQ 150330Z AUTO 15010KT 10SM CLR 21/13 A2999 1020 60 1900 140/10 RMK AO2 $
94908KDBQ DBQ20120614213510106/14/12 21:35:31  5-MIN KDBQ 150335Z AUTO 15009KT 10SM CLR 21/13 A2998 1020 60 1900 150/09 RMK AO2 $
94908KDBQ DBQ20120614214010106/14/12 21:40:31  5-MIN KDBQ 150340Z AUTO 15011KT 10SM CLR 21/13 A2998 1030 58 2000 150/11 RMK AO2 $
94908KDBQ DBQ20120614214510106/14/12 21:45:31  5-MIN KDBQ 150345Z AUTO 15012KT 10SM CLR 21/13 A2997 1030 58 2000 150/12 RMK AO2 $
94908KDBQ DBQ20120614215012506/14/12 21:50:31  5-MIN KDBQ 150350Z AUTO 15014KT 10SM CLR 22/13 A2996 1040 56 2100 150/14 RMK AO2 PRESFR SLP141 T02170128 $
94908KDBQ DBQ20120614215510106/14/12 21:55:31  5-MIN KDBQ 150355Z AUTO 15013KT 10SM CLR 22/13 A2996 1040 56 2100 150/13 RMK AO2 $
94908KDBQ DBQ20120614220010106/14/12 22:00:31  5-MIN KDBQ 150400Z AUTO 16014KT 10SM CLR 22/13 A2996 1040 56 2100 150/14 RMK AO2 $
94908KDBQ DBQ20120614220510106/14/12 22:05:31  5-MIN KDBQ 150405Z AUTO 16014KT 10SM CLR 22/13 A2996 1040 58 2100 160/14 RMK AO2 $
94908KDBQ DBQ20120614221010106/14/12 22:10:31  5-MIN KDBQ 150410Z AUTO 16012KT 10SM CLR 22/13 A2997 1040 58 2100 160/12 RMK AO2 $
94908KDBQ DBQ20120614221510106/14/12 22:15:31  5-MIN KDBQ 150415Z AUTO 16012KT 10SM CLR 22/13 A2997 1030 58 2100 160/12 RMK AO2 $
94908KDBQ DBQ20120614222010106/14/12 22:20:31  5-MIN KDBQ 150420Z AUTO 16012KT 10SM CLR 22/13 A2997 1030 58 2100 160/12 RMK AO2 $
94908KDBQ DBQ20120614222510106/14/12 22:25:31  5-MIN KDBQ 150425Z AUTO 16011KT 10SM CLR 22/13 A2998 1030 58 2100 160/11 RMK AO2 $
94908KDBQ DBQ20120614223010106/14/12 22:30:31  5-MIN KDBQ 150430Z AUTO 16011KT 10SM CLR 22/13 A2998 1020 58 2100 160/11 RMK AO2 $
94908KDBQ DBQ20120614223510106/14/12 22:35:31  5-MIN KDBQ 150435Z AUTO 16010KT 10SM CLR 21/13 A2998 1030 61 2000 150/10 RMK AO2 $
94908KDBQ DBQ20120614224010106/14/12 22:40:31  5-MIN KDBQ 150440Z AUTO 15012KT 10SM CLR 21/13 A2998 1020 61 2000 150/12 RMK AO2 $
94908KDBQ DBQ20120614224510106/14/12 22:45:31  5-MIN KDBQ 150445Z AUTO 16010KT 10SM CLR 21/13 A2998 1020 61 2000 150/10 RMK AO2 $
94908KDBQ DBQ20120614225011806/14/12 22:50:31  5-MIN KDBQ 150450Z AUTO 16010KT 10SM CLR 21/13 A2998 1020 61 2000 160/10 RMK AO2 SLP147 T02110133 $
94908KDBQ DBQ20120614225510106/14/12 22:55:31  5-MIN KDBQ 150455Z AUTO 16009KT 10SM CLR 21/13 A2999 1020 61 2000 150/09 RMK AO2 $
94908KDBQ DBQ20120614230010106/14/12 23:00:31  5-MIN KDBQ 150500Z AUTO 16009KT 10SM CLR 21/13 A2999 1010 61 2000 160/09 RMK AO2 $
94908KDBQ DBQ20120614230510106/14/12 23:05:31  5-MIN KDBQ 150505Z AUTO 16008KT 10SM CLR 21/13 A2999 1010 63 1900 160/08 RMK AO2 $
94908KDBQ DBQ20120614231010106/14/12 23:10:31  5-MIN KDBQ 150510Z AUTO 16008KT 10SM CLR 21/13 A2999 1010 63 1900 160/08 RMK AO2 $
94908KDBQ DBQ20120614231510106/14/12 23:15:31  5-MIN KDBQ 150515Z AUTO 16008KT 10SM CLR 21/13 A3000 1010 63 1900 160/08 RMK AO2 $
94908KDBQ DBQ20120614232010106/14/12 23:20:31  5-MIN KDBQ 150520Z AUTO 16009KT 10SM CLR 21/13 A3000 1010 63 1900 160/09 RMK AO2 $
94908KDBQ DBQ20120614232510106/14/12 23:25:31  5-MIN KDBQ 150525Z AUTO 16009KT 10SM CLR 21/13 A3000 1000 63 1900 160/09 RMK AO2 $
94908KDBQ DBQ20120614233010106/14/12 23:30:31  5-MIN KDBQ 150530Z AUTO 16009KT 10SM CLR 21/13 A3001 1000 63 1900 160/09 RMK AO2 $
94908KDBQ DBQ20120614233510006/14/12 23:35:31  5-MIN KDBQ 150535Z AUTO 16009KT 10SM CLR 21/13 A3002 990 63 1900 160/09 RMK AO2 $
94908KDBQ DBQ20120614234010006/14/12 23:40:31  5-MIN KDBQ 150540Z AUTO 16009KT 10SM CLR 21/13 A3002 990 63 1900 160/09 RMK AO2 $
94908KDBQ DBQ20120614234510006/14/12 23:45:31  5-MIN KDBQ 150545Z AUTO 16008KT 10SM CLR 20/14 A3002 980 67 1800 160/08 RMK AO2 $
94908KDBQ DBQ20120614235014506/14/12 23:50:31  5-MIN KDBQ 150550Z AUTO 16007KT 10SM CLR 20/14 A3003 980 67 1800 160/07 RMK AO2 SLP162 T02000139 10272 20200 402830133 53014 $
94908KDBQ DBQ20120614235510006/14/12 23:55:31  5-MIN KDBQ 150555Z AUTO 16007KT 10SM CLR 19/14 A3003 980 70 1800 160/07 RMK AO2 $
94908KDBQ DBQ20120615000010006/15/12 00:00:38  5-MIN KDBQ 150600Z AUTO 16007KT 10SM CLR 19/14 A3003 980 70 1800 160/07 RMK AO2 $
94908KDBQ DBQ20120615000510006/15/12 00:05:31  5-MIN KDBQ 150605Z AUTO 15007KT 10SM CLR 19/14 A3003 980 70 1800 150/07 RMK AO2 $
94908KDBQ DBQ20120615001010006/15/12 00:10:31  5-MIN KDBQ 150610Z AUTO 15008KT 10SM CLR 19/14 A3003 980 70 1800 150/08 RMK AO2 $
94908KDBQ DBQ20120615001510006/15/12 00:15:33  5-MIN KDBQ 150615Z AUTO 15009KT 10SM CLR 19/14 A3002 980 70 1800 150/09 RMK AO2 $
94908KDBQ DBQ20120615002010006/15/12 00:20:31  5-MIN KDBQ 150620Z AUTO 15009KT 10SM CLR 19/14 A3002 980 70 1800 150/09 RMK AO2 $
94908KDBQ DBQ20120615002510006/15/12 00:25:31  5-MIN KDBQ 150625Z AUTO 15008KT 10SM CLR 19/14 A3003 980 70 1800 150/08 RMK AO2 $
94908KDBQ DBQ20120615003010006/15/12 00:30:31  5-MIN KDBQ 150630Z AUTO 15008KT 10SM CLR 19/14 A3003 980 70 1800 150/08 RMK AO2 $
94908KDBQ DBQ20120615003510006/15/12 00:35:31  5-MIN KDBQ 150635Z AUTO 15008KT 10SM CLR 19/14 A3003 980 70 1800 150/08 RMK AO2 $
94908KDBQ DBQ20120615004010006/15/12 00:40:31  5-MIN KDBQ 150640Z AUTO 15009KT 10SM CLR 19/14 A3003 980 70 1800 150/09 RMK AO2 $
94908KDBQ DBQ20120615004510006/15/12 00:45:31  5-MIN KDBQ 150645Z AUTO 15008KT 10SM CLR 20/14 A3003 980 67 1800 150/08 RMK AO2 $
94908KDBQ DBQ20120615005011706/15/12 00:50:31  5-MIN KDBQ 150650Z AUTO 15007KT 10SM CLR 19/14 A3003 980 70 1800 140/07 RMK AO2 SLP161 T01940139 $
94908KDBQ DBQ20120615005510006/15/12 00:55:31  5-MIN KDBQ 150655Z AUTO 15008KT 10SM CLR 19/14 A3003 980 70 1800 150/08 RMK AO2 $
94908KDBQ DBQ20120615010010006/15/12 01:00:31  5-MIN KDBQ 150700Z AUTO 15008KT 10SM CLR 19/14 A3003 980 70 1800 150/08 RMK AO2 $
94908KDBQ DBQ20120615010510006/15/12 01:05:31  5-MIN KDBQ 150705Z AUTO 15007KT 10SM CLR 19/14 A3003 980 72 1700 150/07 RMK AO2 $
94908KDBQ DBQ20120615011010006/15/12 01:10:31  5-MIN KDBQ 150710Z AUTO 15008KT 10SM CLR 19/14 A3003 980 72 1700 140/08 RMK AO2 $
94908KDBQ DBQ20120615011510006/15/12 01:15:31  5-MIN KDBQ 150715Z AUTO 15007KT 10SM CLR 19/14 A3003 980 72 1700 150/07 RMK AO2 $
94908KDBQ DBQ20120615012010006/15/12 01:20:31  5-MIN KDBQ 150720Z AUTO 15007KT 10SM CLR 19/14 A3003 980 72 1700 150/07 RMK AO2 $
94908KDBQ DBQ20120615012510006/15/12 01:25:31  5-MIN KDBQ 150725Z AUTO 15007KT 10SM CLR 19/14 A3003 980 72 1700 150/07 RMK AO2 $
94908KDBQ DBQ20120615013010006/15/12 01:30:31  5-MIN KDBQ 150730Z AUTO 15007KT 10SM CLR 19/14 A3003 980 72 1700 150/07 RMK AO2 $
94908KDBQ DBQ20120615013510006/15/12 01:35:31  5-MIN KDBQ 150735Z AUTO 16008KT 10SM CLR 19/14 A3003 980 70 1800 150/08 RMK AO2 $
94908KDBQ DBQ20120615014010006/15/12 01:40:31  5-MIN KDBQ 150740Z AUTO 15008KT 10SM CLR 19/14 A3003 980 70 1800 150/08 RMK AO2 $
94908KDBQ DBQ20120615014510006/15/12 01:45:31  5-MIN KDBQ 150745Z AUTO 15008KT 10SM CLR 19/14 A3003 980 70 1800 150/08 RMK AO2 $
94908KDBQ DBQ20120615015011706/15/12 01:50:31  5-MIN KDBQ 150750Z AUTO 15008KT 10SM CLR 19/14 A3002 980 72 1700 150/08 RMK AO2 SLP161 T01890139 $
94908KDBQ DBQ20120615015510006/15/12 01:55:31  5-MIN KDBQ 150755Z AUTO 15009KT 10SM CLR 19/14 A3002 990 72 1700 150/09 RMK AO2 $
94908KDBQ DBQ20120615020010006/15/12 02:00:31  5-MIN KDBQ 150800Z AUTO 15009KT 10SM CLR 19/14 A3002 990 72 1700 150/09 RMK AO2 $
94908KDBQ DBQ20120615020510006/15/12 02:05:31  5-MIN KDBQ 150805Z AUTO 14010KT 10SM CLR 19/14 A3001 990 72 1700 140/10 RMK AO2 $
94908KDBQ DBQ20120615021010006/15/12 02:10:31  5-MIN KDBQ 150810Z AUTO 14010KT 10SM CLR 19/14 A3001 990 72 1700 140/10 RMK AO2 $
94908KDBQ DBQ20120615021510106/15/12 02:15:31  5-MIN KDBQ 150815Z AUTO 14010KT 10SM CLR 19/14 A3001 1000 72 1700 140/10 RMK AO2 $
94908KDBQ DBQ20120615022010106/15/12 02:20:31  5-MIN KDBQ 150820Z AUTO 14010KT 10SM CLR 19/14 A3001 1000 72 1700 140/10 RMK AO2 $
94908KDBQ DBQ20120615022510106/15/12 02:25:31  5-MIN KDBQ 150825Z AUTO 15011KT 10SM CLR 19/14 A3000 1000 72 1700 140/11 RMK AO2 $
94908KDBQ DBQ20120615023010106/15/12 02:30:31  5-MIN KDBQ 150830Z AUTO 15010KT 10SM CLR 19/14 A3000 1000 72 1700 150/10 RMK AO2 $
94908KDBQ DBQ20120615023510106/15/12 02:35:31  5-MIN KDBQ 150835Z AUTO 15010KT 10SM CLR 19/14 A3000 1000 72 1700 150/10 RMK AO2 $
94908KDBQ DBQ20120615024010106/15/12 02:40:31  5-MIN KDBQ 150840Z AUTO 15009KT 10SM CLR 19/14 A3000 1000 72 1700 150/09 RMK AO2 $
94908KDBQ DBQ20120615024510106/15/12 02:45:31  5-MIN KDBQ 150845Z AUTO 15010KT 10SM CLR 19/14 A3000 1000 72 1700 150/10 RMK AO2 $
94908KDBQ DBQ20120615025012406/15/12 02:50:31  5-MIN KDBQ 150850Z AUTO 15009KT 10SM CLR 19/14 A3000 1000 72 1700 150/09 RMK AO2 SLP152 T01890139 53013 $
94908KDBQ DBQ20120615025510106/15/12 02:55:31  5-MIN KDBQ 150855Z AUTO 14011KT 10SM CLR 18/14 A3000 1010 75 1700 140/11 RMK AO2 $
94908KDBQ DBQ20120615030010106/15/12 03:00:31  5-MIN KDBQ 150900Z AUTO 14010KT 10SM CLR 18/14 A3000 1010 75 1700 140/10 RMK AO2 $
94908KDBQ DBQ20120615030510106/15/12 03:05:31  5-MIN KDBQ 150905Z AUTO 14011KT 10SM CLR 18/14 A2999 1010 75 1700 140/11 RMK AO2 $
94908KDBQ DBQ20120615031010106/15/12 03:10:31  5-MIN KDBQ 150910Z AUTO 14011KT 10SM CLR 18/14 A2999 1010 75 1700 140/11 RMK AO2 $
94908KDBQ DBQ20120615031510106/15/12 03:15:31  5-MIN KDBQ 150915Z AUTO 14010KT 10SM CLR 18/14 A2999 1010 75 1700 140/10 RMK AO2 $
94908KDBQ DBQ20120615032010106/15/12 03:20:31  5-MIN KDBQ 150920Z AUTO 14010KT 10SM CLR 18/14 A2999 1010 75 1700 140/10 RMK AO2 $
94908KDBQ DBQ20120615032510106/15/12 03:25:31  5-MIN KDBQ 150925Z AUTO 15011KT 10SM CLR 18/14 A2999 1010 78 1600 150/11 RMK AO2 $
94908KDBQ DBQ20120615033010106/15/12 03:30:31  5-MIN KDBQ 150930Z AUTO 15010KT 10SM CLR 18/14 A2999 1010 78 1600 150/10 RMK AO2 $
94908KDBQ DBQ20120615033510106/15/12 03:35:31  5-MIN KDBQ 150935Z AUTO 15009KT 10SM CLR 18/14 A2999 1010 75 1700 150/09 RMK AO2 $
94908KDBQ DBQ20120615034010106/15/12 03:40:31  5-MIN KDBQ 150940Z AUTO 15011KT 10SM CLR 18/14 A2999 1010 75 1700 150/11 RMK AO2 $
94908KDBQ DBQ20120615034510106/15/12 03:45:31  5-MIN KDBQ 150945Z AUTO 15012KT 10SM CLR 18/14 A2999 1010 75 1700 150/12 RMK AO2 $
94908KDBQ DBQ20120615035011806/15/12 03:50:31  5-MIN KDBQ 150950Z AUTO 16011KT 10SM CLR 19/14 A2999 1010 72 1700 160/11 RMK AO2 SLP150 T01890139 $
94908KDBQ DBQ20120615035510106/15/12 03:55:31  5-MIN KDBQ 150955Z AUTO 16010KT 10SM CLR 18/14 A2999 1010 75 1700 160/10 RMK AO2 $
94908KDBQ DBQ20120615040010106/15/12 04:00:31  5-MIN KDBQ 151000Z AUTO 16011KT 10SM CLR 18/14 A3000 1010 75 1700 160/11 RMK AO2 $
94908KDBQ DBQ20120615040510106/15/12 04:05:31  5-MIN KDBQ 151005Z AUTO 16011KT 10SM CLR 18/14 A2999 1010 75 1700 160/11 RMK AO2 $
94908KDBQ DBQ20120615041010106/15/12 04:10:31  5-MIN KDBQ 151010Z AUTO 16011KT 10SM CLR 18/14 A3000 1010 75 1700 160/11 RMK AO2 $
94908KDBQ DBQ20120615143008706/15/12 14:30:31  5-MIN KDBQ 152030Z AUTO M M M M /M RMK AO2 PWINO FZRANO TSNO RVRNO $
94908KDBQ DBQ20120615143508706/15/12 14:35:31  5-MIN KDBQ 152035Z AUTO M M M M /M RMK AO2 PWINO FZRANO TSNO RVRNO $
94908KDBQ DBQ20120615144008706/15/12 14:40:31  5-MIN KDBQ 152040Z AUTO M M M M /M RMK AO2 PWINO FZRANO TSNO RVRNO $
94908KDBQ DBQ20120615145511806/15/12 14:55:31  5-MIN KDBQ 152055Z AUTO 12011G15KT 10SM CLR 30/17 A2999 1020 45 3000 120/11G15 RMK AO2 PWINO TSNO $
94908KDBQ DBQ20120615150010206/15/12 15:00:31  5-MIN KDBQ 152100Z 12011G15KT 10SM CLR 30/17 A2999 1020 45 3000 120/11G15 RMK AO2 $
94908KDBQ DBQ20120615150510206/15/12 15:05:31  5-MIN KDBQ 152105Z 12011G15KT 10SM CLR 30/17 A2999 1020 45 3000 120/11G15 RMK AO2 $
94908KDBQ DBQ20120615151009406/15/12 15:10:31  5-MIN KDBQ 152110Z 13011KT 10SM CLR 30/16 A3000 1000 42 3000 130/11 RMK AO2
94908KDBQ DBQ20120615151509406/15/12 15:15:31  5-MIN KDBQ 152115Z 14008KT 10SM CLR 29/16 A3000 1010 44 2900 140/08 RMK AO2
94908KDBQ DBQ20120615152009406/15/12 15:20:31  5-MIN KDBQ 152120Z 12010KT 10SM CLR 30/16 A3000 1010 42 3000 120/10 RMK AO2
94908KDBQ DBQ20120615152509406/15/12 15:25:31  5-MIN KDBQ 152125Z 13013KT 10SM CLR 30/16 A3000 1010 42 3000 130/13 RMK AO2
94908KDBQ DBQ20120615153009406/15/12 15:30:31  5-MIN KDBQ 152130Z 12011KT 10SM CLR 30/16 A2999 1010 41 3000 120/11 RMK AO2
94908KDBQ DBQ20120615153509406/15/12 15:35:31  5-MIN KDBQ 152135Z 12010KT 10SM CLR 30/15 A2999 1010 39 3000 120/10 RMK AO2
94908KDBQ DBQ20120615154009406/15/12 15:40:31  5-MIN KDBQ 152140Z 11011KT 10SM CLR 30/15 A2999 1010 39 3000 110/11 RMK AO2
94908KDBQ DBQ20120615154509406/15/12 15:45:31  5-MIN KDBQ 152145Z 11011KT 10SM CLR 29/16 A2999 1020 42 2900 110/11 RMK AO2
94908KDBQ DBQ20120615155011006/15/12 15:50:31  5-MIN KDBQ 152150Z 11012KT 10SM CLR 29/15 A2999 1020 41 2900 110/12 RMK AO2 SLPNO T02940150
94908KDBQ DBQ20120615155510006/15/12 15:55:31  5-MIN KDBQ 152155Z 13012G16KT 10SM CLR 30/15 A2998 1020 39 3000 130/12G16 RMK AO2
94908KDBQ DBQ20120615160010006/15/12 16:00:31  5-MIN KDBQ 152200Z 13012G16KT 10SM CLR 31/13 A2998 1020 34 3100 130/12G16 RMK AO2
94908KDBQ DBQ20120615160509406/15/12 16:05:31  5-MIN KDBQ 152205Z 13010KT 10SM CLR 31/13 A2998 1020 34 3100 130/10 RMK AO2
94908KDBQ DBQ20120615161009406/15/12 16:10:31  5-MIN KDBQ 152210Z 12012KT 10SM CLR 31/13 A2998 1030 34 3100 120/12 RMK AO2
94908KDBQ DBQ20120615161509906/15/12 16:15:31  5-MIN KDBQ 152215Z 12012G20KT 9SM CLR 30/13 A2997 1030 35 3000 120/12G20 RMK AO2
94908KDBQ DBQ20120615162009906/15/12 16:20:31  5-MIN KDBQ 152220Z 13014G20KT 9SM CLR 30/13 A2997 1030 34 3000 130/14G20 RMK AO2
94908KDBQ DBQ20120615162509906/15/12 16:25:31  5-MIN KDBQ 152225Z 13015G21KT 8SM CLR 31/12 A2997 1030 30 3100 130/15G21 RMK AO2
94908KDBQ DBQ20120615163009906/15/12 16:30:31  5-MIN KDBQ 152230Z 12016G21KT 7SM CLR 30/12 A2997 1040 31 3000 120/16G21 RMK AO2
94908KDBQ DBQ20120615163509906/15/12 16:35:31  5-MIN KDBQ 152235Z 13015G20KT 9SM CLR 31/12 A2997 1040 32 3100 130/15G20 RMK AO2
94908KDBQ DBQ20120615164009306/15/12 16:40:31  5-MIN KDBQ 152240Z 13016KT 9SM CLR 30/13 A2997 1040 35 3000 130/16 RMK AO2
94908KDBQ DBQ20120615164509306/15/12 16:45:31  5-MIN KDBQ 152245Z 13013KT 9SM CLR 29/13 A2996 1040 35 3000 130/13 RMK AO2
94908KDBQ DBQ20120615165011606/15/12 16:50:31  5-MIN KDBQ 152250Z 12015G20KT 10SM CLR 29/13 A2996 1040 36 3000 120/15G20 RMK AO2 SLPNO T02940133
94908KDBQ DBQ20120615165510006/15/12 16:55:31  5-MIN KDBQ 152255Z 12015G20KT 10SM CLR 29/13 A2996 1050 36 3000 120/15G20 RMK AO2
94908KDBQ DBQ20120615170009406/15/12 17:00:31  5-MIN KDBQ 152300Z 12014KT 10SM CLR 29/14 A2996 1050 38 3000 120/14 RMK AO2
94908KDBQ DBQ20120615170510006/15/12 17:05:31  5-MIN KDBQ 152305Z 13012G19KT 10SM CLR 29/14 A2996 1040 38 3000 120/12G19 RMK AO2
94908KDBQ DBQ20120615171010006/15/12 17:10:31  5-MIN KDBQ 152310Z 13014G19KT 10SM CLR 30/14 A2996 1040 38 3000 130/14G19 RMK AO2
94908KDBQ DBQ20120615171509406/15/12 17:15:31  5-MIN KDBQ 152315Z 13011KT 10SM CLR 29/14 A2996 1040 39 3000 130/11 RMK AO2
94908KDBQ DBQ20120615172009406/15/12 17:20:31  5-MIN KDBQ 152320Z 14010KT 10SM CLR 29/14 A2997 1040 38 3000 140/10 RMK AO2
94908KDBQ DBQ20120615172509406/15/12 17:25:31  5-MIN KDBQ 152325Z 14010KT 10SM CLR 29/14 A2996 1040 39 2900 130/10 RMK AO2
94908KDBQ DBQ20120615173009406/15/12 17:30:31  5-MIN KDBQ 152330Z 13013KT 10SM CLR 29/14 A2996 1040 39 2900 130/13 RMK AO2
94908KDBQ DBQ20120615173509406/15/12 17:35:31  5-MIN KDBQ 152335Z 13012KT 10SM CLR 29/14 A2996 1040 39 2900 130/12 RMK AO2
94908KDBQ DBQ20120615174009406/15/12 17:40:31  5-MIN KDBQ 152340Z 13010KT 10SM CLR 29/13 A2997 1040 38 2900 130/10 RMK AO2
94908KDBQ DBQ20120615174509306/15/12 17:45:31  5-MIN KDBQ 152345Z 14006KT 8SM CLR 28/14 A2997 1030 42 2800 140/06 RMK AO2
94908KDBQ DBQ20120615175011506/15/12 17:50:31  5-MIN KDBQ 152350Z 13008KT 7SM CLR 28/14 A2997 1040 42 2800 130/08 RMK AO2 SLPNO 6//// T02830144
94908KDBQ DBQ20120615175509306/15/12 17:55:31  5-MIN KDBQ 152355Z 13009KT 9SM CLR 28/14 A2996 1040 40 2800 130/09 RMK AO2
94908KDBQ DBQ20120615180009406/15/12 18:00:31  5-MIN KDBQ 160000Z 13009KT 10SM CLR 28/14 A2996 1040 43 2800 130/09 RMK AO2
94908KDBQ DBQ20120615180509406/15/12 18:05:31  5-MIN KDBQ 160005Z 13008KT 10SM CLR 28/14 A2997 1040 43 2800 130/08 RMK AO2
94908KDBQ DBQ20120615181009406/15/12 18:10:31  5-MIN KDBQ 160010Z 12008KT 10SM CLR 28/14 A2996 1040 43 2800 120/08 RMK AO2
94908KDBQ DBQ20120615181509406/15/12 18:15:31  5-MIN KDBQ 160015Z 13008KT 10SM CLR 28/15 A2997 1040 45 2800 120/08 RMK AO2
94908KDBQ DBQ20120615182009406/15/12 18:20:31  5-MIN KDBQ 160020Z 13008KT 10SM CLR 27/14 A2997 1030 45 2700 120/08 RMK AO2
94908KDBQ DBQ20120615182509406/15/12 18:25:31  5-MIN KDBQ 160025Z 13007KT 10SM CLR 27/14 A2997 1030 45 2700 130/07 RMK AO2
94908KDBQ DBQ20120615183009406/15/12 18:30:31  5-MIN KDBQ 160030Z 13007KT 10SM CLR 27/15 A2997 1030 48 2600 130/07 RMK AO2
94908KDBQ DBQ20120615183509406/15/12 18:35:31  5-MIN KDBQ 160035Z 13006KT 10SM CLR 27/15 A2997 1030 48 2600 130/06 RMK AO2
94908KDBQ DBQ20120615184009406/15/12 18:40:31  5-MIN KDBQ 160040Z 13005KT 10SM CLR 26/15 A2998 1030 50 2600 130/05 RMK AO2
94908KDBQ DBQ20120615184509906/15/12 18:45:31  5-MIN KDBQ 160045Z AUTO 12005KT 10SM CLR 26/15 A2998 1030 50 2600 120/05 RMK AO2
94908KDBQ DBQ20120615185011506/15/12 18:50:31  5-MIN KDBQ 160050Z AUTO 12005KT 10SM CLR 26/15 A2998 1030 50 2600 120/05 RMK AO2 SLPNO T02610150
94908KDBQ DBQ20120615185509906/15/12 18:55:31  5-MIN KDBQ 160055Z AUTO 11006KT 10SM CLR 26/15 A2998 1030 50 2600 110/06 RMK AO2
94908KDBQ DBQ20120615190009906/15/12 19:00:31  5-MIN KDBQ 160100Z AUTO 11006KT 10SM CLR 26/15 A2998 1030 51 2500 110/06 RMK AO2
94908KDBQ DBQ20120615190509906/15/12 19:05:31  5-MIN KDBQ 160105Z AUTO 11005KT 10SM CLR 26/15 A2998 1030 51 2500 110/05 RMK AO2
94908KDBQ DBQ20120615191009906/15/12 19:10:31  5-MIN KDBQ 160110Z AUTO 11005KT 10SM CLR 25/16 A2997 1030 55 2500 110/05 RMK AO2
94908KDBQ DBQ20120615191509906/15/12 19:15:31  5-MIN KDBQ 160115Z AUTO 10005KT 10SM CLR 25/15 A2997 1030 53 2500 100/05 RMK AO2
94908KDBQ DBQ20120615192009906/15/12 19:20:31  5-MIN KDBQ 160120Z AUTO 10006KT 10SM CLR 25/15 A2998 1030 53 2500 100/06 RMK AO2
94908KDBQ DBQ20120615192509906/15/12 19:25:31  5-MIN KDBQ 160125Z AUTO 11005KT 10SM CLR 25/15 A2998 1020 53 2500 110/05 RMK AO2
94908KDBQ DBQ20120615193009906/15/12 19:30:31  5-MIN KDBQ 160130Z AUTO 12003KT 10SM CLR 24/16 A2998 1020 57 2400 120/03 RMK AO2
94908KDBQ DBQ20120615193509906/15/12 19:35:31  5-MIN KDBQ 160135Z AUTO 12003KT 10SM CLR 24/16 A2999 1020 57 2400 120/03 RMK AO2
94908KDBQ DBQ20120615194009906/15/12 19:40:31  5-MIN KDBQ 160140Z AUTO 12003KT 10SM CLR 24/16 A2999 1020 57 2400 120/03 RMK AO2
94908KDBQ DBQ20120615194509906/15/12 19:45:31  5-MIN KDBQ 160145Z AUTO 12004KT 10SM CLR 24/16 A2999 1010 57 2400 120/04 RMK AO2
94908KDBQ DBQ20120615195011506/15/12 19:50:31  5-MIN KDBQ 160150Z AUTO 12005KT 10SM CLR 24/16 A2999 1010 57 2400 110/05 RMK AO2 SLPNO T02440156
94908KDBQ DBQ20120615195509906/15/12 19:55:31  5-MIN KDBQ 160155Z AUTO 12004KT 10SM CLR 24/16 A2999 1010 59 2300 120/04 RMK AO2
94908KDBQ DBQ20120615200009906/15/12 20:00:31  5-MIN KDBQ 160200Z AUTO 12006KT 10SM CLR 23/16 A2999 1010 61 2200 120/06 RMK AO2
94908KDBQ DBQ20120615200509906/15/12 20:05:31  5-MIN KDBQ 160205Z AUTO 12006KT 10SM CLR 24/16 A2999 1010 59 2300 120/06 RMK AO2
94908KDBQ DBQ20120615201009906/15/12 20:10:31  5-MIN KDBQ 160210Z AUTO 12006KT 10SM CLR 23/16 A2999 1010 61 2200 120/06 RMK AO2
94908KDBQ DBQ20120615201509906/15/12 20:15:31  5-MIN KDBQ 160215Z AUTO 12006KT 10SM CLR 24/16 A3000 1010 59 2300 120/06 RMK AO2
94908KDBQ DBQ20120615202009906/15/12 20:20:31  5-MIN KDBQ 160220Z AUTO 13006KT 10SM CLR 24/16 A3000 1010 59 2300 130/06 RMK AO2
94908KDBQ DBQ20120615202509906/15/12 20:25:31  5-MIN KDBQ 160225Z AUTO 13005KT 10SM CLR 24/16 A3000 1010 59 2300 130/05 RMK AO2
94908KDBQ DBQ20120615203009906/15/12 20:30:31  5-MIN KDBQ 160230Z AUTO 14005KT 10SM CLR 24/16 A3000 1000 61 2300 140/05 RMK AO2
94908KDBQ DBQ20120615203509906/15/12 20:35:31  5-MIN KDBQ 160235Z AUTO 13005KT 10SM CLR 24/16 A3000 1000 61 2300 130/05 RMK AO2
94908KDBQ DBQ20120615204009906/15/12 20:40:31  5-MIN KDBQ 160240Z AUTO 13005KT 10SM CLR 24/16 A3000 1000 57 2400 130/05 RMK AO2
94908KDBQ DBQ20120615204509906/15/12 20:45:31  5-MIN KDBQ 160245Z AUTO 13006KT 10SM CLR 24/16 A3000 1000 57 2400 130/06 RMK AO2
94908KDBQ DBQ20120615205011506/15/12 20:50:31  5-MIN KDBQ 160250Z AUTO 13006KT 10SM CLR 24/16 A3000 1000 57 2400 130/06 RMK AO2 SLPNO T02440156
94908KDBQ DBQ20120615205509906/15/12 20:55:31  5-MIN KDBQ 160255Z AUTO 13005KT 10SM CLR 24/16 A3000 1000 57 2400 130/05 RMK AO2
94908KDBQ DBQ20120615210009906/15/12 21:00:31  5-MIN KDBQ 160300Z AUTO 14006KT 10SM CLR 24/16 A3000 1000 57 2400 140/06 RMK AO2
94908KDBQ DBQ20120615210509906/15/12 21:05:31  5-MIN KDBQ 160305Z AUTO 14006KT 10SM CLR 24/16 A3000 1000 59 2300 140/06 RMK AO2
94908KDBQ DBQ20120615211009906/15/12 21:10:31  5-MIN KDBQ 160310Z AUTO 14007KT 10SM CLR 24/16 A3000 1000 59 2300 140/07 RMK AO2
94908KDBQ DBQ20120615211509906/15/12 21:15:31  5-MIN KDBQ 160315Z AUTO 14008KT 10SM CLR 24/16 A3000 1000 59 2300 140/08 RMK AO2
94908KDBQ DBQ20120615212009906/15/12 21:20:31  5-MIN KDBQ 160320Z AUTO 14008KT 10SM CLR 24/16 A3000 1000 57 2400 140/08 RMK AO2
94908KDBQ DBQ20120615212509906/15/12 21:25:31  5-MIN KDBQ 160325Z AUTO 14008KT 10SM CLR 24/16 A3000 1000 57 2400 140/08 RMK AO2
94908KDBQ DBQ20120615213009906/15/12 21:30:31  5-MIN KDBQ 160330Z AUTO 14008KT 10SM CLR 24/16 A3000 1000 57 2400 140/08 RMK AO2
94908KDBQ DBQ20120615213509906/15/12 21:35:31  5-MIN KDBQ 160335Z AUTO 14008KT 10SM CLR 24/16 A3000 1000 57 2400 140/08 RMK AO2
94908KDBQ DBQ20120615214009906/15/12 21:40:31  5-MIN KDBQ 160340Z AUTO 14008KT 10SM CLR 24/16 A3000 1000 57 2400 140/08 RMK AO2
94908KDBQ DBQ20120615214509906/15/12 21:45:31  5-MIN KDBQ 160345Z AUTO 14007KT 10SM CLR 24/16 A3001 1000 57 2400 140/07 RMK AO2
94908KDBQ DBQ20120615215011506/15/12 21:50:31  5-MIN KDBQ 160350Z AUTO 15007KT 10SM CLR 24/16 A3001 1000 57 2400 140/07 RMK AO2 SLPNO T02440156
94908KDBQ DBQ20120615215509906/15/12 21:55:31  5-MIN KDBQ 160355Z AUTO 15006KT 10SM CLR 24/15 A3001 1000 55 2400 150/06 RMK AO2
94908KDBQ DBQ20120615220009906/15/12 22:00:31  5-MIN KDBQ 160400Z AUTO 15008KT 10SM CLR 25/15 A3001 1000 53 2400 150/08 RMK AO2
94908KDBQ DBQ20120615220509906/15/12 22:05:31  5-MIN KDBQ 160405Z AUTO 15008KT 10SM CLR 25/15 A3001 1000 53 2400 150/08 RMK AO2
94908KDBQ DBQ20120615221009906/15/12 22:10:31  5-MIN KDBQ 160410Z AUTO 15008KT 10SM CLR 25/15 A3000 1000 53 2400 150/08 RMK AO2
94908KDBQ DBQ20120615221509906/15/12 22:15:31  5-MIN KDBQ 160415Z AUTO 14007KT 10SM CLR 25/15 A3000 1000 53 2400 140/07 RMK AO2
94908KDBQ DBQ20120615222009906/15/12 22:20:31  5-MIN KDBQ 160420Z AUTO 15008KT 10SM CLR 24/15 A3000 1000 55 2400 150/08 RMK AO2
94908KDBQ DBQ20120615222509906/15/12 22:25:31  5-MIN KDBQ 160425Z AUTO 16010KT 10SM CLR 25/15 A3000 1000 53 2400 150/10 RMK AO2
94908KDBQ DBQ20120615223009906/15/12 22:30:31  5-MIN KDBQ 160430Z AUTO 16011KT 10SM CLR 25/15 A3000 1010 53 2400 160/11 RMK AO2
94908KDBQ DBQ20120615223509906/15/12 22:35:31  5-MIN KDBQ 160435Z AUTO 17009KT 10SM CLR 25/15 A3000 1000 53 2400 170/09 RMK AO2
94908KDBQ DBQ20120615224009906/15/12 22:40:31  5-MIN KDBQ 160440Z AUTO 17008KT 10SM CLR 25/15 A3000 1000 53 2400 170/08 RMK AO2
94908KDBQ DBQ20120615224509906/15/12 22:45:31  5-MIN KDBQ 160445Z AUTO 16007KT 10SM CLR 25/15 A3000 1010 53 2400 160/07 RMK AO2
94908KDBQ DBQ20120615225011506/15/12 22:50:31  5-MIN KDBQ 160450Z AUTO 16008KT 10SM CLR 25/16 A3000 1010 55 2400 160/08 RMK AO2 SLPNO T02500156
94908KDBQ DBQ20120615225509906/15/12 22:55:31  5-MIN KDBQ 160455Z AUTO 16008KT 10SM CLR 25/16 A3000 1010 55 2400 160/08 RMK AO2
94908KDBQ DBQ20120615230009906/15/12 23:00:31  5-MIN KDBQ 160500Z AUTO 16008KT 10SM CLR 24/16 A2999 1010 57 2400 160/08 RMK AO2
94908KDBQ DBQ20120615230509906/15/12 23:05:31  5-MIN KDBQ 160505Z AUTO 17007KT 10SM CLR 24/16 A3000 1010 57 2400 170/07 RMK AO2
94908KDBQ DBQ20120615231009906/15/12 23:10:31  5-MIN KDBQ 160510Z AUTO 17008KT 10SM CLR 24/16 A2999 1010 57 2400 170/08 RMK AO2
94908KDBQ DBQ20120615231509906/15/12 23:15:31  5-MIN KDBQ 160515Z AUTO 16007KT 10SM CLR 24/16 A2999 1010 59 2300 160/07 RMK AO2
94908KDBQ DBQ20120615232009906/15/12 23:20:31  5-MIN KDBQ 160520Z AUTO 16007KT 10SM CLR 24/16 A2999 1010 59 2300 160/07 RMK AO2
94908KDBQ DBQ20120615232509906/15/12 23:25:31  5-MIN KDBQ 160525Z AUTO 16007KT 10SM CLR 24/16 A2999 1020 59 2300 160/07 RMK AO2
94908KDBQ DBQ20120615233009906/15/12 23:30:31  5-MIN KDBQ 160530Z AUTO 16007KT 10SM CLR 24/16 A2999 1020 59 2300 160/07 RMK AO2
94908KDBQ DBQ20120615233509906/15/12 23:35:31  5-MIN KDBQ 160535Z AUTO 17006KT 10SM CLR 23/16 A2999 1020 61 2300 170/06 RMK AO2
94908KDBQ DBQ20120615234009906/15/12 23:40:31  5-MIN KDBQ 160540Z AUTO 18006KT 10SM CLR 23/16 A2999 1020 63 2200 180/06 RMK AO2
94908KDBQ DBQ20120615234509906/15/12 23:45:31  5-MIN KDBQ 160545Z AUTO 18006KT 10SM CLR 23/16 A2999 1020 63 2200 180/06 RMK AO2
94908KDBQ DBQ20120615235014306/15/12 23:50:31  5-MIN KDBQ 160550Z AUTO 18005KT 10SM CLR 23/16 A2998 1020 63 2200 180/05 RMK AO2 SLPNO T02280156 10283 20228 403060228 53013
94908KDBQ DBQ20120615235509906/15/12 23:55:31  5-MIN KDBQ 160555Z AUTO 20005KT 10SM CLR 22/16 A2998 1020 68 2100 190/05 RMK AO2
94908KDBQ DBQ20120616000009906/16/12 00:00:38  5-MIN KDBQ 160600Z AUTO 19006KT 10SM CLR 22/16 A2998 1020 68 2100 190/06 RMK AO2
94908KDBQ DBQ20120616000509906/16/12 00:05:31  5-MIN KDBQ 160605Z AUTO 19006KT 10SM CLR 22/16 A2998 1020 68 2100 190/06 RMK AO2
94908KDBQ DBQ20120616001009906/16/12 00:10:31  5-MIN KDBQ 160610Z AUTO 19006KT 10SM CLR 22/16 A2998 1020 70 2100 190/06 RMK AO2
94908KDBQ DBQ20120616001509906/16/12 00:15:31  5-MIN KDBQ 160615Z AUTO 20005KT 10SM CLR 22/16 A2998 1020 70 2100 200/05 RMK AO2
94908KDBQ DBQ20120616002009906/16/12 00:20:31  5-MIN KDBQ 160620Z AUTO 18005KT 10SM CLR 22/16 A2998 1020 68 2100 180/05 RMK AO2
94908KDBQ DBQ20120616002509906/16/12 00:25:31  5-MIN KDBQ 160625Z AUTO 19005KT 10SM CLR 22/16 A2998 1020 70 2100 190/05 RMK AO2
94908KDBQ DBQ20120616003009906/16/12 00:30:31  5-MIN KDBQ 160630Z AUTO 20005KT 10SM CLR 22/16 A2998 1020 70 2100 200/05 RMK AO2
94908KDBQ DBQ20120616003509906/16/12 00:35:31  5-MIN KDBQ 160635Z AUTO 21004KT 10SM CLR 22/16 A2998 1020 70 2100 210/04 RMK AO2
94908KDBQ DBQ20120616004009906/16/12 00:40:31  5-MIN KDBQ 160640Z AUTO 21004KT 10SM CLR 22/16 A2998 1020 70 2100 210/04 RMK AO2
94908KDBQ DBQ20120616004509906/16/12 00:45:31  5-MIN KDBQ 160645Z AUTO 20003KT 10SM CLR 22/16 A2998 1020 70 2100 200/03 RMK AO2
94908KDBQ DBQ20120616005011506/16/12 00:50:31  5-MIN KDBQ 160650Z AUTO 22003KT 10SM CLR 22/16 A2998 1020 70 2100 220/03 RMK AO2 SLPNO T02170161
94908KDBQ DBQ20120616005509906/16/12 00:55:31  5-MIN KDBQ 160655Z AUTO 20003KT 10SM CLR 22/16 A2998 1020 70 2100 200/03 RMK AO2
94908KDBQ DBQ20120616010009906/16/12 01:00:31  5-MIN KDBQ 160700Z AUTO 18003KT 10SM CLR 22/16 A2998 1020 70 2100 180/03 RMK AO2
94908KDBQ DBQ20120616010509906/16/12 01:05:31  5-MIN KDBQ 160705Z AUTO 19003KT 10SM CLR 22/16 A2998 1030 70 2100 190/03 RMK AO2
94908KDBQ DBQ20120616011009906/16/12 01:10:31  5-MIN KDBQ 160710Z AUTO 18003KT 10SM CLR 22/16 A2998 1030 70 2100 180/03 RMK AO2
94908KDBQ DBQ20120616011509906/16/12 01:15:31  5-MIN KDBQ 160715Z AUTO 00000KT 10SM CLR 22/16 A2998 1030 70 2100 000/00 RMK AO2
94908KDBQ DBQ20120616012009906/16/12 01:20:31  5-MIN KDBQ 160720Z AUTO 21005KT 10SM CLR 22/16 A2998 1020 70 2100 210/05 RMK AO2
94908KDBQ DBQ20120616012509906/16/12 01:25:31  5-MIN KDBQ 160725Z AUTO 20003KT 10SM CLR 21/16 A2998 1020 75 1900 200/03 RMK AO2
94908KDBQ DBQ20120616013009906/16/12 01:30:31  5-MIN KDBQ 160730Z AUTO 00000KT 10SM CLR 21/16 A2998 1020 73 2000 000/00 RMK AO2
94908KDBQ DBQ20120616013509906/16/12 01:35:31  5-MIN KDBQ 160735Z AUTO 21003KT 10SM CLR 21/16 A2999 1020 73 2000 210/03 RMK AO2
94908KDBQ DBQ20120616014009906/16/12 01:40:31  5-MIN KDBQ 160740Z AUTO 21004KT 10SM CLR 21/16 A2999 1010 73 2000 210/04 RMK AO2
94908KDBQ DBQ20120616014510206/16/12 01:45:31  5-MIN KDBQ 160745Z AUTO 23006KT 10SM FEW050 21/17 A2999 1010 78 1900 230/06 RMK AO2
94908KDBQ DBQ20120616015011806/16/12 01:50:31  5-MIN KDBQ 160750Z AUTO 23006KT 10SM SCT050 20/17 A2999 1020 81 1900 230/06 RMK AO2 SLPNO T02000167
94908KDBQ DBQ20120616015510206/16/12 01:55:31  5-MIN KDBQ 160755Z AUTO 22004KT 10SM SCT050 20/17 A2998 1020 81 1900 210/04 RMK AO2
94908KDBQ DBQ20120616020010206/16/12 02:00:31  5-MIN KDBQ 160800Z AUTO 18003KT 10SM FEW050 21/17 A2998 1030 75 2000 180/03 RMK AO2
94908KDBQ DBQ20120616020510206/16/12 02:05:31  5-MIN KDBQ 160805Z AUTO 17003KT 10SM FEW050 21/17 A2998 1030 75 2000 170/03 RMK AO2
94908KDBQ DBQ20120616021010206/16/12 02:10:31  5-MIN KDBQ 160810Z AUTO 18003KT 10SM FEW050 21/17 A2997 1030 75 2000 180/03 RMK AO2
94908KDBQ DBQ20120616021510206/16/12 02:15:31  5-MIN KDBQ 160815Z AUTO 16004KT 10SM FEW050 21/17 A2996 1040 75 2000 160/04 RMK AO2
94908KDBQ DBQ20120616022009906/16/12 02:20:31  5-MIN KDBQ 160820Z AUTO 15004KT 10SM CLR 21/17 A2996 1040 75 2000 150/04 RMK AO2
94908KDBQ DBQ20120616022509906/16/12 02:25:31  5-MIN KDBQ 160825Z AUTO 14006KT 10SM CLR 21/17 A2996 1050 75 2000 140/06 RMK AO2
94908KDBQ DBQ20120616023009906/16/12 02:30:31  5-MIN KDBQ 160830Z AUTO 15005KT 10SM CLR 21/17 A2995 1050 75 2000 140/05 RMK AO2
94908KDBQ DBQ20120616023509906/16/12 02:35:31  5-MIN KDBQ 160835Z AUTO 14004KT 10SM CLR 21/17 A2995 1050 75 2000 140/04 RMK AO2
94908KDBQ DBQ20120616024009906/16/12 02:40:31  5-MIN KDBQ 160840Z AUTO 16004KT 10SM CLR 21/17 A2995 1050 75 2000 150/04 RMK AO2
94908KDBQ DBQ20120616024509906/16/12 02:45:31  5-MIN KDBQ 160845Z AUTO 17008KT 10SM CLR 22/17 A2996 1040 70 2200 170/08 RMK AO2
94908KDBQ DBQ20120616025012106/16/12 02:50:31  5-MIN KDBQ 160850Z AUTO 16006KT 10SM CLR 22/17 A2996 1040 73 2100 160/06 RMK AO2 SLPNO T02170167 58007
94908KDBQ DBQ20120616025509906/16/12 02:55:31  5-MIN KDBQ 160855Z AUTO 16007KT 10SM CLR 22/17 A2996 1040 73 2100 160/07 RMK AO2
94908KDBQ DBQ20120616030009906/16/12 03:00:31  5-MIN KDBQ 160900Z AUTO 17005KT 10SM CLR 22/17 A2996 1050 73 2100 160/05 RMK AO2
94908KDBQ DBQ20120616030509906/16/12 03:05:31  5-MIN KDBQ 160905Z AUTO 16006KT 10SM CLR 22/17 A2996 1050 73 2100 160/06 RMK AO2
94908KDBQ DBQ20120616031009906/16/12 03:10:31  5-MIN KDBQ 160910Z AUTO 18008KT 10SM CLR 22/17 A2996 1040 73 2100 180/08 RMK AO2
94908KDBQ DBQ20120616031510206/16/12 03:15:31  5-MIN KDBQ 160915Z AUTO 18007KT 10SM FEW090 21/17 A2996 1050 75 2000 180/07 RMK AO2
94908KDBQ DBQ20120616032010206/16/12 03:20:31  5-MIN KDBQ 160920Z AUTO 18006KT 10SM SCT090 21/17 A2996 1050 75 2000 180/06 RMK AO2
94908KDBQ DBQ20120616032510206/16/12 03:25:31  5-MIN KDBQ 160925Z AUTO 17007KT 10SM BKN090 21/17 A2996 1040 75 2000 170/07 RMK AO2
94908KDBQ DBQ20120616033010906/16/12 03:30:31  5-MIN KDBQ 160930Z AUTO 17008KT 10SM SCT090 BKN120 21/17 A2996 1040 75 2000 170/08 RMK AO2
94908KDBQ DBQ20120616033510906/16/12 03:35:31  5-MIN KDBQ 160935Z AUTO 17007KT 10SM SCT090 SCT120 21/17 A2996 1040 75 2000 160/07 RMK AO2
94908KDBQ DBQ20120616034010906/16/12 03:40:31  5-MIN KDBQ 160940Z AUTO 17008KT 10SM SCT090 SCT120 21/17 A2996 1040 75 2000 170/08 RMK AO2
94908KDBQ DBQ20120616034510906/16/12 03:45:31  5-MIN KDBQ 160945Z AUTO 17006KT 10SM FEW090 SCT120 21/17 A2996 1040 78 2000 170/06 RMK AO2
94908KDBQ DBQ20120616035011906/16/12 03:50:31  5-MIN KDBQ 160950Z AUTO 17007KT 10SM FEW095 21/17 A2996 1040 78 2000 170/07 RMK AO2 SLP137 T02110172
94908KDBQ DBQ20120616035510206/16/12 03:55:31  5-MIN KDBQ 160955Z AUTO 17006KT 10SM FEW120 21/17 A2996 1040 78 2000 170/06 RMK AO2
94908KDBQ DBQ20120616040010206/16/12 04:00:31  5-MIN KDBQ 161000Z AUTO 17007KT 10SM SCT110 21/17 A2996 1040 78 2000 170/07 RMK AO2
94908KDBQ DBQ20120616040510206/16/12 04:05:31  5-MIN KDBQ 161005Z AUTO 18007KT 10SM BKN110 21/17 A2996 1040 78 2000 180/07 RMK AO2
94908KDBQ DBQ20120616041010206/16/12 04:10:31  5-MIN KDBQ 161010Z AUTO 18006KT 10SM BKN110 21/17 A2996 1040 78 2000 180/06 RMK AO2
94908KDBQ DBQ20120616041510206/16/12 04:15:31  5-MIN KDBQ 161015Z AUTO 18006KT 10SM BKN110 21/17 A2996 1040 81 2000 170/06 RMK AO2
94908KDBQ DBQ20120616042010906/16/12 04:20:31  5-MIN KDBQ 161020Z AUTO 17006KT 10SM FEW075 OVC100 21/17 A2996 1040 81 2000 170/06 RMK AO2
94908KDBQ DBQ20120616042511606/16/12 04:25:31  5-MIN KDBQ 161025Z AUTO 16006KT 10SM FEW050 SCT075 OVC100 21/17 A2996 1040 81 2000 160/06 RMK AO2
94908KDBQ DBQ20120616043011606/16/12 04:30:31  5-MIN KDBQ 161030Z AUTO 15008KT 10SM SCT050 BKN080 OVC100 21/17 A2996 1040 81 2000 150/08 RMK AO2
94908KDBQ DBQ20120616043511606/16/12 04:35:31  5-MIN KDBQ 161035Z AUTO 18007KT 10SM BKN048 BKN075 OVC100 21/18 A2997 1030 84 2000 180/07 RMK AO2
94908KDBQ DBQ20120616044011606/16/12 04:40:31  5-MIN KDBQ 161040Z AUTO 16007KT 10SM BKN047 BKN075 OVC100 21/18 A2997 1040 84 2000 160/07 RMK AO2
94908KDBQ DBQ20120616044511106/16/12 04:45:31  5-MIN KDBQ 161045Z 16007KT 10SM SCT044 BKN050 OVC095 21/18 A2996 1040 84 2000 160/07 RMK AO2
94908KDBQ DBQ20120616045012806/16/12 04:50:31  5-MIN KDBQ 161050Z 17008KT 10SM SCT044 BKN050 BKN095 21/18 A2997 1030 84 2000 170/08 RMK AO2 SLP140 T02060178
94908KDBQ DBQ20120616045511106/16/12 04:55:31  5-MIN KDBQ 161055Z 17007KT 10SM SCT047 BKN065 BKN095 21/18 A2997 1040 84 2000 170/07 RMK AO2
94908KDBQ DBQ20120616050011106/16/12 05:00:31  5-MIN KDBQ 161100Z 17009KT 10SM SCT045 BKN060 BKN090 21/18 A2997 1030 84 2000 170/09 RMK AO2
94908KDBQ DBQ20120616050511106/16/12 05:05:31  5-MIN KDBQ 161105Z 18008KT 10SM FEW021 SCT045 BKN065 21/18 A2997 1030 84 2000 180/08 RMK AO2
94908KDBQ DBQ20120616051011106/16/12 05:10:31  5-MIN KDBQ 161110Z 19007KT 10SM SCT019 SCT047 BKN060 21/18 A2997 1030 84 2000 190/07 RMK AO2
94908KDBQ DBQ20120616051511106/16/12 05:15:31  5-MIN KDBQ 161115Z 19009KT 10SM BKN019 BKN065 BKN110 21/18 A2997 1030 87 2000 190/09 RMK AO2
94908KDBQ DBQ20120616052012606/16/12 05:20:31  5-MIN KDBQ 161120Z 19009KT 8SM -RA BKN017 BKN065 OVC110 21/18 A2998 1030 84 2000 190/09 RMK AO2 RAB19 P0000
94908KDBQ DBQ20120616052512606/16/12 05:25:31  5-MIN KDBQ 161125Z 19009KT 4SM -RA BKN017 BKN034 OVC065 21/18 A2998 1030 84 2000 190/09 RMK AO2 RAB19 P0000
94908KDBQ DBQ20120616053012206/16/12 05:30:31  5-MIN KDBQ 161130Z 18008KT 3SM -RA BR BKN017 OVC034 21/19 A2998 1030 90 1900 180/08 RMK AO2 RAB19 P0001
94908KDBQ DBQ20120616053512806/16/12 05:35:31  5-MIN KDBQ 161135Z 18009KT 3SM RA BR BKN015 BKN021 OVC075 21/19 A2998 1020 90 1900 180/09 RMK AO2 RAB19 P0002
94908KDBQ DBQ20120616054012906/16/12 05:40:31  5-MIN KDBQ 161140Z 18009KT 3SM -RA BR BKN015 BKN049 OVC075 20/19 A2998 1030 93 1900 180/09 RMK AO2 RAB19 P0003
94908KDBQ DBQ20120616054512906/16/12 05:45:31  5-MIN KDBQ 161145Z 19011KT 4SM -RA BR BKN015 BKN055 OVC075 20/19 A2998 1030 93 1900 190/11 RMK AO2 RAB19 P0003
94908KDBQ DBQ20120616055017306/16/12 05:50:31  5-MIN KDBQ 161150Z 19011KT 7SM -RA SCT015 BKN020 OVC075 20/19 A2998 1020 93 1900 190/11 RMK AO2 RAB19 SLP144 P0003 60003 7//// T02000189 10222 20200 58007
94908KDBQ DBQ20120616055511006/16/12 05:55:31  5-MIN KDBQ 161155Z 19010KT 8SM SCT015 BKN023 OVC075 20/19 A2998 1030 93 1900 190/10 RMK AO2
94908KDBQ DBQ20120616060011206/16/12 06:00:31  5-MIN KDBQ 161200Z 19008KT 8SM SCT015 BKN023 OVC055 21/19 A2998 1030 90 1900 190/08 RMK AO2 $
94908KDBQ DBQ20120616060511206/16/12 06:05:31  5-MIN KDBQ 161205Z 18008KT 8SM FEW015 BKN049 OVC060 21/19 A2997 1030 90 2000 180/08 RMK AO2 $
94908KDBQ DBQ20120616061011206/16/12 06:10:31  5-MIN KDBQ 161210Z 18011KT 8SM FEW015 BKN037 OVC060 21/19 A2997 1030 90 2000 180/11 RMK AO2 $
94908KDBQ DBQ20120616061511206/16/12 06:15:31  5-MIN KDBQ 161215Z 18008KT 8SM FEW015 BKN049 OVC060 21/19 A2997 1030 90 2000 180/08 RMK AO2 $
94908KDBQ DBQ20120616062011206/16/12 06:20:31  5-MIN KDBQ 161220Z 18010KT 8SM SCT013 BKN022 BKN047 21/19 A2997 1030 90 2000 180/10 RMK AO2 $
94908KDBQ DBQ20120616062511206/16/12 06:25:31  5-MIN KDBQ 161225Z 19009KT 8SM BKN013 BKN047 OVC055 21/19 A2997 1030 90 2000 190/09 RMK AO2 $
94908KDBQ DBQ20120616063011206/16/12 06:30:31  5-MIN KDBQ 161230Z 18009KT 8SM BKN013 BKN049 OVC060 21/19 A2997 1030 90 2000 180/09 RMK AO2 $
94908KDBQ DBQ20120616063511206/16/12 06:35:31  5-MIN KDBQ 161235Z 18010KT 8SM BKN013 BKN055 OVC100 21/19 A2997 1030 90 2000 180/10 RMK AO2 $
94908KDBQ DBQ20120616064010506/16/12 06:40:31  5-MIN KDBQ 161240Z 19011KT 9SM BKN013 OVC100 21/19 A2997 1030 93 2000 190/11 RMK AO2 $
94908KDBQ DBQ20120616064510606/16/12 06:45:31  5-MIN KDBQ 161245Z 18011KT 10SM BKN013 OVC095 21/19 A2998 1030 90 1900 180/11 RMK AO2 $
94908KDBQ DBQ20120616065012306/16/12 06:50:31  5-MIN KDBQ 161250Z 19012KT 10SM BKN013 OVC095 21/19 A2998 1030 93 1900 190/12 RMK AO2 SLP145 T02060194 $
94908KDBQ DBQ20120616065510606/16/12 06:55:31  5-MIN KDBQ 161255Z 18012KT 10SM BKN013 OVC095 21/19 A2997 1030 90 2000 180/12 RMK AO2 $
94908KDBQ DBQ20120616070010606/16/12 07:00:31  5-MIN KDBQ 161300Z 19011KT 10SM BKN013 OVC095 21/19 A2997 1030 90 2000 180/11 RMK AO2 $
94908KDBQ DBQ20120616070511306/16/12 07:05:31  5-MIN KDBQ 161305Z 19014KT 10SM FEW010 BKN013 OVC095 21/19 A2997 1030 90 2000 190/14 RMK AO2 $
94908KDBQ DBQ20120616071010606/16/12 07:10:31  5-MIN KDBQ 161310Z 19012KT 10SM FEW010 OVC013 21/19 A2997 1030 90 2000 190/12 RMK AO2 $
94908KDBQ DBQ20120616071509906/16/12 07:15:31  5-MIN KDBQ 161315Z 19012KT 10SM OVC013 21/19 A2997 1030 90 2000 190/12 RMK AO2 $
94908KDBQ DBQ20120616072009906/16/12 07:20:31  5-MIN KDBQ 161320Z 19014KT 10SM OVC013 21/19 A2997 1030 87 2000 190/14 RMK AO2 $
94908KDBQ DBQ20120616072510606/16/12 07:25:31  5-MIN KDBQ 161325Z 19013KT 10SM BKN011 OVC027 21/19 A2997 1030 87 2000 190/13 RMK AO2 $
94908KDBQ DBQ20120616073011206/16/12 07:30:31  5-MIN KDBQ 161330Z 20014G20KT 10SM BKN011 OVC027 21/19 A2997 1030 87 2000 200/14G20 RMK AO2 $
94908KDBQ DBQ20120616073511206/16/12 07:35:31  5-MIN KDBQ 161335Z 21016G20KT 10SM BKN011 OVC027 21/19 A2997 1030 87 2000 200/16G20 RMK AO2 $
94908KDBQ DBQ20120616074010606/16/12 07:40:31  5-MIN KDBQ 161340Z 20013KT 10SM BKN011 OVC027 21/19 A2997 1030 87 2000 200/13 RMK AO2 $
94908KDBQ DBQ20120616074511806/16/12 07:45:31  5-MIN KDBQ 161345Z 20013KT 10SM BKN011 OVC027 21/19 A2998 1030 90 2000 200/13 RMK AO2 CIG 008V013 $
94908KDBQ DBQ20120616075013506/16/12 07:50:31  5-MIN KDBQ 161350Z 20012KT 10SM BKN011 BKN014 21/19 A2998 1030 90 2000 200/12 RMK AO2 CIG 008V012 SLP145 T02110194 $
94908KDBQ DBQ20120616075509906/16/12 07:55:31  5-MIN KDBQ 161355Z 20012KT 10SM BKN011 21/19 A2998 1020 90 2000 200/12 RMK AO2 $
94908KDBQ DBQ20120616080009906/16/12 08:00:31  5-MIN KDBQ 161400Z 20012KT 10SM BKN011 21/19 A2998 1020 90 2000 200/12 RMK AO2 $
94908KDBQ DBQ20120616080510606/16/12 08:05:31  5-MIN KDBQ 161405Z 20011KT 10SM BKN011 OVC015 21/19 A2998 1020 90 2000 200/11 RMK AO2 $
94908KDBQ DBQ20120616081009906/16/12 08:10:31  5-MIN KDBQ 161410Z 20012KT 10SM OVC011 21/19 A2998 1020 90 2000 200/12 RMK AO2 $
94908KDBQ DBQ20120616081509906/16/12 08:15:31  5-MIN KDBQ 161415Z 21013KT 10SM BKN013 21/19 A2998 1020 90 2000 200/13 RMK AO2 $
94908KDBQ DBQ20120616082009906/16/12 08:20:31  5-MIN KDBQ 161420Z 20013KT 10SM BKN013 22/19 A2998 1030 87 2100 200/13 RMK AO2 $
94908KDBQ DBQ20120616082510506/16/12 08:25:31  5-MIN KDBQ 161425Z 20012G18KT 10SM BKN013 22/19 A2997 1030 87 2100 200/12G18 RMK AO2 $
94908KDBQ DBQ20120616083010506/16/12 08:30:31  5-MIN KDBQ 161430Z 21011G18KT 10SM BKN013 22/19 A2997 1030 87 2100 200/11G18 RMK AO2 $
94908KDBQ DBQ20120616083510606/16/12 08:35:31  5-MIN KDBQ 161435Z 20011KT 10SM SCT013 SCT120 22/19 A2997 1030 87 2100 200/11 RMK AO2 $
94908KDBQ DBQ20120616084010606/16/12 08:40:31  5-MIN KDBQ 161440Z 20013KT 10SM FEW013 SCT110 22/19 A2997 1030 87 2100 200/13 RMK AO2 $
94908KDBQ DBQ20120616084510606/16/12 08:45:31  5-MIN KDBQ 161445Z 20013KT 10SM FEW013 SCT110 22/19 A2997 1030 84 2100 200/13 RMK AO2 $
94908KDBQ DBQ20120616085009906/16/12 08:50:31  5-MIN KDBQ 161450Z 20012KT 10SM BKN013 22/20 A2997 1040 87 2200 200/12 RMK AO2 $
94908KDBQ DBQ20120616085509906/16/12 08:55:31  5-MIN KDBQ 161455Z 20013KT 10SM BKN013 23/20 A2997 1040 84 2200 200/13 RMK AO2 $
94908KDBQ DBQ20120616090010506/16/12 09:00:31  5-MIN KDBQ 161500Z 20011G20KT 10SM BKN013 23/20 A2996 1040 84 2200 200/11G20 RMK AO2 $
94908KDBQ DBQ20120616090509906/16/12 09:05:31  5-MIN KDBQ 161505Z 20014KT 10SM BKN013 23/19 A2997 1040 81 2200 200/14 RMK AO2 $
94908KDBQ DBQ20120616091009906/16/12 09:10:31  5-MIN KDBQ 161510Z 20014KT 10SM BKN013 23/20 A2996 1040 84 2200 200/14 RMK AO2 $
94908KDBQ DBQ20120616110011906/16/12 11:00:31  5-MIN KDBQ 161700Z 23014G18KT 10SM FEW028 SCT032 BKN042 26/19 A2995 1050 68 2600 230/14G18 RMK AO2 $
94908KDBQ DBQ20120616110511906/16/12 11:05:31  5-MIN KDBQ 161705Z 23014G18KT 10SM SCT028 SCT033 BKN040 25/19 A2994 1060 68 2500 230/14G18 RMK AO2 $
94908KDBQ DBQ20120616111011906/16/12 11:10:31  5-MIN KDBQ 161710Z 23014G20KT 10SM SCT028 BKN035 BKN043 26/19 A2994 1060 66 2600 230/14G20 RMK AO2 $
94908KDBQ DBQ20120616111511906/16/12 11:15:31  5-MIN KDBQ 161715Z 21014G20KT 10SM SCT028 BKN033 OVC049 26/19 A2994 1060 64 2600 210/14G20 RMK AO2 $
94908KDBQ DBQ20120616112011306/16/12 11:20:31  5-MIN KDBQ 161720Z 24014KT 10SM SCT027 SCT032 BKN041 27/19 A2994 1060 64 2700 240/14 RMK AO2 $
94908KDBQ DBQ20120616112511306/16/12 11:25:31  5-MIN KDBQ 161725Z 23013KT 10SM SCT029 BKN041 BKN049 27/19 A2994 1060 64 2700 230/13 RMK AO2 $
94908KDBQ DBQ20120616113010606/16/12 11:30:31  5-MIN KDBQ 161730Z 24013KT 10SM FEW029 BKN039 27/19 A2994 1060 62 2700 240/13 RMK AO2 $
94908KDBQ DBQ20120616113511906/16/12 11:35:31  5-MIN KDBQ 161735Z 24012G20KT 10SM SCT029 BKN039 BKN047 26/19 A2994 1060 66 2600 240/12G20 RMK AO2 $
94908KDBQ DBQ20120616114011906/16/12 11:40:31  5-MIN KDBQ 161740Z 23013G20KT 10SM FEW029 SCT036 BKN045 27/19 A2994 1060 62 2700 230/13G20 RMK AO2 $
94908KDBQ DBQ20120616114511306/16/12 11:45:31  5-MIN KDBQ 161745Z 23013KT 10SM SCT036 SCT045 BKN055 26/18 A2993 1070 62 2600 230/13 RMK AO2 $
94908KDBQ DBQ20120616115015406/16/12 11:50:31  5-MIN KDBQ 161750Z 24012G19KT 10SM FEW036 BKN047 BKN055 27/19 A2993 1070 62 2700 230/12G19 RMK AO2 SLP127 T02670189 10267 20200 58004 $
94908KDBQ DBQ20120616115510606/16/12 11:55:31  5-MIN KDBQ 161755Z 23015KT 10SM FEW036 BKN050 27/19 A2992 1080 62 2800 230/15 RMK AO2 $
94908KDBQ DBQ20120616120011306/16/12 12:00:31  5-MIN KDBQ 161800Z 24013KT 10SM FEW036 SCT047 BKN055 27/19 A2993 1070 62 2800 240/13 RMK AO2 $
94908KDBQ DBQ20120616120511906/16/12 12:05:31  5-MIN KDBQ 161805Z 23016G20KT 10SM FEW036 SCT047 BKN055 27/19 A2992 1080 60 2800 230/16G20 RMK AO2 $
94908KDBQ DBQ20120616121011306/16/12 12:10:31  5-MIN KDBQ 161810Z 23014KT 10SM FEW036 SCT043 BKN050 27/19 A2993 1070 60 2800 230/14 RMK AO2 $
94908KDBQ DBQ20120616121511306/16/12 12:15:31  5-MIN KDBQ 161815Z 24014KT 10SM FEW036 BKN046 BKN055 27/19 A2993 1070 62 2700 240/14 RMK AO2 $
94908KDBQ DBQ20120616122011906/16/12 12:20:31  5-MIN KDBQ 161820Z 25011G20KT 10SM SCT036 BKN046 BKN055 26/18 A2993 1070 62 2600 240/11G20 RMK AO2 $
94908KDBQ DBQ20120616122510606/16/12 12:25:31  5-MIN KDBQ 161825Z 24015KT 10SM SCT036 BKN050 27/19 A2993 1070 60 2800 240/15 RMK AO2 $
94908KDBQ DBQ20120616123010606/16/12 12:30:31  5-MIN KDBQ 161830Z 24016KT 10SM FEW036 BKN048 27/18 A2993 1070 60 2700 230/16 RMK AO2 $
94908KDBQ DBQ20120616123510606/16/12 12:35:31  5-MIN KDBQ 161835Z 24012KT 10SM SCT036 BKN048 27/18 A2993 1070 60 2700 240/12 RMK AO2 $
94908KDBQ DBQ20120616124010606/16/12 12:40:31  5-MIN KDBQ 161840Z 26014KT 10SM SCT036 BKN048 27/18 A2993 1070 60 2700 260/14 RMK AO2 $
94908KDBQ DBQ20120616124510606/16/12 12:45:31  5-MIN KDBQ 161845Z 26014KT 10SM BKN038 BKN050 27/19 A2993 1070 60 2800 260/14 RMK AO2 $
94908KDBQ DBQ20120616125012306/16/12 12:50:31  5-MIN KDBQ 161850Z 26013KT 10SM SCT038 BKN050 27/18 A2993 1070 58 2800 260/13 RMK AO2 SLP127 T02720183 $
94908KDBQ DBQ20120616125511906/16/12 12:55:31  5-MIN KDBQ 161855Z 26015G19KT 10SM SCT038 BKN050 BKN060 27/19 A2993 1070 60 2800 250/15G19 RMK AO2 $
94908KDBQ DBQ20120616130011206/16/12 13:00:31  5-MIN KDBQ 161900Z 25014G19KT 10SM SCT038 BKN050 27/18 A2993 1070 58 2800 250/14G19 RMK AO2 $
94908KDBQ DBQ20120616130511306/16/12 13:05:31  5-MIN KDBQ 161905Z 26012KT 10SM FEW038 SCT047 BKN055 27/18 A2991 1080 58 2800 250/12 RMK AO2 $
94908KDBQ DBQ20120616131010606/16/12 13:10:31  5-MIN KDBQ 161910Z 26012KT 10SM FEW038 SCT055 28/18 A2991 1080 56 2800 260/12 RMK AO2 $
94908KDBQ DBQ20120616131510506/16/12 13:15:31  5-MIN KDBQ 161915Z 25012G19KT 10SM FEW050 28/19 A2991 1090 56 2900 250/12G19 RMK AO2 $
94908KDBQ DBQ20120616132009906/16/12 13:20:31  5-MIN KDBQ 161920Z 27013KT 10SM FEW045 28/18 A2991 1090 56 2800 270/13 RMK AO2 $
94908KDBQ DBQ20120616132510506/16/12 13:25:31  5-MIN KDBQ 161925Z 25017G20KT 10SM FEW045 28/18 A2991 1090 56 2800 250/17G20 RMK AO2 $
94908KDBQ DBQ20120616133010506/16/12 13:30:31  5-MIN KDBQ 161930Z 24014G20KT 10SM FEW047 28/18 A2991 1090 56 2800 240/14G20 RMK AO2 $
94908KDBQ DBQ20120616133510606/16/12 13:35:31  5-MIN KDBQ 161935Z 26011KT 10SM FEW039 SCT050 28/19 A2991 1090 58 2800 260/11 RMK AO2 $
94908KDBQ DBQ20120616134010606/16/12 13:40:31  5-MIN KDBQ 161940Z 26014KT 10SM SCT039 SCT050 27/19 A2991 1090 60 2800 260/14 RMK AO2 $
94908KDBQ DBQ20120616134511206/16/12 13:45:31  5-MIN KDBQ 161945Z 24011G18KT 10SM FEW039 SCT050 28/19 A2990 1090 58 2800 240/11G18 RMK AO2 $
94908KDBQ DBQ20120616135012906/16/12 13:50:31  5-MIN KDBQ 161950Z 26014G18KT 10SM SCT041 SCT050 28/18 A2990 1100 56 2900 260/14G18 RMK AO2 SLP118 T02780183 $
94908KDBQ DBQ20120616135509906/16/12 13:55:31  5-MIN KDBQ 161955Z 25011KT 10SM SCT043 28/18 A2991 1090 56 2800 250/11 RMK AO2 $
94908KDBQ DBQ20120616140010606/16/12 14:00:31  5-MIN KDBQ 162000Z 26011KT 10SM SCT041 SCT049 28/19 A2991 1090 58 2800 260/11 RMK AO2 $
94908KDBQ DBQ20120616140511206/16/12 14:05:31  5-MIN KDBQ 162005Z 24015G19KT 10SM SCT041 SCT049 28/19 A2991 1090 58 2800 240/15G19 RMK AO2 $
94908KDBQ DBQ20120616141009906/16/12 14:10:31  5-MIN KDBQ 162010Z 24015KT 10SM SCT044 28/18 A2991 1090 56 2800 240/15 RMK AO2 $
94908KDBQ DBQ20120616141509906/16/12 14:15:31  5-MIN KDBQ 162015Z 26014KT 10SM SCT044 28/18 A2991 1090 56 2800 260/14 RMK AO2 $
94908KDBQ DBQ20120616142009906/16/12 14:20:31  5-MIN KDBQ 162020Z 27012KT 10SM SCT044 28/18 A2991 1090 54 2900 270/12 RMK AO2 $
94908KDBQ DBQ20120616142509906/16/12 14:25:31  5-MIN KDBQ 162025Z 25015KT 10SM SCT044 28/18 A2990 1090 54 2900 250/15 RMK AO2 $
94908KDBQ DBQ20120616143010506/16/12 14:30:31  5-MIN KDBQ 162030Z 26012G19KT 10SM FEW044 28/18 A2990 1100 54 2900 260/12G19 RMK AO2 $
94908KDBQ DBQ20120616143509906/16/12 14:35:31  5-MIN KDBQ 162035Z 27012KT 10SM FEW044 28/18 A2991 1090 56 2800 270/12 RMK AO2 $
94908KDBQ DBQ20120616144009906/16/12 14:40:31  5-MIN KDBQ 162040Z 26014KT 10SM FEW044 28/18 A2991 1090 54 2900 250/14 RMK AO2 $
94908KDBQ DBQ20120616144510506/16/12 14:45:31  5-MIN KDBQ 162045Z 26012G18KT 10SM FEW044 28/18 A2991 1090 54 2900 260/12G18 RMK AO2 $
94908KDBQ DBQ20120616145012806/16/12 14:50:31  5-MIN KDBQ 162050Z 25012G19KT 10SM FEW044 28/18 A2990 1090 54 2900 250/12G19 RMK AO2 SLP119 T02830183 58013 $
94908KDBQ DBQ20120616145510206/16/12 14:55:31  5-MIN KDBQ 162055Z 26012G19KT 10SM CLR 28/18 A2990 1100 54 2900 260/12G19 RMK AO2 $
94908KDBQ DBQ20120616150010206/16/12 15:00:31  5-MIN KDBQ 162100Z 26013G18KT 10SM CLR 28/18 A2990 1100 54 2900 260/13G18 RMK AO2 $
94908KDBQ DBQ20120616150509906/16/12 15:05:31  5-MIN KDBQ 162105Z 26011KT 10SM FEW043 28/18 A2989 1100 54 2900 250/11 RMK AO2 $
94908KDBQ DBQ20120616151009906/16/12 15:10:31  5-MIN KDBQ 162110Z 25011KT 10SM FEW043 28/18 A2989 1100 54 2900 250/11 RMK AO2 $
94908KDBQ DBQ20120616151510206/16/12 15:15:31  5-MIN KDBQ 162115Z 27014G17KT 10SM CLR 28/18 A2989 1110 54 2900 270/14G17 RMK AO2 $
94908KDBQ DBQ20120616152010206/16/12 15:20:31  5-MIN KDBQ 162120Z 26012G17KT 10SM CLR 28/18 A2990 1100 54 2900 260/12G17 RMK AO2 $
94908KDBQ DBQ20120616152509606/16/12 15:25:31  5-MIN KDBQ 162125Z 26010KT 10SM CLR 28/18 A2989 1110 54 2900 260/10 RMK AO2 $
94908KDBQ DBQ20120616153009606/16/12 15:30:31  5-MIN KDBQ 162130Z 26012KT 10SM CLR 28/18 A2989 1110 54 2900 260/12 RMK AO2 $
94908KDBQ DBQ20120616153509606/16/12 15:35:31  5-MIN KDBQ 162135Z 27010KT 10SM CLR 28/18 A2989 1110 54 2900 270/10 RMK AO2 $
94908KDBQ DBQ20120616154009606/16/12 15:40:31  5-MIN KDBQ 162140Z 26010KT 10SM CLR 28/18 A2989 1110 54 2900 260/10 RMK AO2 $
94908KDBQ DBQ20120616154509606/16/12 15:45:31  5-MIN KDBQ 162145Z 25010KT 10SM CLR 28/18 A2989 1110 54 2900 250/10 RMK AO2 $
94908KDBQ DBQ20120616155011306/16/12 15:50:31  5-MIN KDBQ 162150Z 26006KT 10SM CLR 28/19 A2988 1110 56 2900 260/06 RMK AO2 SLP112 T02830189 $
94908KDBQ DBQ20120616155510206/16/12 15:55:31  5-MIN KDBQ 162155Z 26011G16KT 10SM CLR 28/18 A2988 1110 54 2900 260/11G16 RMK AO2 $
94908KDBQ DBQ20120616160010206/16/12 16:00:31  5-MIN KDBQ 162200Z 26008G16KT 10SM CLR 28/18 A2988 1110 54 2900 260/08G16 RMK AO2 $
94908KDBQ DBQ20120616160509606/16/12 16:05:31  5-MIN KDBQ 162205Z 27011KT 10SM CLR 28/18 A2989 1110 54 2900 270/11 RMK AO2 $
94908KDBQ DBQ20120616161009606/16/12 16:10:31  5-MIN KDBQ 162210Z 25008KT 10SM CLR 28/18 A2989 1110 54 2900 250/08 RMK AO2 $
94908KDBQ DBQ20120616161509606/16/12 16:15:31  5-MIN KDBQ 162215Z 28007KT 10SM CLR 28/18 A2988 1120 54 2900 270/07 RMK AO2 $
94908KDBQ DBQ20120616162009606/16/12 16:20:31  5-MIN KDBQ 162220Z 27009KT 10SM CLR 28/18 A2988 1120 54 2900 270/09 RMK AO2 $
94908KDBQ DBQ20120616162509606/16/12 16:25:31  5-MIN KDBQ 162225Z 28006KT 10SM CLR 28/18 A2988 1120 56 2900 280/06 RMK AO2 $
94908KDBQ DBQ20120616163009606/16/12 16:30:31  5-MIN KDBQ 162230Z 25008KT 10SM CLR 28/18 A2988 1120 56 2900 250/08 RMK AO2 $
94908KDBQ DBQ20120616163509606/16/12 16:35:31  5-MIN KDBQ 162235Z 27009KT 10SM CLR 28/18 A2988 1110 56 2900 270/09 RMK AO2 $
94908KDBQ DBQ20120616164009606/16/12 16:40:31  5-MIN KDBQ 162240Z 28007KT 10SM CLR 27/18 A2988 1120 56 2800 280/07 RMK AO2 $
94908KDBQ DBQ20120616164509606/16/12 16:45:31  5-MIN KDBQ 162245Z 27009KT 10SM CLR 27/18 A2988 1110 58 2800 270/09 RMK AO2 $
94908KDBQ DBQ20120616165011306/16/12 16:50:31  5-MIN KDBQ 162250Z 28008KT 10SM CLR 27/18 A2988 1120 58 2800 280/08 RMK AO2 SLP110 T02720183 $
94908KDBQ DBQ20120616165509606/16/12 16:55:31  5-MIN KDBQ 162255Z 28008KT 10SM CLR 27/18 A2988 1120 60 2800 280/08 RMK AO2 $
94908KDBQ DBQ20120616170009606/16/12 17:00:31  5-MIN KDBQ 162300Z 28008KT 10SM CLR 27/18 A2987 1120 60 2800 270/08 RMK AO2 $
94908KDBQ DBQ20120616170509606/16/12 17:05:31  5-MIN KDBQ 162305Z 28007KT 10SM CLR 27/18 A2987 1120 60 2800 280/07 RMK AO2 $
94908KDBQ DBQ20120616171009606/16/12 17:10:31  5-MIN KDBQ 162310Z 28007KT 10SM CLR 26/18 A2987 1130 62 2700 280/07 RMK AO2 $
94908KDBQ DBQ20120616171509606/16/12 17:15:31  5-MIN KDBQ 162315Z 27006KT 10SM CLR 26/18 A2988 1120 59 2700 270/06 RMK AO2 $
94908KDBQ DBQ20120616172009606/16/12 17:20:31  5-MIN KDBQ 162320Z 26006KT 10SM CLR 26/18 A2988 1110 62 2700 260/06 RMK AO2 $
94908KDBQ DBQ20120616172509606/16/12 17:25:31  5-MIN KDBQ 162325Z 27006KT 10SM CLR 26/18 A2988 1110 59 2700 270/06 RMK AO2 $
94908KDBQ DBQ20120616173009606/16/12 17:30:31  5-MIN KDBQ 162330Z 26005KT 10SM CLR 26/18 A2988 1120 64 2600 260/05 RMK AO2 $
94908KDBQ DBQ20120616173509606/16/12 17:35:31  5-MIN KDBQ 162335Z 27006KT 10SM CLR 26/18 A2988 1110 61 2600 270/06 RMK AO2 $
94908KDBQ DBQ20120616174009606/16/12 17:40:31  5-MIN KDBQ 162340Z 27006KT 10SM CLR 26/18 A2988 1120 64 2600 270/06 RMK AO2 $
94908KDBQ DBQ20120616174509606/16/12 17:45:31  5-MIN KDBQ 162345Z 27005KT 10SM CLR 25/18 A2988 1120 64 2600 270/05 RMK AO2 $
94908KDBQ DBQ20120616175013106/16/12 17:50:31  5-MIN KDBQ 162350Z 27006KT 10SM CLR 25/18 A2988 1120 64 2600 270/06 RMK AO2 SLP112 T02500178 10289 20250 58009 $
94908KDBQ DBQ20120616175509606/16/12 17:55:31  5-MIN KDBQ 162355Z 26006KT 10SM CLR 25/18 A2988 1110 64 2600 260/06 RMK AO2 $
94908KDBQ DBQ20120616180009606/16/12 18:00:31  5-MIN KDBQ 170000Z 25006KT 10SM CLR 25/18 A2989 1110 64 2600 250/06 RMK AO2 $
94908KDBQ DBQ20120616180509606/16/12 18:05:31  5-MIN KDBQ 170005Z 25006KT 10SM CLR 24/18 A2989 1110 66 2500 250/06 RMK AO2 $
94908KDBQ DBQ20120616181009606/16/12 18:10:31  5-MIN KDBQ 170010Z 26007KT 10SM CLR 25/18 A2988 1110 64 2600 260/07 RMK AO2 $
94908KDBQ DBQ20120616181509606/16/12 18:15:31  5-MIN KDBQ 170015Z 26007KT 10SM CLR 25/18 A2988 1110 64 2600 260/07 RMK AO2 $
94908KDBQ DBQ20120616182009906/16/12 18:20:31  5-MIN KDBQ 170020Z 25007KT 10SM FEW095 25/18 A2988 1110 64 2600 250/07 RMK AO2 $
94908KDBQ DBQ20120616182509906/16/12 18:25:31  5-MIN KDBQ 170025Z 24007KT 10SM FEW095 24/18 A2988 1120 68 2500 240/07 RMK AO2 $
94908KDBQ DBQ20120616183010606/16/12 18:30:31  5-MIN KDBQ 170030Z 24008KT 10SM FEW100 SCT120 24/18 A2988 1110 71 2400 240/08 RMK AO2 $
94908KDBQ DBQ20120616183512206/16/12 18:35:31  5-MIN KDBQ 170035Z 23007KT 10SM -RA FEW095 SCT120 24/19 A2989 1110 73 2400 230/07 RMK AO2 RAB31 P0000 $
94908KDBQ DBQ20120616184014406/16/12 18:40:31  5-MIN KDBQ 170040Z AUTO 23007KT 9SM -RA FEW095 BKN110 23/19 A2989 1110 78 2400 230/07 RMK AO2 LTG DSNT S AND SW RAB31 P0001 $
94908KDBQ DBQ20120616184514406/16/12 18:45:31  5-MIN KDBQ 170045Z AUTO 24008KT 9SM -RA FEW095 BKN120 23/19 A2989 1110 81 2300 240/08 RMK AO2 LTG DSNT S AND SW RAB31 P0001 $
94908KDBQ DBQ20120616185015406/16/12 18:50:31  5-MIN KDBQ 170050Z AUTO 24009KT 9SM -RA BKN120 23/19 A2989 1110 81 2300 240/09 RMK AO2 LTG DSNT S AND SW RAB31 SLP114 P0001 T02280194 $
94908KDBQ DBQ20120616185512806/16/12 18:55:31  5-MIN KDBQ 170055Z AUTO 25008KT 9SM -RA BKN120 23/19 A2988 1110 81 2300 250/08 RMK AO2 LTG DSNT SE-SW P0000 $
94908KDBQ DBQ20120616190014106/16/12 19:00:31  5-MIN KDBQ 170100Z AUTO 25009KT 8SM VCTS -RA BKN120 23/19 A2988 1110 81 2300 250/09 RMK AO2 LTG DSNT SE-SW TSB0058 P0000 $
94908KDBQ DBQ20120616190514406/16/12 19:05:31  5-MIN KDBQ 170105Z AUTO 24008KT 8SM VCTS -RA BKN120 22/19 A2988 1120 84 2200 240/08 RMK AO2 LTG DSNT SE AND S TSB0058 P0001 $
94908KDBQ DBQ20120616191013706/16/12 19:10:31  5-MIN KDBQ 170110Z AUTO 23007KT 8SM VCTS -RA SCT120 22/19 A2988 1120 84 2300 230/07 RMK AO2 LTG DSNT S TSB0058 P0001 $
94908KDBQ DBQ20120616191513506/16/12 19:15:31  5-MIN KDBQ 170115Z AUTO 22007KT 7SM -RA SCT120 22/20 A2988 1120 87 2200 220/07 RMK AO2 LTG DSNT S TSB0058E13 P0001 $
94908KDBQ DBQ20120616192013506/16/12 19:20:31  5-MIN KDBQ 170120Z AUTO 22007KT 7SM -RA BKN120 22/20 A2988 1110 90 2200 220/07 RMK AO2 LTG DSNT S TSB0058E13 P0002 $
94908KDBQ DBQ20120616192513506/16/12 19:25:31  5-MIN KDBQ 170125Z AUTO 23008KT 8SM -RA BKN120 22/20 A2988 1110 90 2200 220/08 RMK AO2 LTG DSNT S TSB0058E13 P0002 $
94908KDBQ DBQ20120616193012406/16/12 19:30:31  5-MIN KDBQ 170130Z AUTO 23009KT 8SM -RA BKN110 22/20 A2988 1110 90 2200 230/09 RMK AO2 TSB0058E13 P0002 $
94908KDBQ DBQ20120616193512406/16/12 19:35:31  5-MIN KDBQ 170135Z AUTO 22010KT 8SM -RA BKN110 22/20 A2988 1120 90 2200 220/10 RMK AO2 TSB0058E13 P0002 $
94908KDBQ DBQ20120616194012406/16/12 19:40:31  5-MIN KDBQ 170140Z AUTO 22009KT 7SM -RA BKN120 22/20 A2987 1120 90 2200 220/09 RMK AO2 TSB0058E13 P0003 $
94908KDBQ DBQ20120616194512406/16/12 19:45:31  5-MIN KDBQ 170145Z AUTO 23009KT 7SM -RA BKN120 22/20 A2987 1120 90 2200 230/09 RMK AO2 TSB0058E13 P0003 $
94908KDBQ DBQ20120616195014106/16/12 19:50:31  5-MIN KDBQ 170150Z AUTO 24009KT 7SM -RA SCT110 21/20 A2987 1120 93 2100 240/09 RMK AO2 TSB0058E13 SLP111 P0003 T02110200 $
94908KDBQ DBQ20120616195511306/16/12 19:55:31  5-MIN KDBQ 170155Z AUTO 23009KT 8SM -RA SCT110 21/20 A2987 1130 93 2100 230/09 RMK AO2 P0000 $
94908KDBQ DBQ20120616200011306/16/12 20:00:31  5-MIN KDBQ 170200Z AUTO 22009KT 9SM -RA SCT110 21/20 A2987 1130 93 2100 220/09 RMK AO2 P0001 $
94908KDBQ DBQ20120616200512006/16/12 20:05:31  5-MIN KDBQ 170205Z AUTO 22009KT 9SM -RA SCT100 SCT120 21/20 A2987 1130 93 2100 220/09 RMK AO2 P0001 $
94908KDBQ DBQ20120616201011506/16/12 20:10:31  5-MIN KDBQ 170210Z AUTO 23009KT 9SM SCT100 21/20 A2987 1130 93 2100 230/09 RMK AO2 RAE06 P0001 $
94908KDBQ DBQ20120616201511506/16/12 20:15:31  5-MIN KDBQ 170215Z AUTO 24010KT 8SM BKN100 21/20 A2987 1120 93 2100 240/10 RMK AO2 RAE06 P0001 $
94908KDBQ DBQ20120616202011506/16/12 20:20:31  5-MIN KDBQ 170220Z AUTO 24010KT 8SM BKN110 21/20 A2988 1120 93 2100 240/10 RMK AO2 RAE06 P0001 $
94908KDBQ DBQ20120616202511506/16/12 20:25:31  5-MIN KDBQ 170225Z AUTO 24012KT 8SM BKN100 21/20 A2988 1120 93 2100 240/12 RMK AO2 RAE06 P0001 $
94908KDBQ DBQ20120616203011506/16/12 20:30:31  5-MIN KDBQ 170230Z AUTO 24011KT 8SM BKN100 21/20 A2988 1120 93 2100 240/11 RMK AO2 RAE06 P0001 $
94908KDBQ DBQ20120616203511506/16/12 20:35:31  5-MIN KDBQ 170235Z AUTO 24010KT 8SM SCT110 21/20 A2988 1120 93 2100 240/10 RMK AO2 RAE06 P0001 $
94908KDBQ DBQ20120616204011506/16/12 20:40:31  5-MIN KDBQ 170240Z AUTO 24010KT 8SM BKN110 21/20 A2988 1120 93 2100 230/10 RMK AO2 RAE06 P0001 $
94908KDBQ DBQ20120616204511506/16/12 20:45:31  5-MIN KDBQ 170245Z AUTO 23010KT 8SM BKN110 21/20 A2988 1120 93 2100 230/10 RMK AO2 RAE06 P0001 $
94908KDBQ DBQ20120616205014406/16/12 20:50:31  5-MIN KDBQ 170250Z AUTO 23009KT 7SM BKN110 21/20 A2988 1110 93 2100 230/09 RMK AO2 RAE06 SLP114 P0001 60006 T02110200 55006 $
94908KDBQ DBQ20120616205510306/16/12 20:55:31  5-MIN KDBQ 170255Z AUTO 24009KT 7SM BKN110 21/20 A2989 1110 93 2100 240/09 RMK AO2 $
94908KDBQ DBQ20120616210010306/16/12 21:00:31  5-MIN KDBQ 170300Z AUTO 24009KT 7SM OVC100 21/20 A2989 1110 93 2100 240/09 RMK AO2 $
94908KDBQ DBQ20120616210510306/16/12 21:05:31  5-MIN KDBQ 170305Z AUTO 26009KT 8SM OVC100 21/20 A2990 1100 93 2100 260/09 RMK AO2 $
94908KDBQ DBQ20120616211010306/16/12 21:10:31  5-MIN KDBQ 170310Z AUTO 27009KT 8SM OVC100 21/20 A2990 1090 93 2100 270/09 RMK AO2 $
94908KDBQ DBQ20120616211510306/16/12 21:15:31  5-MIN KDBQ 170315Z AUTO 28010KT 9SM OVC100 21/20 A2990 1090 93 2100 270/10 RMK AO2 $
94908KDBQ DBQ20120616212010306/16/12 21:20:31  5-MIN KDBQ 170320Z AUTO 28011KT 9SM OVC100 21/20 A2990 1090 93 2100 270/11 RMK AO2 $
94908KDBQ DBQ20120616212510306/16/12 21:25:31  5-MIN KDBQ 170325Z AUTO 27010KT 9SM OVC100 21/20 A2991 1090 93 2100 270/10 RMK AO2 $
94908KDBQ DBQ20120616213010306/16/12 21:30:31  5-MIN KDBQ 170330Z AUTO 27011KT 9SM OVC100 21/20 A2991 1090 93 2100 270/11 RMK AO2 $
94908KDBQ DBQ20120616213510306/16/12 21:35:31  5-MIN KDBQ 170335Z AUTO 27010KT 9SM OVC100 21/19 A2991 1090 90 2100 270/10 RMK AO2 $
94908KDBQ DBQ20120616214010406/16/12 21:40:31  5-MIN KDBQ 170340Z AUTO 27009KT 10SM OVC100 21/19 A2991 1090 90 2100 270/09 RMK AO2 $
94908KDBQ DBQ20120616214510406/16/12 21:45:31  5-MIN KDBQ 170345Z AUTO 28011KT 10SM OVC100 21/19 A2991 1090 90 2100 280/11 RMK AO2 $
94908KDBQ DBQ20120616215012706/16/12 21:50:31  5-MIN KDBQ 170350Z AUTO 28010G16KT 10SM OVC100 22/19 A2991 1090 87 2200 270/10G16 RMK AO2 SLP123 T02170194 $
94908KDBQ DBQ20120616215510406/16/12 21:55:31  5-MIN KDBQ 170355Z AUTO 28010KT 10SM OVC100 21/19 A2991 1090 90 2100 280/10 RMK AO2 $
94908KDBQ DBQ20120616220010406/16/12 22:00:31  5-MIN KDBQ 170400Z AUTO 28013KT 10SM OVC100 22/19 A2992 1080 87 2100 280/13 RMK AO2 $
94908KDBQ DBQ20120616220510406/16/12 22:05:31  5-MIN KDBQ 170405Z AUTO 28011KT 10SM OVC100 22/19 A2992 1080 87 2100 270/11 RMK AO2 $
94908KDBQ DBQ20120616221010406/16/12 22:10:31  5-MIN KDBQ 170410Z AUTO 27010KT 10SM OVC100 21/19 A2992 1080 90 2100 270/10 RMK AO2 $
94908KDBQ DBQ20120616221510406/16/12 22:15:31  5-MIN KDBQ 170415Z AUTO 26008KT 10SM OVC100 21/19 A2992 1080 90 2100 260/08 RMK AO2 $
94908KDBQ DBQ20120616222010406/16/12 22:20:31  5-MIN KDBQ 170420Z AUTO 27010KT 10SM OVC100 21/19 A2992 1080 90 2100 270/10 RMK AO2 $
94908KDBQ DBQ20120616222510406/16/12 22:25:31  5-MIN KDBQ 170425Z AUTO 27010KT 10SM BKN100 22/19 A2992 1080 87 2100 270/10 RMK AO2 $
94908KDBQ DBQ20120616223010406/16/12 22:30:31  5-MIN KDBQ 170430Z AUTO 26011KT 10SM BKN100 21/19 A2991 1080 90 2100 260/11 RMK AO2 $
94908KDBQ DBQ20120616223510406/16/12 22:35:31  5-MIN KDBQ 170435Z AUTO 26010KT 10SM BKN100 21/19 A2991 1090 90 2100 260/10 RMK AO2 $
94908KDBQ DBQ20120616224010406/16/12 22:40:31  5-MIN KDBQ 170440Z AUTO 25008KT 10SM BKN110 21/19 A2991 1090 90 2100 250/08 RMK AO2 $
94908KDBQ DBQ20120616224510306/16/12 22:45:31  5-MIN KDBQ 170445Z AUTO 25008KT 9SM BKN110 21/19 A2991 1080 90 2100 250/08 RMK AO2 $
94908KDBQ DBQ20120616225012006/16/12 22:50:31  5-MIN KDBQ 170450Z AUTO 25008KT 8SM BKN110 21/19 A2992 1080 90 2100 250/08 RMK AO2 SLP123 T02110194 $
94908KDBQ DBQ20120616225510306/16/12 22:55:31  5-MIN KDBQ 170455Z AUTO 25008KT 8SM SCT110 21/19 A2992 1080 93 2000 250/08 RMK AO2 $
94908KDBQ DBQ20120616230010306/16/12 23:00:31  5-MIN KDBQ 170500Z AUTO 24008KT 8SM SCT110 21/19 A2992 1080 93 2000 240/08 RMK AO2 $
94908KDBQ DBQ20120616230510306/16/12 23:05:31  5-MIN KDBQ 170505Z AUTO 23007KT 7SM BKN110 21/19 A2992 1080 93 2000 230/07 RMK AO2 $
94908KDBQ DBQ20120616231010306/16/12 23:10:31  5-MIN KDBQ 170510Z AUTO 22006KT 7SM BKN110 21/19 A2992 1080 93 2000 220/06 RMK AO2 $
94908KDBQ DBQ20120616231510306/16/12 23:15:31  5-MIN KDBQ 170515Z AUTO 22006KT 7SM BKN110 21/19 A2992 1080 93 2000 220/06 RMK AO2 $
94908KDBQ DBQ20120616232010606/16/12 23:20:31  5-MIN KDBQ 170520Z AUTO 22006KT 6SM BR SCT110 21/19 A2992 1080 93 2000 220/06 RMK AO2 $
94908KDBQ DBQ20120616232510606/16/12 23:25:31  5-MIN KDBQ 170525Z AUTO 22006KT 6SM BR SCT110 21/19 A2992 1080 93 2000 220/06 RMK AO2 $
94908KDBQ DBQ20120616233011306/16/12 23:30:31  5-MIN KDBQ 170530Z AUTO 24005KT 6SM BR FEW048 SCT110 20/19 A2991 1090 97 2000 240/05 RMK AO2 $
94908KDBQ DBQ20120616233511306/16/12 23:35:31  5-MIN KDBQ 170535Z AUTO 24006KT 5SM BR FEW048 SCT110 20/19 A2991 1090 97 2000 240/06 RMK AO2 $
94908KDBQ DBQ20120616234010606/16/12 23:40:31  5-MIN KDBQ 170540Z AUTO 25006KT 5SM BR FEW048 20/19 A2991 1090 97 2000 250/06 RMK AO2 $
94908KDBQ DBQ20120616234510606/16/12 23:45:31  5-MIN KDBQ 170545Z AUTO 26008KT 6SM BR FEW041 21/19 A2991 1090 93 2000 260/08 RMK AO2 $
94908KDBQ DBQ20120616235015406/16/12 23:50:31  5-MIN KDBQ 170550Z AUTO 26008KT 7SM FEW047 21/19 A2991 1090 93 2000 260/08 RMK AO2 SLP120 60006 T02060194 10250 20200 402890200 53001 $
94908KDBQ DBQ20120616235510306/16/12 23:55:31  5-MIN KDBQ 170555Z AUTO 26009KT 7SM FEW049 21/19 A2991 1090 93 2000 260/09 RMK AO2 $
94908KDBQ DBQ20120617000010306/17/12 00:00:38  5-MIN KDBQ 170600Z AUTO 26009KT 7SM FEW049 21/19 A2991 1090 93 2000 260/09 RMK AO2 $
94908KDBQ DBQ20120617000510006/17/12 00:05:31  5-MIN KDBQ 170605Z AUTO 25009KT 7SM CLR 21/19 A2991 1090 93 2000 250/09 RMK AO2 $
94908KDBQ DBQ20120617001010306/17/12 00:10:31  5-MIN KDBQ 170610Z AUTO 26008KT 6SM BR CLR 21/19 A2991 1090 93 2000 260/08 RMK AO2 $
94908KDBQ DBQ20120617001510306/17/12 00:15:32  5-MIN KDBQ 170615Z AUTO 26009KT 6SM BR CLR 21/19 A2991 1090 93 2000 260/09 RMK AO2 $
94908KDBQ DBQ20120617002010606/17/12 00:20:31  5-MIN KDBQ 170620Z AUTO 26009KT 6SM BR FEW029 21/19 A2991 1090 93 2000 260/09 RMK AO2 $
94908KDBQ DBQ20120617002510606/17/12 00:25:31  5-MIN KDBQ 170625Z AUTO 26009KT 5SM BR SCT029 21/19 A2991 1080 93 2000 260/09 RMK AO2 $
94908KDBQ DBQ20120617003010606/17/12 00:30:31  5-MIN KDBQ 170630Z AUTO 26009KT 5SM BR SCT031 21/19 A2991 1090 93 2000 260/09 RMK AO2 $
94908KDBQ DBQ20120617003511306/17/12 00:35:31  5-MIN KDBQ 170635Z AUTO 26008KT 5SM BR FEW025 BKN031 21/19 A2991 1080 93 2000 260/08 RMK AO2 $
94908KDBQ DBQ20120617004012006/17/12 00:40:31  5-MIN KDBQ 170640Z AUTO 27007KT 5SM BR FEW025 BKN031 BKN043 21/19 A2992 1080 93 2000 270/07 RMK AO2 $
94908KDBQ DBQ20120617004512006/17/12 00:45:31  5-MIN KDBQ 170645Z AUTO 28008KT 5SM BR FEW023 BKN031 OVC060 21/19 A2992 1080 93 2000 270/08 RMK AO2 $
94908KDBQ DBQ20120617005013706/17/12 00:50:31  5-MIN KDBQ 170650Z AUTO 27008KT 5SM BR SCT023 BKN031 OVC060 21/19 A2992 1080 93 2000 270/08 RMK AO2 SLP124 T02060194 $
94908KDBQ DBQ20120617005512006/17/12 00:55:31  5-MIN KDBQ 170655Z AUTO 27006KT 5SM BR FEW006 BKN033 OVC060 21/19 A2992 1080 93 2000 270/06 RMK AO2 $
94908KDBQ DBQ20120617010012006/17/12 01:00:31  5-MIN KDBQ 170700Z AUTO 28007KT 5SM BR FEW006 BKN033 OVC055 21/19 A2992 1080 93 2000 280/07 RMK AO2 $
94908KDBQ DBQ20120617010512006/17/12 01:05:31  5-MIN KDBQ 170705Z AUTO 28009KT 5SM BR FEW006 BKN038 OVC060 21/19 A2992 1080 93 2000 280/09 RMK AO2 $
94908KDBQ DBQ20120617011012006/17/12 01:10:31  5-MIN KDBQ 170710Z AUTO 29008KT 5SM BR FEW006 SCT024 BKN039 21/19 A2991 1080 93 2000 290/08 RMK AO2 $
94908KDBQ DBQ20120617011511306/17/12 01:15:31  5-MIN KDBQ 170715Z AUTO 29008KT 5SM BR FEW006 BKN043 21/19 A2991 1090 93 2000 290/08 RMK AO2 $
94908KDBQ DBQ20120617012011306/17/12 01:20:31  5-MIN KDBQ 170720Z AUTO 29006KT 5SM BR FEW006 BKN043 21/19 A2991 1090 93 2000 290/06 RMK AO2 $
94908KDBQ DBQ20120617012511306/17/12 01:25:31  5-MIN KDBQ 170725Z AUTO 29005KT 4SM BR FEW006 SCT043 20/19 A2991 1090 97 2000 290/05 RMK AO2 $
94908KDBQ DBQ20120617013011306/17/12 01:30:31  5-MIN KDBQ 170730Z AUTO 29005KT 4SM BR FEW045 SCT055 20/19 A2991 1090 97 2000 290/05 RMK AO2 $
94908KDBQ DBQ20120617013511306/17/12 01:35:31  5-MIN KDBQ 170735Z AUTO 29005KT 4SM BR FEW045 SCT055 20/19 A2991 1090 97 2000 280/05 RMK AO2 $
94908KDBQ DBQ20120617014010606/17/12 01:40:31  5-MIN KDBQ 170740Z AUTO 29005KT 4SM BR SCT050 20/19 A2991 1090 97 2000 280/05 RMK AO2 $
94908KDBQ DBQ20120617014510606/17/12 01:45:31  5-MIN KDBQ 170745Z AUTO 28004KT 4SM BR SCT055 20/19 A2991 1090 97 2000 280/04 RMK AO2 $
94908KDBQ DBQ20120617015012306/17/12 01:50:31  5-MIN KDBQ 170750Z AUTO 27004KT 4SM BR BKN060 20/19 A2991 1090 93 2000 270/04 RMK AO2 SLP121 T02000189 $
94908KDBQ DBQ20120617015510606/17/12 01:55:31  5-MIN KDBQ 170755Z AUTO 28004KT 4SM BR BKN060 20/19 A2991 1090 97 2000 280/04 RMK AO2 $
94908KDBQ DBQ20120617020010606/17/12 02:00:31  5-MIN KDBQ 170800Z AUTO 28005KT 4SM BR BKN060 20/19 A2991 1090 97 2000 280/05 RMK AO2 $
94908KDBQ DBQ20120617020510606/17/12 02:05:31  5-MIN KDBQ 170805Z AUTO 27006KT 4SM BR OVC060 20/19 A2991 1090 97 2000 270/06 RMK AO2 $
94908KDBQ DBQ20120617021010606/17/12 02:10:31  5-MIN KDBQ 170810Z AUTO 27007KT 4SM BR OVC060 20/19 A2991 1090 97 2000 270/07 RMK AO2 $
94908KDBQ DBQ20120617021510606/17/12 02:15:31  5-MIN KDBQ 170815Z AUTO 27006KT 4SM BR OVC060 20/19 A2991 1090 97 2000 270/06 RMK AO2 $
94908KDBQ DBQ20120617022010606/17/12 02:20:31  5-MIN KDBQ 170820Z AUTO 27006KT 4SM BR OVC060 20/19 A2991 1090 97 2000 270/06 RMK AO2 $
94908KDBQ DBQ20120617022510606/17/12 02:25:31  5-MIN KDBQ 170825Z AUTO 27006KT 4SM BR OVC060 20/19 A2990 1090 97 2000 270/06 RMK AO2 $
94908KDBQ DBQ20120617023011306/17/12 02:30:31  5-MIN KDBQ 170830Z AUTO 26007KT 3SM BR FEW004 OVC060 20/19 A2991 1090 97 2000 260/07 RMK AO2 $
94908KDBQ DBQ20120617023511306/17/12 02:35:31  5-MIN KDBQ 170835Z AUTO 27007KT 3SM BR FEW004 OVC060 20/19 A2990 1090 97 2000 270/07 RMK AO2 $
94908KDBQ DBQ20120617024011306/17/12 02:40:31  5-MIN KDBQ 170840Z AUTO 27007KT 3SM BR SCT004 OVC060 20/19 A2990 1090 93 2000 270/07 RMK AO2 $
94908KDBQ DBQ20120617024511306/17/12 02:45:31  5-MIN KDBQ 170845Z AUTO 28007KT 3SM BR BKN004 OVC060 20/19 A2990 1090 93 2000 280/07 RMK AO2 $
94908KDBQ DBQ20120617025011306/17/12 02:50:31  5-MIN KDBQ 170850Z AUTO 29007KT 3SM BR BKN004 OVC060 19/19 A2990 1100 97 1900 290/07 RMK AO2 $
94908KDBQ DBQ20120617025511306/17/12 02:55:31  5-MIN KDBQ 170855Z AUTO 28007KT 3SM BR BKN004 OVC055 19/19 A2990 1100 97 1900 280/07 RMK AO2 $
94908KDBQ DBQ20120617030011306/17/12 03:00:31  5-MIN KDBQ 170900Z AUTO 29007KT 3SM BR BKN004 OVC055 19/19 A2990 1100 97 1900 290/07 RMK AO2 $
94908KDBQ DBQ20120617030511006/17/12 03:05:31  5-MIN KDBQ 170905Z AUTO 29008KT 2 1/2SM BR OVC004 19/19 A2990 1090 97 1900 290/08 RMK AO2 $
94908KDBQ DBQ20120617031010606/17/12 03:10:31  5-MIN KDBQ 170910Z AUTO 29008KT 3SM BR OVC004 19/19 A2990 1100 97 1900 290/08 RMK AO2 $
94908KDBQ DBQ20120617031510606/17/12 03:15:31  5-MIN KDBQ 170915Z AUTO 28007KT 3SM BR OVC004 19/19 A2990 1090 97 1900 280/07 RMK AO2 $
94908KDBQ DBQ20120617032010606/17/12 03:20:31  5-MIN KDBQ 170920Z AUTO 29006KT 3SM BR OVC004 19/19 A2990 1090 97 1900 290/06 RMK AO2 $
94908KDBQ DBQ20120617032510606/17/12 03:25:31  5-MIN KDBQ 170925Z AUTO 28005KT 3SM BR OVC004 19/19 A2990 1100 97 1900 280/05 RMK AO2 $
94908KDBQ DBQ20120617033010606/17/12 03:30:31  5-MIN KDBQ 170930Z AUTO 28006KT 3SM BR OVC004 19/19 A2990 1100 97 1900 280/06 RMK AO2 $
94908KDBQ DBQ20120617033511006/17/12 03:35:31  5-MIN KDBQ 170935Z AUTO 28009KT 2 1/2SM BR OVC004 19/19 A2990 1090 97 1900 280/09 RMK AO2 $
94908KDBQ DBQ20120617034011006/17/12 03:40:31  5-MIN KDBQ 170940Z AUTO 28007KT 2 1/2SM BR OVC004 19/19 A2990 1100 97 1900 280/07 RMK AO2 $
94908KDBQ DBQ20120617034511006/17/12 03:45:31  5-MIN KDBQ 170945Z AUTO 28007KT 2 1/2SM BR OVC004 19/19 A2990 1100 97 1900 280/07 RMK AO2 $
94908KDBQ DBQ20120617035012706/17/12 03:50:31  5-MIN KDBQ 170950Z AUTO 27004KT 2 1/2SM BR OVC004 19/19 A2990 1090 97 1900 270/04 RMK AO2 SLP119 T01940189 $
94908KDBQ DBQ20120617035511006/17/12 03:55:31  5-MIN KDBQ 170955Z AUTO 27005KT 2 1/2SM BR OVC002 19/19 A2991 1090 97 1900 270/05 RMK AO2 $
94908KDBQ DBQ20120617040011006/17/12 04:00:31  5-MIN KDBQ 171000Z AUTO 27006KT 2 1/2SM BR OVC002 19/19 A2991 1090 97 1900 270/06 RMK AO2 $
94908KDBQ DBQ20120617040510706/17/12 04:05:31  5-MIN KDBQ 171005Z AUTO 29008KT 3SM BR OVC002 19/19 A2991 1090 100 1800 290/08 RMK AO2 $
94908KDBQ DBQ20120617041010606/17/12 04:10:31  5-MIN KDBQ 171010Z AUTO 29007KT 3SM BR OVC002 19/18 A2991 1090 97 1800 290/07 RMK AO2 $
94908KDBQ DBQ20120617041510606/17/12 04:15:31  5-MIN KDBQ 171015Z AUTO VRB04KT 3SM BR OVC002 19/18 A2991 1090 97 1800 VRB/04 RMK AO2 $
94908KDBQ DBQ20120617042010606/17/12 04:20:31  5-MIN KDBQ 171020Z AUTO 28004KT 3SM BR OVC002 19/18 A2990 1090 97 1800 280/04 RMK AO2 $
94908KDBQ DBQ20120617042511006/17/12 04:25:31  5-MIN KDBQ 171025Z AUTO 29003KT 2 1/2SM BR OVC002 19/18 A2990 1090 97 1800 290/03 RMK AO2 $
94908KDBQ DBQ20120617043012706/17/12 04:30:31  5-MIN KDBQ 171030Z AUTO 26005KT 2 1/2SM R36/5500VP6000FT BR OVC002 19/18 A2991 1090 97 1800 260/05 RMK AO2 $
94908KDBQ DBQ20120617043512706/17/12 04:35:31  5-MIN KDBQ 171035Z AUTO 27007KT 1 1/2SM R36/5500VP6000FT BR OVC002 19/18 A2991 1090 97 1800 270/07 RMK AO2 $
94908KDBQ DBQ20120617044012306/17/12 04:40:31  5-MIN KDBQ 171040Z AUTO 29005KT 1SM R36/5000VP6000FT BR OVC002 19/18 A2991 1090 97 1800 290/05 RMK AO2 $
94908KDBQ DBQ20120617044512306/17/12 04:45:31  5-MIN KDBQ 171045Z AUTO 29005KT 1SM R36/5000VP6000FT BR OVC002 19/18 A2991 1090 97 1800 290/05 RMK AO2 $
94908KDBQ DBQ20120617045013506/17/12 04:50:31  5-MIN KDBQ 171050Z 27004KT 1SM R36/3000VP6000FT BR OVC002 19/18 A2991 1090 97 1800 270/04 RMK AO2 SLP120 T01890183 $
94908KDBQ DBQ20120617045511906/17/12 04:55:31  5-MIN KDBQ 171055Z 26006KT 3/4SM R36/3000V5500FT BR OVC002 19/18 A2991 1090 97 1800 260/06 RMK AO2 $
94908KDBQ DBQ20120617050012006/17/12 05:00:31  5-MIN KDBQ 171100Z 29005KT 1/2SM R36/1400V3500FT FG OVC002 18/18 A2991 1090 100 1800 290/05 RMK AO2 $
94908KDBQ DBQ20120617050512006/17/12 05:05:31  5-MIN KDBQ 171105Z 29005KT 1/2SM R36/1000V3500FT FG OVC002 18/18 A2991 1090 100 1800 290/05 RMK AO2 $
94908KDBQ DBQ20120617051011906/17/12 05:10:31  5-MIN KDBQ 171110Z 28004KT 1/4SM R36/1000V3500FT FG VV002 18/18 A2991 1080 100 1800 280/04 RMK AO2 $
94908KDBQ DBQ20120617051511906/17/12 05:15:31  5-MIN KDBQ 171115Z 27003KT 1/4SM R36/1000V3500FT FG VV002 18/18 A2991 1090 100 1800 270/03 RMK AO2 $
94908KDBQ DBQ20120617052011906/17/12 05:20:31  5-MIN KDBQ 171120Z 26003KT 1/2SM R36/1200V2400FT FG VV002 18/18 A2991 1080 100 1800 260/03 RMK AO2 $
94908KDBQ DBQ20120617052511906/17/12 05:25:31  5-MIN KDBQ 171125Z 25006KT 1/4SM R36/1200V2000FT FG VV002 18/18 A2991 1080 100 1800 250/06 RMK AO2 $
94908KDBQ DBQ20120617053011906/17/12 05:30:31  5-MIN KDBQ 171130Z 25005KT 1/4SM R36/1400V4500FT FG VV002 18/18 A2992 1080 100 1800 250/05 RMK AO2 $
94908KDBQ DBQ20120617053511806/17/12 05:35:31  5-MIN KDBQ 171135Z 26007KT 1/4SM R36/1400V4500FT FG VV002 18/18 A2992 1080 96 1800 260/07 RMK AO2 $
94908KDBQ DBQ20120617054011606/17/12 05:40:31  5-MIN KDBQ 171140Z 26006KT 1SM R36/4000V5500FT BR VV002 18/18 A2992 1080 96 1800 260/06 RMK AO2 $
94908KDBQ DBQ20120617054512106/17/12 05:45:31  5-MIN KDBQ 171145Z 26005KT 1 1/2SM R36/4000V5500FT BR OVC002 18/18 A2992 1080 96 1800 260/05 RMK AO2 $
94908KDBQ DBQ20120617055016406/17/12 05:50:31  5-MIN KDBQ 171150Z 26005KT 1 1/2SM R36/4000VP6000FT BR OVC002 18/18 A2992 1080 100 1700 260/05 RMK AO2 SLP126 70006 T01780178 10206 20178 56006 $
94908KDBQ DBQ20120617055511806/17/12 05:55:31  5-MIN KDBQ 171155Z 26005KT 2SM R36/5500VP6000FT BR OVC002 18/18 A2992 1080 96 1800 260/05 RMK AO2 $
94908KDBQ DBQ20120617060012206/17/12 06:00:31  5-MIN KDBQ 171200Z 26006KT 2 1/2SM R36/6000VP6000FT BR OVC002 18/18 A2992 1080 96 1800 260/06 RMK AO2 $
94908KDBQ DBQ20120617060510506/17/12 06:05:31  5-MIN KDBQ 171205Z 24005KT 2 1/2SM BR OVC002 18/18 A2992 1080 96 1800 230/05 RMK AO2 $
94908KDBQ DBQ20120617061010106/17/12 06:10:31  5-MIN KDBQ 171210Z 25006KT 3SM BR OVC002 18/18 A2992 1070 96 1800 250/06 RMK AO2 $
94908KDBQ DBQ20120617061510106/17/12 06:15:31  5-MIN KDBQ 171215Z 24006KT 3SM BR OVC002 18/18 A2992 1070 96 1800 240/06 RMK AO2 $
94908KDBQ DBQ20120617062010106/17/12 06:20:31  5-MIN KDBQ 171220Z 24005KT 3SM BR OVC002 18/18 A2992 1080 96 1800 240/05 RMK AO2 $
94908KDBQ DBQ20120617062510106/17/12 06:25:31  5-MIN KDBQ 171225Z 22007KT 3SM BR OVC002 19/18 A2992 1070 97 1800 220/07 RMK AO2 $
94908KDBQ DBQ20120617063010106/17/12 06:30:31  5-MIN KDBQ 171230Z 22006KT 4SM BR BKN002 19/18 A2993 1070 97 1800 220/06 RMK AO2 $
94908KDBQ DBQ20120617063510106/17/12 06:35:31  5-MIN KDBQ 171235Z 22005KT 4SM BR BKN002 19/18 A2992 1070 97 1800 220/05 RMK AO2 $
94908KDBQ DBQ20120617064010106/17/12 06:40:31  5-MIN KDBQ 171240Z 23005KT 4SM BR BKN002 19/18 A2993 1070 97 1800 230/05 RMK AO2 $
94908KDBQ DBQ20120617064510106/17/12 06:45:31  5-MIN KDBQ 171245Z 22006KT 4SM BR BKN002 19/18 A2993 1070 97 1800 220/06 RMK AO2 $
94908KDBQ DBQ20120617065011806/17/12 06:50:31  5-MIN KDBQ 171250Z 23005KT 4SM BR BKN002 19/18 A2993 1070 93 1900 220/05 RMK AO2 SLP131 T01940183 $
94908KDBQ DBQ20120617065510106/17/12 06:55:31  5-MIN KDBQ 171255Z 23006KT 5SM BR BKN002 19/18 A2993 1070 93 1900 230/06 RMK AO2 $
94908KDBQ DBQ20120617070010106/17/12 07:00:31  5-MIN KDBQ 171300Z 24006KT 5SM BR BKN002 19/18 A2993 1070 93 1900 240/06 RMK AO2 $
94908KDBQ DBQ20120617070510106/17/12 07:05:31  5-MIN KDBQ 171305Z 25006KT 5SM BR SCT002 20/18 A2994 1060 90 1900 250/06 RMK AO2 $
94908KDBQ DBQ20120617071010106/17/12 07:10:31  5-MIN KDBQ 171310Z 24003KT 5SM BR SCT004 19/18 A2994 1060 93 1900 230/03 RMK AO2 $
94908KDBQ DBQ20120617071510106/17/12 07:15:31  5-MIN KDBQ 171315Z 23004KT 5SM BR SCT004 20/18 A2994 1060 90 1900 230/04 RMK AO2 $
94908KDBQ DBQ20120617072010106/17/12 07:20:31  5-MIN KDBQ 171320Z 24005KT 6SM BR FEW004 20/18 A2994 1060 90 1900 240/05 RMK AO2 $
94908KDBQ DBQ20120617072510106/17/12 07:25:31  5-MIN KDBQ 171325Z 25006KT 6SM BR FEW006 21/18 A2994 1060 87 2000 250/06 RMK AO2 $
94908KDBQ DBQ20120617073009806/17/12 07:30:31  5-MIN KDBQ 171330Z 22005KT 7SM FEW006 21/18 A2994 1060 87 2000 220/05 RMK AO2 $
94908KDBQ DBQ20120617073509806/17/12 07:35:31  5-MIN KDBQ 171335Z 23005KT 7SM FEW006 21/18 A2994 1060 84 2100 230/05 RMK AO2 $
94908KDBQ DBQ20120617074009806/17/12 07:40:31  5-MIN KDBQ 171340Z 25006KT 8SM FEW006 21/18 A2995 1050 81 2000 250/06 RMK AO2 $
94908KDBQ DBQ20120617074509506/17/12 07:45:31  5-MIN KDBQ 171345Z 26004KT 9SM CLR 22/18 A2995 1050 78 2100 260/04 RMK AO2 $
94908KDBQ DBQ20120617075011306/17/12 07:50:31  5-MIN KDBQ 171350Z 23006KT 10SM CLR 22/18 A2995 1050 81 2100 230/06 RMK AO2 SLP135 T02170183 $
94908KDBQ DBQ20120617075509606/17/12 07:55:31  5-MIN KDBQ 171355Z 25005KT 10SM CLR 22/18 A2995 1050 78 2100 250/05 RMK AO2 $
94908KDBQ DBQ20120617080009606/17/12 08:00:31  5-MIN KDBQ 171400Z 25004KT 10SM CLR 22/18 A2995 1050 78 2100 250/04 RMK AO2 $
94908KDBQ DBQ20120617080509606/17/12 08:05:31  5-MIN KDBQ 171405Z 25004KT 10SM CLR 22/18 A2995 1060 78 2100 250/04 RMK AO2 $
94908KDBQ DBQ20120617081009606/17/12 08:10:31  5-MIN KDBQ 171410Z 25004KT 10SM CLR 22/17 A2994 1060 73 2200 250/04 RMK AO2 $
94908KDBQ DBQ20120617081509606/17/12 08:15:31  5-MIN KDBQ 171415Z 23005KT 10SM CLR 22/18 A2994 1060 75 2200 230/05 RMK AO2 $
94908KDBQ DBQ20120617082009606/17/12 08:20:31  5-MIN KDBQ 171420Z 23004KT 10SM CLR 22/18 A2994 1060 75 2200 230/04 RMK AO2 $
94908KDBQ DBQ20120617082509606/17/12 08:25:31  5-MIN KDBQ 171425Z 24004KT 10SM CLR 22/18 A2994 1060 75 2200 240/04 RMK AO2 $
94908KDBQ DBQ20120617083009606/17/12 08:30:31  5-MIN KDBQ 171430Z 22004KT 10SM CLR 23/17 A2994 1060 68 2200 220/04 RMK AO2 $
94908KDBQ DBQ20120617083509606/17/12 08:35:31  5-MIN KDBQ 171435Z 24005KT 10SM CLR 22/16 A2994 1060 68 2200 240/05 RMK AO2 $
94908KDBQ DBQ20120617084009606/17/12 08:40:31  5-MIN KDBQ 171440Z 24005KT 10SM CLR 23/17 A2993 1070 68 2300 240/05 RMK AO2 $
94908KDBQ DBQ20120617084509606/17/12 08:45:31  5-MIN KDBQ 171445Z 25004KT 10SM CLR 23/16 A2993 1070 63 2300 250/04 RMK AO2 $
94908KDBQ DBQ20120617085011906/17/12 08:50:31  5-MIN KDBQ 171450Z 24005KT 10SM CLR 23/16 A2993 1070 63 2300 240/05 RMK AO2 SLP130 T02330161 53006 $
94908KDBQ DBQ20120617085509606/17/12 08:55:31  5-MIN KDBQ 171455Z 27006KT 10SM CLR 23/14 A2993 1070 57 2300 270/06 RMK AO2 $
94908KDBQ DBQ20120617090009606/17/12 09:00:31  5-MIN KDBQ 171500Z 00000KT 10SM CLR 23/13 A2993 1070 53 2300 000/00 RMK AO2 $
94908KDBQ DBQ20120617090509606/17/12 09:05:31  5-MIN KDBQ 171505Z 24004KT 10SM CLR 23/14 A2993 1070 57 2300 240/04 RMK AO2 $
94908KDBQ DBQ20120617091009606/17/12 09:10:31  5-MIN KDBQ 171510Z 23005KT 10SM CLR 23/15 A2993 1070 59 2300 230/05 RMK AO2 $
94908KDBQ DBQ20120617091509606/17/12 09:15:31  5-MIN KDBQ 171515Z 23005KT 10SM CLR 23/15 A2993 1070 59 2300 230/05 RMK AO2 $
94908KDBQ DBQ20120617092009606/17/12 09:20:31  5-MIN KDBQ 171520Z 26008KT 10SM CLR 24/14 A2993 1070 55 2400 260/08 RMK AO2 $
94908KDBQ DBQ20120617092509606/17/12 09:25:31  5-MIN KDBQ 171525Z 27005KT 10SM CLR 24/12 A2993 1070 46 2400 270/05 RMK AO2 $
94908KDBQ DBQ20120617093009606/17/12 09:30:31  5-MIN KDBQ 171530Z 28004KT 10SM CLR 24/13 A2993 1070 47 2500 280/04 RMK AO2 $
94908KDBQ DBQ20120617093509606/17/12 09:35:31  5-MIN KDBQ 171535Z VRB06KT 10SM CLR 25/13 A2992 1070 48 2500 VRB/06 RMK AO2 $
94908KDBQ DBQ20120617094009606/17/12 09:40:31  5-MIN KDBQ 171540Z 25004KT 10SM CLR 25/12 A2992 1080 43 2500 250/04 RMK AO2 $
94908KDBQ DBQ20120617094509606/17/12 09:45:31  5-MIN KDBQ 171545Z 25006KT 10SM CLR 25/11 A2992 1080 41 2500 250/06 RMK AO2 $
94908KDBQ DBQ20120617095011306/17/12 09:50:31  5-MIN KDBQ 171550Z VRB03KT 10SM CLR 24/11 A2992 1080 41 2500 VRB/03 RMK AO2 SLP124 T02440106 $
94908KDBQ DBQ20120617095509606/17/12 09:55:31  5-MIN KDBQ 171555Z 00000KT 10SM CLR 24/10 A2992 1080 39 2500 000/00 RMK AO2 $
94908KDBQ DBQ20120617100009606/17/12 10:00:31  5-MIN KDBQ 171600Z 30004KT 10SM CLR 25/11 A2992 1080 39 2500 300/04 RMK AO2 $
94908KDBQ DBQ20120617100509606/17/12 10:05:31  5-MIN KDBQ 171605Z 00000KT 10SM CLR 26/11 A2992 1080 40 2600 000/00 RMK AO2 $
94908KDBQ DBQ20120617101009606/17/12 10:10:31  5-MIN KDBQ 171610Z 00000KT 10SM CLR 25/11 A2991 1080 39 2500 000/00 RMK AO2 $
94908KDBQ DBQ20120617101509606/17/12 10:15:31  5-MIN KDBQ 171615Z 00000KT 10SM CLR 26/10 A2991 1080 37 2600 000/00 RMK AO2 $
94908KDBQ DBQ20120617102009606/17/12 10:20:31  5-MIN KDBQ 171620Z 22003KT 10SM CLR 25/11 A2991 1090 41 2500 220/03 RMK AO2 $
94908KDBQ DBQ20120617102509606/17/12 10:25:31  5-MIN KDBQ 171625Z VRB03KT 10SM CLR 26/11 A2991 1090 40 2600 VRB/03 RMK AO2 $
94908KDBQ DBQ20120617103009606/17/12 10:30:31  5-MIN KDBQ 171630Z 23007KT 10SM CLR 26/12 A2991 1080 43 2600 230/07 RMK AO2 $
94908KDBQ DBQ20120617103509606/17/12 10:35:31  5-MIN KDBQ 171635Z 24006KT 10SM CLR 26/12 A2991 1090 41 2600 230/06 RMK AO2 $
94908KDBQ DBQ20120617104009606/17/12 10:40:31  5-MIN KDBQ 171640Z 25005KT 10SM CLR 26/12 A2991 1090 41 2600 250/05 RMK AO2 $
94908KDBQ DBQ20120617104509606/17/12 10:45:31  5-MIN KDBQ 171645Z VRB06KT 10SM CLR 26/11 A2991 1090 40 2600 VRB/06 RMK AO2 $
94908KDBQ DBQ20120617105011306/17/12 10:50:31  5-MIN KDBQ 171650Z VRB04KT 10SM CLR 26/12 A2991 1090 41 2700 VRB/04 RMK AO2 SLP122 T02610122 $
94908KDBQ DBQ20120617105509606/17/12 10:55:31  5-MIN KDBQ 171655Z 22008KT 10SM CLR 26/12 A2991 1090 41 2600 220/08 RMK AO2 $
94908KDBQ DBQ20120617110009606/17/12 11:00:31  5-MIN KDBQ 171700Z VRB03KT 10SM CLR 26/11 A2990 1090 40 2600 VRB/03 RMK AO2 $
94908KDBQ DBQ20120617110509606/17/12 11:05:31  5-MIN KDBQ 171705Z 25007KT 10SM CLR 26/11 A2990 1100 38 2700 250/07 RMK AO2 $
94908KDBQ DBQ20120617111009606/17/12 11:10:31  5-MIN KDBQ 171710Z 22003KT 10SM CLR 26/11 A2990 1100 40 2600 220/03 RMK AO2 $
94908KDBQ DBQ20120617111509606/17/12 11:15:31  5-MIN KDBQ 171715Z 25006KT 10SM CLR 26/11 A2990 1100 38 2700 250/06 RMK AO2 $
94908KDBQ DBQ20120617112009606/17/12 11:20:31  5-MIN KDBQ 171720Z 26007KT 10SM CLR 26/11 A2989 1100 40 2600 260/07 RMK AO2 $
94908KDBQ DBQ20120617112509606/17/12 11:25:31  5-MIN KDBQ 171725Z 27004KT 10SM CLR 26/10 A2989 1100 36 2700 270/04 RMK AO2 $
94908KDBQ DBQ20120617113009606/17/12 11:30:31  5-MIN KDBQ 171730Z VRB05KT 10SM CLR 26/11 A2989 1110 37 2700 VRB/05 RMK AO2 $
94908KDBQ DBQ20120617113509606/17/12 11:35:31  5-MIN KDBQ 171735Z 00000KT 10SM CLR 27/09 A2989 1110 33 2700 000/00 RMK AO2 $
94908KDBQ DBQ20120617114009606/17/12 11:40:31  5-MIN KDBQ 171740Z 26004KT 10SM CLR 26/09 A2989 1110 34 2700 260/04 RMK AO2 $
94908KDBQ DBQ20120617114509606/17/12 11:45:31  5-MIN KDBQ 171745Z VRB05KT 10SM CLR 27/11 A2988 1110 37 2700 VRB/05 RMK AO2 $
94908KDBQ DBQ20120617115013106/17/12 11:50:31  5-MIN KDBQ 171750Z 00000KT 10SM CLR 26/10 A2988 1110 36 2700 000/00 RMK AO2 SLP112 T02610100 10267 20183 50003 $
94908KDBQ DBQ20120617115509606/17/12 11:55:31  5-MIN KDBQ 171755Z 00000KT 10SM CLR 27/09 A2988 1110 33 2700 000/00 RMK AO2 $
94908KDBQ DBQ20120617120009606/17/12 12:00:31  5-MIN KDBQ 171800Z 00000KT 10SM CLR 27/09 A2988 1110 33 2700 000/00 RMK AO2 $
94908KDBQ DBQ20120617120509606/17/12 12:05:31  5-MIN KDBQ 171805Z VRB03KT 10SM CLR 27/10 A2988 1120 34 2800 VRB/03 RMK AO2 $
94908KDBQ DBQ20120617121009606/17/12 12:10:31  5-MIN KDBQ 171810Z 21005KT 10SM CLR 27/12 A2988 1120 38 2800 210/05 RMK AO2 $
94908KDBQ DBQ20120617121509606/17/12 12:15:31  5-MIN KDBQ 171815Z 21005KT 10SM CLR 27/11 A2988 1120 37 2800 210/05 RMK AO2 $
94908KDBQ DBQ20120617122009606/17/12 12:20:31  5-MIN KDBQ 171820Z 21005KT 10SM CLR 27/12 A2988 1120 38 2800 210/05 RMK AO2 $
94908KDBQ DBQ20120617122509606/17/12 12:25:31  5-MIN KDBQ 171825Z 22007KT 10SM CLR 27/12 A2988 1120 38 2800 220/07 RMK AO2 $
94908KDBQ DBQ20120617123009606/17/12 12:30:31  5-MIN KDBQ 171830Z 21006KT 10SM CLR 27/12 A2987 1120 38 2800 200/06 RMK AO2 $
94908KDBQ DBQ20120617123509606/17/12 12:35:31  5-MIN KDBQ 171835Z 22009KT 10SM CLR 27/11 A2987 1120 37 2800 220/09 RMK AO2 $
94908KDBQ DBQ20120617124009606/17/12 12:40:31  5-MIN KDBQ 171840Z 22006KT 10SM CLR 27/12 A2987 1120 38 2800 220/06 RMK AO2 $
94908KDBQ DBQ20120617124509606/17/12 12:45:31  5-MIN KDBQ 171845Z 18005KT 10SM CLR 27/11 A2987 1130 37 2800 180/05 RMK AO2 $
94908KDBQ DBQ20120617125011306/17/12 12:50:31  5-MIN KDBQ 171850Z 20007KT 10SM CLR 27/11 A2987 1130 37 2800 200/07 RMK AO2 SLP107 T02670111 $
94908KDBQ DBQ20120617125509606/17/12 12:55:31  5-MIN KDBQ 171855Z 23005KT 10SM CLR 27/11 A2987 1130 37 2800 220/05 RMK AO2 $
94908KDBQ DBQ20120617130009606/17/12 13:00:31  5-MIN KDBQ 171900Z VRB06KT 10SM CLR 27/11 A2987 1130 37 2800 VRB/06 RMK AO2 $
94908KDBQ DBQ20120617130509606/17/12 13:05:31  5-MIN KDBQ 171905Z 20009KT 10SM CLR 27/11 A2987 1130 36 2800 200/09 RMK AO2 $
94908KDBQ DBQ20120617131009606/17/12 13:10:31  5-MIN KDBQ 171910Z 19007KT 10SM CLR 27/11 A2987 1130 36 2800 190/07 RMK AO2 $
94908KDBQ DBQ20120617131509606/17/12 13:15:31  5-MIN KDBQ 171915Z 18007KT 10SM CLR 27/11 A2986 1130 36 2800 180/07 RMK AO2 $
94908KDBQ DBQ20120617132009606/17/12 13:20:31  5-MIN KDBQ 171920Z 21007KT 10SM CLR 27/11 A2986 1140 36 2800 210/07 RMK AO2 $
94908KDBQ DBQ20120617132509606/17/12 13:25:31  5-MIN KDBQ 171925Z 19010KT 10SM CLR 27/11 A2986 1140 36 2800 190/10 RMK AO2 $
94908KDBQ DBQ20120617133009606/17/12 13:30:31  5-MIN KDBQ 171930Z 21007KT 10SM CLR 27/11 A2985 1140 36 2800 210/07 RMK AO2 $
94908KDBQ DBQ20120617133509606/17/12 13:35:31  5-MIN KDBQ 171935Z 21008KT 10SM CLR 28/12 A2985 1140 36 2900 210/08 RMK AO2 $
94908KDBQ DBQ20120617134009606/17/12 13:40:31  5-MIN KDBQ 171940Z 23007KT 10SM CLR 27/12 A2985 1140 37 2800 230/07 RMK AO2 $
94908KDBQ DBQ20120617134509606/17/12 13:45:31  5-MIN KDBQ 171945Z 21011KT 10SM CLR 28/12 A2985 1140 37 2900 210/11 RMK AO2 $
94908KDBQ DBQ20120617135011306/17/12 13:50:31  5-MIN KDBQ 171950Z 21006KT 10SM CLR 27/12 A2985 1140 37 2800 210/06 RMK AO2 SLP101 T02720117 $
94908KDBQ DBQ20120617135509606/17/12 13:55:31  5-MIN KDBQ 171955Z 22007KT 10SM CLR 28/12 A2985 1140 36 2900 220/07 RMK AO2 $
94908KDBQ DBQ20120617140009606/17/12 14:00:31  5-MIN KDBQ 172000Z 22010KT 10SM CLR 28/12 A2985 1140 37 2900 220/10 RMK AO2 $
94908KDBQ DBQ20120617140509606/17/12 14:05:31  5-MIN KDBQ 172005Z 18009KT 10SM CLR 27/11 A2985 1150 36 2800 170/09 RMK AO2 $
94908KDBQ DBQ20120617141009606/17/12 14:10:31  5-MIN KDBQ 172010Z 20010KT 10SM CLR 28/12 A2985 1150 36 2900 200/10 RMK AO2 $
94908KDBQ DBQ20120617141509606/17/12 14:15:31  5-MIN KDBQ 172015Z 19009KT 10SM CLR 28/12 A2984 1150 36 2900 190/09 RMK AO2 $
94908KDBQ DBQ20120617142010206/17/12 14:20:31  5-MIN KDBQ 172020Z 20011G14KT 10SM CLR 27/11 A2984 1150 36 2900 200/11G14 RMK AO2 $
94908KDBQ DBQ20120617142510206/17/12 14:25:31  5-MIN KDBQ 172025Z 21010G14KT 10SM CLR 27/11 A2984 1150 36 2900 210/10G14 RMK AO2 $
94908KDBQ DBQ20120617143009606/17/12 14:30:31  5-MIN KDBQ 172030Z 19011KT 10SM CLR 27/11 A2984 1150 36 2900 190/11 RMK AO2 $
94908KDBQ DBQ20120617143509606/17/12 14:35:31  5-MIN KDBQ 172035Z 20011KT 10SM CLR 27/11 A2984 1150 37 2800 200/11 RMK AO2 $
94908KDBQ DBQ20120617144009606/17/12 14:40:31  5-MIN KDBQ 172040Z 19009KT 10SM CLR 27/11 A2984 1150 36 2800 190/09 RMK AO2 $
94908KDBQ DBQ20120617144509606/17/12 14:45:31  5-MIN KDBQ 172045Z 17011KT 10SM CLR 27/11 A2984 1160 37 2800 170/11 RMK AO2 $
94908KDBQ DBQ20120617145011906/17/12 14:50:31  5-MIN KDBQ 172050Z 20011KT 10SM CLR 27/11 A2984 1160 37 2800 200/11 RMK AO2 SLP097 T02670111 58015 $
94908KDBQ DBQ20120617145509606/17/12 14:55:31  5-MIN KDBQ 172055Z 21010KT 10SM CLR 27/11 A2984 1160 36 2900 200/10 RMK AO2 $
94908KDBQ DBQ20120617150009606/17/12 15:00:31  5-MIN KDBQ 172100Z 19012KT 10SM CLR 27/11 A2983 1160 36 2900 190/12 RMK AO2 $
94908KDBQ DBQ20120617150509606/17/12 15:05:31  5-MIN KDBQ 172105Z 19009KT 10SM CLR 28/11 A2983 1160 33 2900 190/09 RMK AO2 $
94908KDBQ DBQ20120617151010206/17/12 15:10:31  5-MIN KDBQ 172110Z 21014G19KT 10SM CLR 28/11 A2983 1160 35 2900 210/14G19 RMK AO2 $
94908KDBQ DBQ20120617151510206/17/12 15:15:31  5-MIN KDBQ 172115Z 22011G19KT 10SM CLR 28/12 A2983 1160 36 2900 210/11G19 RMK AO2 $
94908KDBQ DBQ20120617152009606/17/12 15:20:31  5-MIN KDBQ 172120Z 20009KT 10SM CLR 28/12 A2983 1160 36 2900 200/09 RMK AO2 $
94908KDBQ DBQ20120617152509606/17/12 15:25:31  5-MIN KDBQ 172125Z 19011KT 10SM CLR 28/12 A2983 1160 36 2900 190/11 RMK AO2 $
94908KDBQ DBQ20120617153009606/17/12 15:30:31  5-MIN KDBQ 172130Z 20011KT 10SM CLR 27/12 A2983 1160 37 2900 200/11 RMK AO2 $
94908KDBQ DBQ20120617153509606/17/12 15:35:31  5-MIN KDBQ 172135Z 19012KT 10SM CLR 27/12 A2983 1170 39 2900 190/12 RMK AO2 $
94908KDBQ DBQ20120617154009606/17/12 15:40:31  5-MIN KDBQ 172140Z 19011KT 10SM CLR 27/12 A2983 1160 37 2900 190/11 RMK AO2 $
94908KDBQ DBQ20120617154509606/17/12 15:45:31  5-MIN KDBQ 172145Z 21012KT 10SM CLR 27/12 A2983 1170 40 2800 210/12 RMK AO2 $
94908KDBQ DBQ20120617155011306/17/12 15:50:31  5-MIN KDBQ 172150Z 22013KT 10SM CLR 27/12 A2983 1170 38 2800 210/13 RMK AO2 SLP093 T02670117 $
94908KDBQ DBQ20120617155509606/17/12 15:55:31  5-MIN KDBQ 172155Z 21013KT 10SM CLR 27/12 A2982 1170 38 2800 210/13 RMK AO2 $
94908KDBQ DBQ20120617160009606/17/12 16:00:31  5-MIN KDBQ 172200Z 22011KT 10SM CLR 27/12 A2982 1170 38 2800 220/11 RMK AO2 $
94908KDBQ DBQ20120617160509606/17/12 16:05:31  5-MIN KDBQ 172205Z 21013KT 10SM CLR 27/12 A2982 1170 38 2800 210/13 RMK AO2 $
94908KDBQ DBQ20120617161010206/17/12 16:10:31  5-MIN KDBQ 172210Z 21013G20KT 10SM CLR 27/11 A2982 1170 37 2800 210/13G20 RMK AO2 $
94908KDBQ DBQ20120617161509606/17/12 16:15:31  5-MIN KDBQ 172215Z 21013KT 10SM CLR 27/11 A2982 1170 37 2800 210/13 RMK AO2 $
94908KDBQ DBQ20120617162009606/17/12 16:20:31  5-MIN KDBQ 172220Z 21012KT 10SM CLR 27/12 A2982 1170 38 2800 210/12 RMK AO2 $
94908KDBQ DBQ20120617162509606/17/12 16:25:31  5-MIN KDBQ 172225Z 20011KT 10SM CLR 27/12 A2982 1170 38 2800 200/11 RMK AO2 $
94908KDBQ DBQ20120617163009606/17/12 16:30:31  5-MIN KDBQ 172230Z 19012KT 10SM CLR 26/12 A2982 1180 41 2800 190/12 RMK AO2 $
94908KDBQ DBQ20120617163509606/17/12 16:35:31  5-MIN KDBQ 172235Z 19012KT 10SM CLR 26/12 A2981 1180 41 2800 190/12 RMK AO2 $
94908KDBQ DBQ20120617164009606/17/12 16:40:31  5-MIN KDBQ 172240Z 20012KT 10SM CLR 27/12 A2981 1180 38 2800 200/12 RMK AO2 $
94908KDBQ DBQ20120617164509606/17/12 16:45:31  5-MIN KDBQ 172245Z 20012KT 10SM CLR 26/12 A2981 1180 41 2800 200/12 RMK AO2 $
94908KDBQ DBQ20120617165011306/17/12 16:50:31  5-MIN KDBQ 172250Z 20012KT 10SM CLR 26/12 A2981 1180 41 2800 190/12 RMK AO2 SLP089 T02610122 $
94908KDBQ DBQ20120617165509606/17/12 16:55:31  5-MIN KDBQ 172255Z 20010KT 10SM CLR 26/12 A2981 1180 41 2800 200/10 RMK AO2 $
94908KDBQ DBQ20120617170009606/17/12 17:00:31  5-MIN KDBQ 172300Z 20012KT 10SM CLR 26/12 A2981 1180 41 2800 200/12 RMK AO2 $
94908KDBQ DBQ20120617170509606/17/12 17:05:31  5-MIN KDBQ 172305Z 20012KT 10SM CLR 26/13 A2981 1180 43 2800 200/12 RMK AO2 $
94908KDBQ DBQ20120617171009606/17/12 17:10:31  5-MIN KDBQ 172310Z 19011KT 10SM CLR 26/13 A2981 1180 44 2800 190/11 RMK AO2 $
94908KDBQ DBQ20120617171509606/17/12 17:15:31  5-MIN KDBQ 172315Z 18012KT 10SM CLR 26/13 A2980 1190 44 2800 180/12 RMK AO2 $
94908KDBQ DBQ20120617172010206/17/12 17:20:31  5-MIN KDBQ 172320Z 19013G18KT 10SM CLR 26/12 A2980 1190 41 2800 180/13G18 RMK AO2 $
94908KDBQ DBQ20120617172509606/17/12 17:25:31  5-MIN KDBQ 172325Z 18013KT 10SM CLR 26/13 A2980 1190 44 2700 180/13 RMK AO2 $
94908KDBQ DBQ20120617173009606/17/12 17:30:31  5-MIN KDBQ 172330Z 18011KT 10SM CLR 26/12 A2980 1190 43 2700 180/11 RMK AO2 $
94908KDBQ DBQ20120617173509906/17/12 17:35:31  5-MIN KDBQ 172335Z 18013KT 10SM FEW120 26/12 A2980 1190 41 2700 180/13 RMK AO2 $
94908KDBQ DBQ20120617174009906/17/12 17:40:31  5-MIN KDBQ 172340Z 18012KT 10SM FEW120 26/12 A2980 1190 41 2700 180/12 RMK AO2 $
94908KDBQ DBQ20120617174509906/17/12 17:45:31  5-MIN KDBQ 172345Z 18011KT 10SM FEW120 26/12 A2980 1190 43 2700 180/11 RMK AO2 $
94908KDBQ DBQ20120617175013406/17/12 17:50:31  5-MIN KDBQ 172350Z 18010KT 10SM FEW120 26/13 A2980 1190 44 2700 180/10 RMK AO2 SLP084 T02560128 10278 20256 56015 $
94908KDBQ DBQ20120617175509906/17/12 17:55:31  5-MIN KDBQ 172355Z 18010KT 10SM SCT110 26/13 A2980 1190 44 2700 180/10 RMK AO2 $
94908KDBQ DBQ20120617180009906/17/12 18:00:31  5-MIN KDBQ 180000Z 18010KT 10SM BKN110 26/13 A2979 1200 44 2700 180/10 RMK AO2 $
94908KDBQ DBQ20120617180509906/17/12 18:05:31  5-MIN KDBQ 180005Z 18010KT 10SM SCT100 26/13 A2979 1200 44 2700 180/10 RMK AO2 $
94908KDBQ DBQ20120617181009906/17/12 18:10:31  5-MIN KDBQ 180010Z 18010KT 10SM SCT100 26/13 A2979 1200 44 2700 180/10 RMK AO2 $
94908KDBQ DBQ20120617181509906/17/12 18:15:31  5-MIN KDBQ 180015Z 18010KT 10SM SCT110 25/13 A2979 1200 46 2700 180/10 RMK AO2 $
94908KDBQ DBQ20120617182009906/17/12 18:20:31  5-MIN KDBQ 180020Z 18010KT 10SM FEW110 25/13 A2979 1200 46 2700 180/10 RMK AO2 $
94908KDBQ DBQ20120617182509906/17/12 18:25:31  5-MIN KDBQ 180025Z 18009KT 10SM FEW100 25/13 A2979 1200 48 2700 180/09 RMK AO2 $
94908KDBQ DBQ20120617183009606/17/12 18:30:31  5-MIN KDBQ 180030Z 18008KT 10SM CLR 25/13 A2979 1200 48 2700 180/08 RMK AO2 $
94908KDBQ DBQ20120617183509606/17/12 18:35:31  5-MIN KDBQ 180035Z 18008KT 10SM CLR 25/13 A2979 1200 48 2700 180/08 RMK AO2 $
94908KDBQ DBQ20120617184009606/17/12 18:40:31  5-MIN KDBQ 180040Z 18008KT 10SM CLR 25/14 A2979 1200 49 2700 180/08 RMK AO2 $
94908KDBQ DBQ20120617184509606/17/12 18:45:31  5-MIN KDBQ 180045Z 18008KT 10SM CLR 25/14 A2979 1200 49 2700 180/08 RMK AO2 $
94908KDBQ DBQ20120617185011606/17/12 18:50:31  5-MIN KDBQ 180050Z 18008KT 10SM FEW100 24/14 A2979 1200 53 2600 170/08 RMK AO2 SLP080 T02440144 $
94908KDBQ DBQ20120617185510406/17/12 18:55:31  5-MIN KDBQ 180055Z AUTO 18007KT 10SM FEW100 24/14 A2978 1200 53 2600 170/07 RMK AO2 $
94908KDBQ DBQ20120617190010406/17/12 19:00:31  5-MIN KDBQ 180100Z AUTO 17008KT 10SM SCT110 24/14 A2978 1210 53 2600 170/08 RMK AO2 $
94908KDBQ DBQ20120617190510406/17/12 19:05:31  5-MIN KDBQ 180105Z AUTO 17009KT 10SM SCT110 24/14 A2978 1210 53 2600 170/09 RMK AO2 $
94908KDBQ DBQ20120617191010406/17/12 19:10:31  5-MIN KDBQ 180110Z AUTO 17009KT 10SM SCT110 24/14 A2978 1210 53 2600 170/09 RMK AO2 $
94908KDBQ DBQ20120617191510406/17/12 19:15:31  5-MIN KDBQ 180115Z AUTO 17010KT 10SM SCT100 24/14 A2977 1210 53 2600 170/10 RMK AO2 $
94908KDBQ DBQ20120617192010406/17/12 19:20:31  5-MIN KDBQ 180120Z AUTO 17011KT 10SM SCT100 24/13 A2977 1220 49 2600 170/11 RMK AO2 $
94908KDBQ DBQ20120617192510406/17/12 19:25:31  5-MIN KDBQ 180125Z AUTO 17010KT 10SM SCT100 24/13 A2977 1220 49 2600 170/10 RMK AO2 $
94908KDBQ DBQ20120617193010406/17/12 19:30:31  5-MIN KDBQ 180130Z AUTO 17009KT 10SM FEW100 23/13 A2977 1220 51 2500 170/09 RMK AO2 $
94908KDBQ DBQ20120617193510406/17/12 19:35:31  5-MIN KDBQ 180135Z AUTO 17008KT 10SM SCT100 23/13 A2977 1220 51 2500 170/08 RMK AO2 $
94908KDBQ DBQ20120617194010406/17/12 19:40:31  5-MIN KDBQ 180140Z AUTO 17009KT 10SM BKN100 23/13 A2976 1220 51 2500 170/09 RMK AO2 $
94908KDBQ DBQ20120617194510406/17/12 19:45:31  5-MIN KDBQ 180145Z AUTO 17009KT 10SM BKN100 23/13 A2976 1230 51 2500 170/09 RMK AO2 $
94908KDBQ DBQ20120617195012106/17/12 19:50:31  5-MIN KDBQ 180150Z AUTO 17009KT 10SM BKN100 23/13 A2976 1230 53 2500 170/09 RMK AO2 SLP071 T02280128 $
94908KDBQ DBQ20120617195510406/17/12 19:55:31  5-MIN KDBQ 180155Z AUTO 16009KT 10SM BKN100 23/13 A2976 1230 53 2500 160/09 RMK AO2 $
94908KDBQ DBQ20120617200010406/17/12 20:00:31  5-MIN KDBQ 180200Z AUTO 17009KT 10SM SCT100 23/13 A2975 1230 53 2500 160/09 RMK AO2 $
94908KDBQ DBQ20120617200510406/17/12 20:05:31  5-MIN KDBQ 180205Z AUTO 17010KT 10SM SCT100 23/13 A2975 1240 55 2500 170/10 RMK AO2 $
94908KDBQ DBQ20120617201010406/17/12 20:10:31  5-MIN KDBQ 180210Z AUTO 17009KT 10SM BKN100 23/13 A2975 1240 55 2500 170/09 RMK AO2 $
94908KDBQ DBQ20120617201510406/17/12 20:15:31  5-MIN KDBQ 180215Z AUTO 16009KT 10SM BKN100 23/13 A2975 1240 55 2500 160/09 RMK AO2 $
94908KDBQ DBQ20120617202010406/17/12 20:20:31  5-MIN KDBQ 180220Z AUTO 16010KT 10SM SCT100 23/13 A2975 1240 55 2500 160/10 RMK AO2 $
94908KDBQ DBQ20120617202510406/17/12 20:25:31  5-MIN KDBQ 180225Z AUTO 17009KT 10SM SCT100 23/14 A2975 1240 57 2500 160/09 RMK AO2 $
94908KDBQ DBQ20120617203010406/17/12 20:30:31  5-MIN KDBQ 180230Z AUTO 17009KT 10SM SCT100 23/14 A2975 1240 57 2500 170/09 RMK AO2 $
94908KDBQ DBQ20120617203510406/17/12 20:35:31  5-MIN KDBQ 180235Z AUTO 17008KT 10SM SCT100 22/14 A2975 1240 59 2400 170/08 RMK AO2 $
94908KDBQ DBQ20120617204010406/17/12 20:40:31  5-MIN KDBQ 180240Z AUTO 16009KT 10SM FEW100 22/14 A2974 1240 59 2400 160/09 RMK AO2 $
94908KDBQ DBQ20120617204510406/17/12 20:45:31  5-MIN KDBQ 180245Z AUTO 17010KT 10SM SCT110 23/14 A2974 1240 57 2500 160/10 RMK AO2 $
94908KDBQ DBQ20120617205012706/17/12 20:50:31  5-MIN KDBQ 180250Z AUTO 17010KT 10SM BKN110 23/14 A2974 1240 57 2500 160/10 RMK AO2 SLP065 T02280139 58013 $
94908KDBQ DBQ20120617205510406/17/12 20:55:31  5-MIN KDBQ 180255Z AUTO 17010KT 10SM BKN100 23/14 A2975 1240 57 2500 170/10 RMK AO2 $
94908KDBQ DBQ20120617210010406/17/12 21:00:31  5-MIN KDBQ 180300Z AUTO 17010KT 10SM BKN100 23/14 A2975 1240 59 2500 170/10 RMK AO2 $
94908KDBQ DBQ20120617210510406/17/12 21:05:31  5-MIN KDBQ 180305Z AUTO 17011KT 10SM BKN100 23/14 A2974 1240 59 2500 170/11 RMK AO2 $
94908KDBQ DBQ20120617211010406/17/12 21:10:31  5-MIN KDBQ 180310Z AUTO 17011KT 10SM BKN100 23/14 A2974 1240 57 2500 170/11 RMK AO2 $
94908KDBQ DBQ20120617211510406/17/12 21:15:31  5-MIN KDBQ 180315Z AUTO 17012KT 10SM OVC100 23/14 A2974 1240 57 2500 170/12 RMK AO2 $
94908KDBQ DBQ20120617212010406/17/12 21:20:31  5-MIN KDBQ 180320Z AUTO 17011KT 10SM OVC100 23/14 A2974 1240 57 2500 170/11 RMK AO2 $
94908KDBQ DBQ20120617212511106/17/12 21:25:31  5-MIN KDBQ 180325Z AUTO 17011KT 10SM BKN100 BKN120 23/14 A2974 1250 59 2500 170/11 RMK AO2 $
94908KDBQ DBQ20120617213010406/17/12 21:30:31  5-MIN KDBQ 180330Z AUTO 17011KT 10SM BKN100 23/14 A2974 1250 59 2500 170/11 RMK AO2 $
94908KDBQ DBQ20120617213510406/17/12 21:35:31  5-MIN KDBQ 180335Z AUTO 17012KT 10SM BKN100 23/14 A2974 1250 59 2500 170/12 RMK AO2 $
94908KDBQ DBQ20120617214010406/17/12 21:40:31  5-MIN KDBQ 180340Z AUTO 17013KT 10SM SCT100 23/14 A2973 1250 57 2500 170/13 RMK AO2 $
94908KDBQ DBQ20120617214510406/17/12 21:45:31  5-MIN KDBQ 180345Z AUTO 17013KT 10SM BKN100 23/14 A2973 1250 57 2500 170/13 RMK AO2 $
94908KDBQ DBQ20120617215012806/17/12 21:50:31  5-MIN KDBQ 180350Z AUTO 17011KT 10SM BKN100 BKN120 23/14 A2974 1250 59 2500 170/11 RMK AO2 SLP062 T02280144 $
94908KDBQ DBQ20120617215510406/17/12 21:55:31  5-MIN KDBQ 180355Z AUTO 17012KT 10SM BKN100 23/14 A2973 1250 59 2500 170/12 RMK AO2 $
94908KDBQ DBQ20120617220010406/17/12 22:00:31  5-MIN KDBQ 180400Z AUTO 17012KT 10SM SCT100 23/14 A2973 1260 59 2500 170/12 RMK AO2 $
94908KDBQ DBQ20120617220511006/17/12 22:05:31  5-MIN KDBQ 180405Z AUTO 17012G19KT 10SM SCT100 23/14 A2972 1260 57 2500 170/12G19 RMK AO2 $
94908KDBQ DBQ20120617221011006/17/12 22:10:31  5-MIN KDBQ 180410Z AUTO 17013G19KT 10SM FEW100 23/14 A2973 1260 57 2500 170/13G19 RMK AO2 $
94908KDBQ DBQ20120617221510406/17/12 22:15:31  5-MIN KDBQ 180415Z AUTO 17013KT 10SM FEW100 23/14 A2973 1260 57 2500 170/13 RMK AO2 $
94908KDBQ DBQ20120617222010106/17/12 22:20:31  5-MIN KDBQ 180420Z AUTO 17013KT 10SM CLR 23/14 A2973 1260 57 2500 170/13 RMK AO2 $
94908KDBQ DBQ20120617222510106/17/12 22:25:31  5-MIN KDBQ 180425Z AUTO 17013KT 10SM CLR 23/14 A2973 1260 57 2500 170/13 RMK AO2 $
94908KDBQ DBQ20120617223010106/17/12 22:30:31  5-MIN KDBQ 180430Z AUTO 18014KT 10SM CLR 23/14 A2973 1260 57 2500 170/14 RMK AO2 $
94908KDBQ DBQ20120617223510106/17/12 22:35:31  5-MIN KDBQ 180435Z AUTO 18013KT 10SM CLR 23/14 A2973 1260 57 2600 170/13 RMK AO2 $
94908KDBQ DBQ20120617224010706/17/12 22:40:31  5-MIN KDBQ 180440Z AUTO 18014G20KT 10SM CLR 24/15 A2972 1260 57 2600 180/14G20 RMK AO2 $
94908KDBQ DBQ20120617224510706/17/12 22:45:31  5-MIN KDBQ 180445Z AUTO 18013G21KT 10SM CLR 24/16 A2973 1260 59 2600 180/13G21 RMK AO2 $
94908KDBQ DBQ20120617225012406/17/12 22:50:31  5-MIN KDBQ 180450Z AUTO 19017G22KT 10SM CLR 24/16 A2972 1260 61 2600 180/17G22 RMK AO2 SLP056 T02390161 $
94908KDBQ DBQ20120617225510706/17/12 22:55:31  5-MIN KDBQ 180455Z AUTO 19017G23KT 10SM CLR 24/17 A2972 1260 61 2700 190/17G23 RMK AO2 $
94908KDBQ DBQ20120617230010706/17/12 23:00:31  5-MIN KDBQ 180500Z AUTO 18017G24KT 10SM CLR 24/17 A2972 1260 66 2600 180/17G24 RMK AO2 $
94908KDBQ DBQ20120617230512806/17/12 23:05:31  5-MIN KDBQ 180505Z AUTO 18016G26KT 10SM FEW046 24/17 A2972 1270 66 2600 180/16G26 RMK AO2 PK WND 19026/0501 $
94908KDBQ DBQ20120617231012806/17/12 23:10:31  5-MIN KDBQ 180510Z AUTO 18018G26KT 10SM SCT046 24/17 A2971 1270 66 2600 180/18G26 RMK AO2 PK WND 18026/0509 $
94908KDBQ DBQ20120617231512806/17/12 23:15:31  5-MIN KDBQ 180515Z AUTO 18017G26KT 10SM SCT046 24/18 A2971 1270 68 2600 180/17G26 RMK AO2 PK WND 18026/0509 $
94908KDBQ DBQ20120617232012806/17/12 23:20:31  5-MIN KDBQ 180520Z AUTO 18018G25KT 10SM SCT046 24/18 A2970 1280 68 2600 180/18G25 RMK AO2 PK WND 18026/0509 $
94908KDBQ DBQ20120617232512806/17/12 23:25:31  5-MIN KDBQ 180525Z AUTO 18015G25KT 10SM FEW046 24/18 A2970 1280 68 2600 180/15G25 RMK AO2 PK WND 18026/0509 $
94908KDBQ DBQ20120617233012806/17/12 23:30:31  5-MIN KDBQ 180530Z AUTO 18016G21KT 10SM FEW046 24/18 A2971 1280 68 2600 180/16G21 RMK AO2 PK WND 18026/0509 $
94908KDBQ DBQ20120617233512206/17/12 23:35:31  5-MIN KDBQ 180535Z AUTO 18014KT 10SM FEW046 24/18 A2971 1270 68 2600 180/14 RMK AO2 PK WND 18026/0509 $
94908KDBQ DBQ20120617234012206/17/12 23:40:31  5-MIN KDBQ 180540Z AUTO 18015KT 10SM FEW046 24/18 A2971 1270 71 2600 180/15 RMK AO2 PK WND 18026/0509 $
94908KDBQ DBQ20120617234512506/17/12 23:45:31  5-MIN KDBQ 180545Z AUTO 18013G21KT 10SM CLR 23/18 A2971 1280 73 2600 180/13G21 RMK AO2 PK WND 18026/0509 $
94908KDBQ DBQ20120617235017006/17/12 23:50:31  5-MIN KDBQ 180550Z AUTO 18013G23KT 10SM CLR 23/18 A2971 1280 73 2600 180/13G23 RMK AO2 PK WND 18026/0509 SLP051 T02330183 10256 20222 402780178 58018 $
94908KDBQ DBQ20120617235510706/17/12 23:55:31  5-MIN KDBQ 180555Z AUTO 18014G23KT 10SM CLR 23/18 A2970 1280 73 2600 180/14G23 RMK AO2 $
94908KDBQ DBQ20120618000010706/18/12 00:00:38  5-MIN KDBQ 180600Z AUTO 18015G20KT 10SM CLR 23/19 A2970 1290 76 2600 180/15G20 RMK AO2 $
94908KDBQ DBQ20120618000510706/18/12 00:05:31  5-MIN KDBQ 180605Z AUTO 18016G21KT 10SM CLR 23/19 A2969 1290 76 2600 180/16G21 RMK AO2 $
94908KDBQ DBQ20120618001010706/18/12 00:10:31  5-MIN KDBQ 180610Z AUTO 18015G21KT 10SM CLR 23/19 A2970 1280 76 2600 180/15G21 RMK AO2 $
94908KDBQ DBQ20120618001510106/18/12 00:15:33  5-MIN KDBQ 180615Z AUTO 18014KT 10SM CLR 23/19 A2970 1280 76 2600 180/14 RMK AO2 $
94908KDBQ DBQ20120618002010106/18/12 00:20:31  5-MIN KDBQ 180620Z AUTO 18015KT 10SM CLR 23/19 A2970 1280 76 2600 180/15 RMK AO2 $
94908KDBQ DBQ20120618002510706/18/12 00:25:31  5-MIN KDBQ 180625Z AUTO 18016G21KT 10SM CLR 23/19 A2970 1280 76 2600 180/16G21 RMK AO2 $
94908KDBQ DBQ20120618003010706/18/12 00:30:31  5-MIN KDBQ 180630Z AUTO 18015G21KT 10SM CLR 23/19 A2970 1290 76 2600 180/15G21 RMK AO2 $
94908KDBQ DBQ20120618003510706/18/12 00:35:31  5-MIN KDBQ 180635Z AUTO 18016G23KT 10SM CLR 23/19 A2969 1290 78 2600 180/16G23 RMK AO2 $
94908KDBQ DBQ20120618004011006/18/12 00:40:31  5-MIN KDBQ 180640Z AUTO 18016G23KT 10SM FEW060 23/19 A2969 1290 78 2600 180/16G23 RMK AO2 $
94908KDBQ DBQ20120618004511006/18/12 00:45:31  5-MIN KDBQ 180645Z AUTO 18018G23KT 10SM FEW060 23/19 A2968 1300 78 2600 180/18G23 RMK AO2 $
94908KDBQ DBQ20120618005012706/18/12 00:50:31  5-MIN KDBQ 180650Z AUTO 18016G23KT 10SM FEW060 23/19 A2968 1300 78 2600 180/16G23 RMK AO2 SLP042 T02330194 $
94908KDBQ DBQ20120618005511006/18/12 00:55:31  5-MIN KDBQ 180655Z AUTO 18017G23KT 10SM FEW060 23/19 A2967 1310 78 2600 180/17G23 RMK AO2 $
94908KDBQ DBQ20120618010011006/18/12 01:00:31  5-MIN KDBQ 180700Z AUTO 18016G23KT 10SM FEW060 23/19 A2967 1310 78 2600 180/16G23 RMK AO2 $
94908KDBQ DBQ20120618010511706/18/12 01:05:31  5-MIN KDBQ 180705Z AUTO 18016G23KT 10SM FEW060 23/19 A2966 1320 78 2600 180/16G23 RMK AO2 PRESFR $
94908KDBQ DBQ20120618011011406/18/12 01:10:31  5-MIN KDBQ 180710Z AUTO 18018G25KT 10SM CLR 23/19 A2965 1330 78 2600 180/18G25 RMK AO2 PRESFR $
94908KDBQ DBQ20120618011510706/18/12 01:15:31  5-MIN KDBQ 180715Z AUTO 18016G25KT 10SM CLR 23/19 A2965 1330 78 2600 180/16G25 RMK AO2 $
94908KDBQ DBQ20120618012010706/18/12 01:20:31  5-MIN KDBQ 180720Z AUTO 18018G23KT 10SM CLR 23/19 A2965 1330 78 2600 180/18G23 RMK AO2 $
94908KDBQ DBQ20120618012510706/18/12 01:25:31  5-MIN KDBQ 180725Z AUTO 18017G23KT 10SM CLR 23/19 A2965 1330 78 2600 180/17G23 RMK AO2 $
94908KDBQ DBQ20120618013010706/18/12 01:30:31  5-MIN KDBQ 180730Z AUTO 19019G24KT 10SM CLR 24/19 A2965 1330 76 2700 180/19G24 RMK AO2 $
94908KDBQ DBQ20120618013512506/18/12 01:35:31  5-MIN KDBQ 180735Z AUTO 18019G26KT 10SM CLR 24/19 A2965 1330 76 2700 180/19G26 RMK AO2 PK WND 19026/0733 $
94908KDBQ DBQ20120618014012506/18/12 01:40:31  5-MIN KDBQ 180740Z AUTO 19020G27KT 10SM CLR 24/19 A2965 1330 76 2700 190/20G27 RMK AO2 PK WND 18027/0738 $
94908KDBQ DBQ20120618014512506/18/12 01:45:31  5-MIN KDBQ 180745Z AUTO 19020G27KT 10SM CLR 24/19 A2965 1330 76 2700 190/20G27 RMK AO2 PK WND 18027/0744 $
94908KDBQ DBQ20120618015014206/18/12 01:50:31  5-MIN KDBQ 180750Z AUTO 18017G27KT 10SM CLR 24/19 A2965 1330 76 2700 180/17G27 RMK AO2 PK WND 18027/0744 SLP032 T02390194 $
94908KDBQ DBQ20120618015510706/18/12 01:55:31  5-MIN KDBQ 180755Z AUTO 19015G25KT 10SM CLR 23/19 A2966 1320 78 2600 190/15G25 RMK AO2 $
94908KDBQ DBQ20120618020010706/18/12 02:00:31  5-MIN KDBQ 180800Z AUTO 19017G22KT 10SM CLR 23/19 A2966 1320 78 2600 190/17G22 RMK AO2 $
94908KDBQ DBQ20120618020510706/18/12 02:05:31  5-MIN KDBQ 180805Z AUTO 19017G23KT 10SM CLR 23/19 A2966 1320 78 2600 190/17G23 RMK AO2 $
94908KDBQ DBQ20120618021010706/18/12 02:10:31  5-MIN KDBQ 180810Z AUTO 19016G23KT 10SM CLR 23/19 A2966 1320 78 2600 190/16G23 RMK AO2 $
94908KDBQ DBQ20120618021510106/18/12 02:15:31  5-MIN KDBQ 180815Z AUTO 20017KT 10SM CLR 23/19 A2966 1320 78 2600 200/17 RMK AO2 $
94908KDBQ DBQ20120618022010106/18/12 02:20:31  5-MIN KDBQ 180820Z AUTO 20016KT 10SM CLR 23/19 A2966 1320 78 2600 200/16 RMK AO2 $
94908KDBQ DBQ20120618022510706/18/12 02:25:31  5-MIN KDBQ 180825Z AUTO 19019G24KT 10SM CLR 23/19 A2966 1320 78 2600 190/19G24 RMK AO2 $
94908KDBQ DBQ20120618023010706/18/12 02:30:31  5-MIN KDBQ 180830Z AUTO 19016G25KT 10SM CLR 24/19 A2965 1330 76 2700 190/16G25 RMK AO2 $
94908KDBQ DBQ20120618023510706/18/12 02:35:31  5-MIN KDBQ 180835Z AUTO 20017G25KT 10SM CLR 24/19 A2966 1320 76 2700 200/17G25 RMK AO2 $
94908KDBQ DBQ20120618024010706/18/12 02:40:31  5-MIN KDBQ 180840Z AUTO 20015G22KT 10SM CLR 24/19 A2965 1330 76 2700 200/15G22 RMK AO2 $
94908KDBQ DBQ20120618024510706/18/12 02:45:31  5-MIN KDBQ 180845Z AUTO 20015G22KT 10SM CLR 23/19 A2965 1330 78 2600 200/15G22 RMK AO2 $
94908KDBQ DBQ20120618025012406/18/12 02:50:31  5-MIN KDBQ 180850Z AUTO 20015KT 10SM CLR 23/19 A2965 1330 78 2600 200/15 RMK AO2 SLP032 T02330194 58012 $
94908KDBQ DBQ20120618025510106/18/12 02:55:31  5-MIN KDBQ 180855Z AUTO 20015KT 10SM CLR 23/19 A2965 1330 78 2600 200/15 RMK AO2 $
94908KDBQ DBQ20120618030010706/18/12 03:00:31  5-MIN KDBQ 180900Z AUTO 20014G21KT 10SM CLR 24/19 A2965 1330 76 2700 200/14G21 RMK AO2 $
94908KDBQ DBQ20120618030510706/18/12 03:05:31  5-MIN KDBQ 180905Z AUTO 19015G21KT 10SM CLR 24/19 A2964 1340 76 2700 190/15G21 RMK AO2 $
94908KDBQ DBQ20120618031010106/18/12 03:10:31  5-MIN KDBQ 180910Z AUTO 19016KT 10SM CLR 24/19 A2964 1340 76 2700 190/16 RMK AO2 $
94908KDBQ DBQ20120618031510106/18/12 03:15:31  5-MIN KDBQ 180915Z AUTO 20015KT 10SM CLR 24/19 A2964 1340 76 2700 190/15 RMK AO2 $
94908KDBQ DBQ20120618032010106/18/12 03:20:31  5-MIN KDBQ 180920Z AUTO 20013KT 10SM CLR 24/19 A2964 1340 76 2700 200/13 RMK AO2 $
94908KDBQ DBQ20120618032510106/18/12 03:25:31  5-MIN KDBQ 180925Z AUTO 19016KT 10SM CLR 23/19 A2964 1340 78 2600 190/16 RMK AO2 $
94908KDBQ DBQ20120618033010706/18/12 03:30:31  5-MIN KDBQ 180930Z AUTO 19016G22KT 10SM CLR 23/19 A2964 1340 78 2600 190/16G22 RMK AO2 $
94908KDBQ DBQ20120618033510706/18/12 03:35:31  5-MIN KDBQ 180935Z AUTO 20017G22KT 10SM CLR 23/19 A2964 1340 78 2600 200/17G22 RMK AO2 $
94908KDBQ DBQ20120618034010106/18/12 03:40:31  5-MIN KDBQ 180940Z AUTO 19015KT 10SM CLR 23/19 A2964 1340 78 2700 190/15 RMK AO2 $
94908KDBQ DBQ20120618034510106/18/12 03:45:31  5-MIN KDBQ 180945Z AUTO 19014KT 10SM CLR 23/19 A2964 1340 78 2700 190/14 RMK AO2 $
94908KDBQ DBQ20120618035011806/18/12 03:50:31  5-MIN KDBQ 180950Z AUTO 19015KT 10SM CLR 23/19 A2964 1330 78 2600 190/15 RMK AO2 SLP030 T02330194 $
94908KDBQ DBQ20120618035510106/18/12 03:55:31  5-MIN KDBQ 180955Z AUTO 20015KT 10SM CLR 23/19 A2965 1330 78 2600 200/15 RMK AO2 $
94908KDBQ DBQ20120618040010706/18/12 04:00:31  5-MIN KDBQ 181000Z AUTO 20013G20KT 10SM CLR 23/19 A2965 1330 78 2600 190/13G20 RMK AO2 $
94908KDBQ DBQ20120618040510106/18/12 04:05:31  5-MIN KDBQ 181005Z AUTO 19014KT 10SM CLR 23/19 A2965 1330 78 2600 190/14 RMK AO2 $
94908KDBQ DBQ20120618041010106/18/12 04:10:31  5-MIN KDBQ 181010Z AUTO 19013KT 10SM CLR 23/19 A2965 1330 78 2600 190/13 RMK AO2 $
94908KDBQ DBQ20120618041510106/18/12 04:15:31  5-MIN KDBQ 181015Z AUTO 19012KT 10SM CLR 23/19 A2965 1330 78 2600 190/12 RMK AO2 $
94908KDBQ DBQ20120618042010106/18/12 04:20:31  5-MIN KDBQ 181020Z AUTO 20013KT 10SM CLR 23/19 A2965 1330 78 2600 190/13 RMK AO2 $
94908KDBQ DBQ20120618042510106/18/12 04:25:31  5-MIN KDBQ 181025Z AUTO 20011KT 10SM CLR 23/19 A2965 1330 78 2600 200/11 RMK AO2 $
94908KDBQ DBQ20120618043010106/18/12 04:30:31  5-MIN KDBQ 181030Z AUTO 19012KT 10SM CLR 23/19 A2965 1330 78 2600 190/12 RMK AO2 $
94908KDBQ DBQ20120618043510106/18/12 04:35:31  5-MIN KDBQ 181035Z AUTO 19014KT 10SM CLR 23/19 A2965 1330 78 2600 190/14 RMK AO2 $
94908KDBQ DBQ20120618044010106/18/12 04:40:31  5-MIN KDBQ 181040Z AUTO 20012KT 10SM CLR 23/19 A2966 1320 78 2600 200/12 RMK AO2 $
94908KDBQ DBQ20120618044510106/18/12 04:45:31  5-MIN KDBQ 181045Z AUTO 19012KT 10SM CLR 23/19 A2965 1330 78 2600 190/12 RMK AO2 $
94908KDBQ DBQ20120618045011806/18/12 04:50:31  5-MIN KDBQ 181050Z AUTO 20010KT 10SM CLR 23/19 A2965 1330 78 2600 200/10 RMK AO2 SLP033 T02330194 $
94908KDBQ DBQ20120618045509606/18/12 04:55:31  5-MIN KDBQ 181055Z 19011KT 10SM CLR 23/19 A2966 1320 78 2600 190/11 RMK AO2 $
94908KDBQ DBQ20120618050009606/18/12 05:00:31  5-MIN KDBQ 181100Z 19010KT 10SM CLR 23/19 A2966 1320 78 2600 190/10 RMK AO2 $
94908KDBQ DBQ20120618050509606/18/12 05:05:31  5-MIN KDBQ 181105Z 19011KT 10SM CLR 23/19 A2966 1320 78 2600 190/11 RMK AO2 $
94908KDBQ DBQ20120618051009606/18/12 05:10:31  5-MIN KDBQ 181110Z 19012KT 10SM CLR 23/19 A2966 1320 78 2600 190/12 RMK AO2 $
94908KDBQ DBQ20120618051509606/18/12 05:15:31  5-MIN KDBQ 181115Z 19011KT 10SM CLR 23/19 A2965 1330 78 2600 190/11 RMK AO2 $
94908KDBQ DBQ20120618052009606/18/12 05:20:31  5-MIN KDBQ 181120Z 19012KT 10SM CLR 23/19 A2965 1330 78 2600 190/12 RMK AO2 $
94908KDBQ DBQ20120618052509606/18/12 05:25:31  5-MIN KDBQ 181125Z 19012KT 10SM CLR 23/19 A2965 1330 78 2600 180/12 RMK AO2 $
94908KDBQ DBQ20120618053009606/18/12 05:30:31  5-MIN KDBQ 181130Z 19012KT 10SM CLR 23/19 A2965 1330 78 2600 190/12 RMK AO2 $
94908KDBQ DBQ20120618053509606/18/12 05:35:31  5-MIN KDBQ 181135Z 19012KT 10SM CLR 23/19 A2965 1330 78 2600 190/12 RMK AO2 $
94908KDBQ DBQ20120618054009606/18/12 05:40:31  5-MIN KDBQ 181140Z 20014KT 10SM CLR 23/19 A2965 1330 78 2600 190/14 RMK AO2 $
94908KDBQ DBQ20120618054509606/18/12 05:45:31  5-MIN KDBQ 181145Z 20013KT 10SM CLR 23/19 A2965 1330 78 2600 190/13 RMK AO2 $
94908KDBQ DBQ20120618055013106/18/12 05:50:31  5-MIN KDBQ 181150Z 20013KT 10SM CLR 24/19 A2965 1330 76 2700 200/13 RMK AO2 SLP031 T02390194 10239 20228 56018 $
94908KDBQ DBQ20120618055509406/18/12 05:55:31  5-MIN KDBQ 181155Z 20014KT 10SM CLR 24/19 A2964 1340 76 2700 200/14 RMK AO2
94908KDBQ DBQ20120618060010006/18/12 06:00:31  5-MIN KDBQ 181200Z 20015G21KT 10SM CLR 24/19 A2964 1340 76 2700 200/15G21 RMK AO2
94908KDBQ DBQ20120618060510006/18/12 06:05:31  5-MIN KDBQ 181205Z 21017G22KT 10SM CLR 24/19 A2964 1340 76 2700 200/17G22 RMK AO2
94908KDBQ DBQ20120618061010006/18/12 06:10:31  5-MIN KDBQ 181210Z 20015G22KT 10SM CLR 24/19 A2964 1340 73 2800 200/15G22 RMK AO2
94908KDBQ DBQ20120618061510006/18/12 06:15:31  5-MIN KDBQ 181215Z 21016G22KT 10SM CLR 24/19 A2964 1340 73 2800 210/16G22 RMK AO2
94908KDBQ DBQ20120618062010006/18/12 06:20:31  5-MIN KDBQ 181220Z 20015G23KT 10SM CLR 24/19 A2964 1340 73 2800 200/15G23 RMK AO2
94908KDBQ DBQ20120618062510006/18/12 06:25:31  5-MIN KDBQ 181225Z 20018G23KT 10SM CLR 24/19 A2964 1340 73 2800 200/18G23 RMK AO2
94908KDBQ DBQ20120618063010006/18/12 06:30:31  5-MIN KDBQ 181230Z 21016G23KT 10SM CLR 25/19 A2964 1340 71 2800 210/16G23 RMK AO2
94908KDBQ DBQ20120618063510006/18/12 06:35:31  5-MIN KDBQ 181235Z 20018G25KT 10SM CLR 25/20 A2963 1340 73 2800 200/18G25 RMK AO2
94908KDBQ DBQ20120618064011806/18/12 06:40:31  5-MIN KDBQ 181240Z 21021G27KT 10SM CLR 25/19 A2964 1340 71 2800 200/21G27 RMK AO2 PK WND 20027/1239
94908KDBQ DBQ20120618064511806/18/12 06:45:31  5-MIN KDBQ 181245Z 21018G27KT 10SM CLR 25/20 A2964 1340 73 2800 210/18G27 RMK AO2 PK WND 20027/1239
94908KDBQ DBQ20120618065013506/18/12 06:50:31  5-MIN KDBQ 181250Z 21019G25KT 10SM CLR 26/20 A2963 1340 71 2900 200/19G25 RMK AO2 PK WND 20027/1239 SLP026 T02560200
94908KDBQ DBQ20120618065510006/18/12 06:55:31  5-MIN KDBQ 181255Z 21018G25KT 10SM CLR 26/20 A2963 1340 71 2900 200/18G25 RMK AO2
94908KDBQ DBQ20120618070011806/18/12 07:00:31  5-MIN KDBQ 181300Z 21019G28KT 10SM CLR 26/20 A2963 1340 71 2900 210/19G28 RMK AO2 PK WND 20028/1300
94908KDBQ DBQ20120618070511806/18/12 07:05:31  5-MIN KDBQ 181305Z 21018G28KT 10SM CLR 26/20 A2964 1340 71 2900 210/18G28 RMK AO2 PK WND 20028/1300
94908KDBQ DBQ20120618071011806/18/12 07:10:31  5-MIN KDBQ 181310Z 21020G24KT 10SM CLR 26/20 A2964 1340 71 2900 200/20G24 RMK AO2 PK WND 20028/1300
94908KDBQ DBQ20120618071511806/18/12 07:15:31  5-MIN KDBQ 181315Z 21021G26KT 10SM CLR 26/20 A2963 1340 71 2900 210/21G26 RMK AO2 PK WND 20028/1300
94908KDBQ DBQ20120618072011806/18/12 07:20:31  5-MIN KDBQ 181320Z 21017G26KT 10SM CLR 26/20 A2963 1340 71 2900 200/17G26 RMK AO2 PK WND 20028/1300
94908KDBQ DBQ20120618072511806/18/12 07:25:31  5-MIN KDBQ 181325Z 21020G27KT 10SM CLR 26/20 A2963 1340 71 2900 210/20G27 RMK AO2 PK WND 20028/1300
94908KDBQ DBQ20120618073011806/18/12 07:30:31  5-MIN KDBQ 181330Z 21021G27KT 10SM CLR 26/20 A2963 1350 71 2900 210/21G27 RMK AO2 PK WND 20028/1300
94908KDBQ DBQ20120618073511806/18/12 07:35:31  5-MIN KDBQ 181335Z 21021G27KT 10SM CLR 26/20 A2963 1340 68 3000 210/21G27 RMK AO2 PK WND 20028/1300
94908KDBQ DBQ20120618074011806/18/12 07:40:31  5-MIN KDBQ 181340Z 21022G29KT 10SM CLR 26/20 A2963 1350 68 3000 210/22G29 RMK AO2 PK WND 22029/1339
94908KDBQ DBQ20120618074511806/18/12 07:45:31  5-MIN KDBQ 181345Z 21019G29KT 10SM CLR 26/20 A2963 1350 68 3000 210/19G29 RMK AO2 PK WND 22029/1339
94908KDBQ DBQ20120618075013506/18/12 07:50:31  5-MIN KDBQ 181350Z 21021G27KT 10SM CLR 27/20 A2963 1340 66 3000 210/21G27 RMK AO2 PK WND 22029/1339 SLP027 T02670200
94908KDBQ DBQ20120618075511806/18/12 07:55:31  5-MIN KDBQ 181355Z 21022G28KT 10SM CLR 26/20 A2963 1350 68 3000 210/22G28 RMK AO2 PK WND 21028/1355
94908KDBQ DBQ20120618080011806/18/12 08:00:31  5-MIN KDBQ 181400Z 21020G28KT 10SM CLR 27/20 A2963 1350 66 3000 210/20G28 RMK AO2 PK WND 21028/1355
94908KDBQ DBQ20120618080511206/18/12 08:05:31  5-MIN KDBQ 181405Z 21021KT 10SM CLR 27/20 A2963 1350 66 3000 200/21 RMK AO2 PK WND 21028/1355
94908KDBQ DBQ20120618081011806/18/12 08:10:31  5-MIN KDBQ 181410Z 21021G26KT 10SM CLR 27/20 A2963 1350 66 3000 210/21G26 RMK AO2 PK WND 21028/1355
94908KDBQ DBQ20120618081511806/18/12 08:15:31  5-MIN KDBQ 181415Z 21021G29KT 10SM CLR 27/20 A2963 1350 64 3100 210/21G29 RMK AO2 PK WND 21029/1413
94908KDBQ DBQ20120618082011806/18/12 08:20:31  5-MIN KDBQ 181420Z 21024G29KT 10SM CLR 27/20 A2963 1350 64 3100 210/24G29 RMK AO2 PK WND 21029/1420
94908KDBQ DBQ20120618082511806/18/12 08:25:31  5-MIN KDBQ 181425Z 21020G29KT 10SM CLR 27/20 A2963 1350 64 3100 210/20G29 RMK AO2 PK WND 21029/1420
94908KDBQ DBQ20120618083011806/18/12 08:30:31  5-MIN KDBQ 181430Z 21021G28KT 10SM CLR 27/20 A2963 1350 64 3100 210/21G28 RMK AO2 PK WND 21029/1420
94908KDBQ DBQ20120618083511806/18/12 08:35:31  5-MIN KDBQ 181435Z 21020G28KT 10SM CLR 27/20 A2962 1350 64 3100 210/20G28 RMK AO2 PK WND 21029/1420
94908KDBQ DBQ20120618084011806/18/12 08:40:31  5-MIN KDBQ 181440Z 21020G30KT 10SM CLR 27/20 A2962 1350 64 3100 210/20G30 RMK AO2 PK WND 21030/1438
94908KDBQ DBQ20120618084511806/18/12 08:45:31  5-MIN KDBQ 181445Z 21019G30KT 10SM CLR 28/20 A2963 1350 62 3200 210/19G30 RMK AO2 PK WND 21030/1438
94908KDBQ DBQ20120618085014106/18/12 08:50:31  5-MIN KDBQ 181450Z 22019G28KT 10SM CLR 28/20 A2962 1350 62 3200 220/19G28 RMK AO2 PK WND 21030/1438 SLP023 T02780200 58002
94908KDBQ DBQ20120618085511806/18/12 08:55:31  5-MIN KDBQ 181455Z 21021G28KT 10SM CLR 28/21 A2963 1350 62 3200 210/21G28 RMK AO2 PK WND 21027/1455
94908KDBQ DBQ20120618090011806/18/12 09:00:31  5-MIN KDBQ 181500Z 21018G27KT 10SM CLR 28/20 A2963 1350 62 3200 210/18G27 RMK AO2 PK WND 21027/1455
94908KDBQ DBQ20120618090511806/18/12 09:05:31  5-MIN KDBQ 181505Z 21022G27KT 10SM CLR 28/20 A2963 1350 62 3200 210/22G27 RMK AO2 PK WND 21027/1502
94908KDBQ DBQ20120618091011806/18/12 09:10:31  5-MIN KDBQ 181510Z 20021G27KT 10SM CLR 28/20 A2963 1350 60 3200 200/21G27 RMK AO2 PK WND 21027/1507
94908KDBQ DBQ20120618091511806/18/12 09:15:31  5-MIN KDBQ 181515Z 21021G27KT 10SM CLR 28/21 A2963 1350 62 3200 200/21G27 RMK AO2 PK WND 21027/1507
94908KDBQ DBQ20120618092011206/18/12 09:20:31  5-MIN KDBQ 181520Z 21019KT 10SM CLR 28/20 A2963 1350 60 3200 210/19 RMK AO2 PK WND 21027/1507
94908KDBQ DBQ20120618171506806/18/12 17:15:31  5-MIN KDBQ 182315Z A2964 M M M M /M RMK AO2 PNO $
94908KDBQ DBQ20120618172006806/18/12 17:20:31  5-MIN KDBQ 182320Z A2964 M M M M /M RMK AO2 PNO $
94908KDBQ DBQ20120618172506806/18/12 17:25:31  5-MIN KDBQ 182325Z A2964 M M M M /M RMK AO2 PNO $
94908KDBQ DBQ20120618173006806/18/12 17:30:31  5-MIN KDBQ 182330Z A2964 M M M M /M RMK AO2 PNO $
94908KDBQ DBQ20120618173506806/18/12 17:35:31  5-MIN KDBQ 182335Z A2964 M M M M /M RMK AO2 PNO $
94908KDBQ DBQ20120618174006806/18/12 17:40:31  5-MIN KDBQ 182340Z A2965 M M M M /M RMK AO2 PNO $
94908KDBQ DBQ20120618174506806/18/12 17:45:31  5-MIN KDBQ 182345Z A2965 M M M M /M RMK AO2 PNO $
94908KDBQ DBQ20120618175013506/18/12 17:50:31  5-MIN KDBQ 182350Z 21017G25KT 10SM CLR 31/21 A2964 1330 54 3500 210/17G25 RMK AO2 SLP028 6//// T03100210 50001 PNO $
94908KDBQ DBQ20120618175506806/18/12 17:55:31  5-MIN KDBQ 182355Z A2965 M M M M /M RMK AO2 PNO $
94908KDBQ DBQ20120618180006806/18/12 18:00:31  5-MIN KDBQ 190000Z A2965 M M M M /M RMK AO2 PNO $
94908KDBQ DBQ20120618180506806/18/12 18:05:31  5-MIN KDBQ 190005Z A2964 M M M M /M RMK AO2 PNO $
94908KDBQ DBQ20120618181006806/18/12 18:10:31  5-MIN KDBQ 190010Z A2964 M M M M /M RMK AO2 PNO $
94908KDBQ DBQ20120618181506806/18/12 18:15:31  5-MIN KDBQ 190015Z A2965 M M M M /M RMK AO2 PNO $
94908KDBQ DBQ20120618182006806/18/12 18:20:31  5-MIN KDBQ 190020Z A2965 M M M M /M RMK AO2 PNO $
94908KDBQ DBQ20120618182506806/18/12 18:25:31  5-MIN KDBQ 190025Z A2965 M M M M /M RMK AO2 PNO $
94908KDBQ DBQ20120618183006806/18/12 18:30:31  5-MIN KDBQ 190030Z A2965 M M M M /M RMK AO2 PNO $
94908KDBQ DBQ20120618183506806/18/12 18:35:31  5-MIN KDBQ 190035Z A2965 M M M M /M RMK AO2 PNO $
94908KDBQ DBQ20120618184006806/18/12 18:40:31  5-MIN KDBQ 190040Z A2965 M M M M /M RMK AO2 PNO $
94908KDBQ DBQ20120618184506806/18/12 18:45:31  5-MIN KDBQ 190045Z A2966 M M M M /M RMK AO2 PNO $
94908KDBQ DBQ20120618185007806/18/12 18:50:31  5-MIN KDBQ 190050Z CLR A2966 M M M M /M RMK AO2 SLPNO PNO $
94908KDBQ DBQ20120618185508106/18/12 18:55:31  5-MIN KDBQ 190055Z A2966 M M M M /M RMK AO2 PWINO FZRANO PNO $
94908KDBQ DBQ20120618190008106/18/12 19:00:31  5-MIN KDBQ 190100Z A2966 M M M M /M RMK AO2 PWINO FZRANO PNO $
94908KDBQ DBQ20120618190508106/18/12 19:05:31  5-MIN KDBQ 190105Z A2966 M M M M /M RMK AO2 PWINO FZRANO PNO $
94908KDBQ DBQ20120618191008106/18/12 19:10:31  5-MIN KDBQ 190110Z A2966 M M M M /M RMK AO2 PWINO FZRANO PNO $
94908KDBQ DBQ20120618191508106/18/12 19:15:31  5-MIN KDBQ 190115Z A2967 M M M M /M RMK AO2 PWINO FZRANO PNO $
94908KDBQ DBQ20120618192008106/18/12 19:20:31  5-MIN KDBQ 190120Z A2967 M M M M /M RMK AO2 PWINO FZRANO PNO $
94908KDBQ DBQ20120618192508106/18/12 19:25:31  5-MIN KDBQ 190125Z A2967 M M M M /M RMK AO2 PWINO FZRANO PNO $
94908KDBQ DBQ20120618193008106/18/12 19:30:31  5-MIN KDBQ 190130Z A2968 M M M M /M RMK AO2 PWINO FZRANO PNO $
94908KDBQ DBQ20120618193508106/18/12 19:35:31  5-MIN KDBQ 190135Z A2968 M M M M /M RMK AO2 PWINO FZRANO PNO $
94908KDBQ DBQ20120618194008106/18/12 19:40:31  5-MIN KDBQ 190140Z A2969 M M M M /M RMK AO2 PWINO FZRANO PNO $
94908KDBQ DBQ20120618194508106/18/12 19:45:31  5-MIN KDBQ 190145Z A2969 M M M M /M RMK AO2 PWINO FZRANO PNO $
94908KDBQ DBQ20120618195008706/18/12 19:50:31  5-MIN KDBQ 190150Z A2969 M M M M /M RMK AO2 SLPNO PWINO FZRANO PNO $
94908KDBQ DBQ20120618195508106/18/12 19:55:31  5-MIN KDBQ 190155Z A2970 M M M M /M RMK AO2 PWINO FZRANO PNO $
94908KDBQ DBQ20120618200008106/18/12 20:00:31  5-MIN KDBQ 190200Z A2970 M M M M /M RMK AO2 PWINO FZRANO PNO $
94908KDBQ DBQ20120618200508106/18/12 20:05:31  5-MIN KDBQ 190205Z A2970 M M M M /M RMK AO2 PWINO FZRANO PNO $
94908KDBQ DBQ20120618201008106/18/12 20:10:31  5-MIN KDBQ 190210Z A2970 M M M M /M RMK AO2 PWINO FZRANO PNO $
94908KDBQ DBQ20120618201508106/18/12 20:15:31  5-MIN KDBQ 190215Z A2971 M M M M /M RMK AO2 PWINO FZRANO PNO $
94908KDBQ DBQ20120618202008106/18/12 20:20:31  5-MIN KDBQ 190220Z A2971 M M M M /M RMK AO2 PWINO FZRANO PNO $
94908KDBQ DBQ20120618202508106/18/12 20:25:31  5-MIN KDBQ 190225Z A2971 M M M M /M RMK AO2 PWINO FZRANO PNO $
94908KDBQ DBQ20120618203008106/18/12 20:30:31  5-MIN KDBQ 190230Z A2971 M M M M /M RMK AO2 PWINO FZRANO PNO $
94908KDBQ DBQ20120618203508106/18/12 20:35:31  5-MIN KDBQ 190235Z A2971 M M M M /M RMK AO2 PWINO FZRANO PNO $
94908KDBQ DBQ20120618204008106/18/12 20:40:31  5-MIN KDBQ 190240Z A2972 M M M M /M RMK AO2 PWINO FZRANO PNO $
94908KDBQ DBQ20120618204508106/18/12 20:45:31  5-MIN KDBQ 190245Z A2972 M M M M /M RMK AO2 PWINO FZRANO PNO $
94908KDBQ DBQ20120618205009906/18/12 20:50:31  5-MIN KDBQ 190250Z A2972 M M M M /M RMK AO2 SLPNO 6//// 51012 PWINO FZRANO PNO $
94908KDBQ DBQ20120618205508106/18/12 20:55:31  5-MIN KDBQ 190255Z A2972 M M M M /M RMK AO2 PWINO FZRANO PNO $
94908KDBQ DBQ20120618210008106/18/12 21:00:31  5-MIN KDBQ 190300Z A2973 M M M M /M RMK AO2 PWINO FZRANO PNO $
94908KDBQ DBQ20120618210508106/18/12 21:05:31  5-MIN KDBQ 190305Z A2973 M M M M /M RMK AO2 PWINO FZRANO PNO $
94908KDBQ DBQ20120618211008106/18/12 21:10:31  5-MIN KDBQ 190310Z A2973 M M M M /M RMK AO2 PWINO FZRANO PNO $
94908KDBQ DBQ20120618211508106/18/12 21:15:31  5-MIN KDBQ 190315Z A2973 M M M M /M RMK AO2 PWINO FZRANO PNO $
94908KDBQ DBQ20120618212008106/18/12 21:20:31  5-MIN KDBQ 190320Z A2973 M M M M /M RMK AO2 PWINO FZRANO PNO $
94908KDBQ DBQ20120618212508106/18/12 21:25:31  5-MIN KDBQ 190325Z A2974 M M M M /M RMK AO2 PWINO FZRANO PNO $
94908KDBQ DBQ20120618213008106/18/12 21:30:31  5-MIN KDBQ 190330Z A2974 M M M M /M RMK AO2 PWINO FZRANO PNO $
94908KDBQ DBQ20120618213508106/18/12 21:35:31  5-MIN KDBQ 190335Z A2974 M M M M /M RMK AO2 PWINO FZRANO PNO $
94908KDBQ DBQ20120618214008106/18/12 21:40:31  5-MIN KDBQ 190340Z A2974 M M M M /M RMK AO2 PWINO FZRANO PNO $
94908KDBQ DBQ20120618214508106/18/12 21:45:31  5-MIN KDBQ 190345Z A2974 M M M M /M RMK AO2 PWINO FZRANO PNO $
94908KDBQ DBQ20120618215008706/18/12 21:50:31  5-MIN KDBQ 190350Z A2974 M M M M /M RMK AO2 SLPNO PWINO FZRANO PNO $
94908KDBQ DBQ20120618215508106/18/12 21:55:31  5-MIN KDBQ 190355Z A2975 M M M M /M RMK AO2 PWINO FZRANO PNO $
94908KDBQ DBQ20120618220008106/18/12 22:00:31  5-MIN KDBQ 190400Z A2974 M M M M /M RMK AO2 PWINO FZRANO PNO $
94908KDBQ DBQ20120618220508106/18/12 22:05:31  5-MIN KDBQ 190405Z A2975 M M M M /M RMK AO2 PWINO FZRANO PNO $
94908KDBQ DBQ20120618221008106/18/12 22:10:31  5-MIN KDBQ 190410Z A2975 M M M M /M RMK AO2 PWINO FZRANO PNO $
94908KDBQ DBQ20120618221508106/18/12 22:15:31  5-MIN KDBQ 190415Z A2975 M M M M /M RMK AO2 PWINO FZRANO PNO $
94908KDBQ DBQ20120618222008106/18/12 22:20:31  5-MIN KDBQ 190420Z A2975 M M M M /M RMK AO2 PWINO FZRANO PNO $
94908KDBQ DBQ20120618222508106/18/12 22:25:31  5-MIN KDBQ 190425Z A2975 M M M M /M RMK AO2 PWINO FZRANO PNO $
94908KDBQ DBQ20120618223008106/18/12 22:30:31  5-MIN KDBQ 190430Z A2975 M M M M /M RMK AO2 PWINO FZRANO PNO $
94908KDBQ DBQ20120618223508106/18/12 22:35:31  5-MIN KDBQ 190435Z A2976 M M M M /M RMK AO2 PWINO FZRANO PNO $
94908KDBQ DBQ20120618224008106/18/12 22:40:31  5-MIN KDBQ 190440Z A2976 M M M M /M RMK AO2 PWINO FZRANO PNO $
94908KDBQ DBQ20120618224508106/18/12 22:45:31  5-MIN KDBQ 190445Z A2976 M M M M /M RMK AO2 PWINO FZRANO PNO $
94908KDBQ DBQ20120618225008706/18/12 22:50:31  5-MIN KDBQ 190450Z A2976 M M M M /M RMK AO2 SLPNO PWINO FZRANO PNO $
94908KDBQ DBQ20120618225508106/18/12 22:55:31  5-MIN KDBQ 190455Z A2976 M M M M /M RMK AO2 PWINO FZRANO PNO $
94908KDBQ DBQ20120618230008106/18/12 23:00:31  5-MIN KDBQ 190500Z A2976 M M M M /M RMK AO2 PWINO FZRANO PNO $
94908KDBQ DBQ20120618230508106/18/12 23:05:31  5-MIN KDBQ 190505Z A2977 M M M M /M RMK AO2 PWINO FZRANO PNO $
94908KDBQ DBQ20120618231008106/18/12 23:10:31  5-MIN KDBQ 190510Z A2976 M M M M /M RMK AO2 PWINO FZRANO PNO $
94908KDBQ DBQ20120618231508106/18/12 23:15:31  5-MIN KDBQ 190515Z A2976 M M M M /M RMK AO2 PWINO FZRANO PNO $
94908KDBQ DBQ20120618232008106/18/12 23:20:31  5-MIN KDBQ 190520Z A2977 M M M M /M RMK AO2 PWINO FZRANO PNO $
94908KDBQ DBQ20120618232508106/18/12 23:25:31  5-MIN KDBQ 190525Z A2977 M M M M /M RMK AO2 PWINO FZRANO PNO $
94908KDBQ DBQ20120618233008106/18/12 23:30:31  5-MIN KDBQ 190530Z A2977 M M M M /M RMK AO2 PWINO FZRANO PNO $
94908KDBQ DBQ20120618233508106/18/12 23:35:31  5-MIN KDBQ 190535Z A2977 M M M M /M RMK AO2 PWINO FZRANO PNO $
94908KDBQ DBQ20120618234008106/18/12 23:40:31  5-MIN KDBQ 190540Z A2977 M M M M /M RMK AO2 PWINO FZRANO PNO $
94908KDBQ DBQ20120618234508106/18/12 23:45:31  5-MIN KDBQ 190545Z A2977 M M M M /M RMK AO2 PWINO FZRANO PNO $
94908KDBQ DBQ20120618235009906/18/12 23:50:31  5-MIN KDBQ 190550Z A2977 M M M M /M RMK AO2 SLPNO 6//// 53025 PWINO FZRANO PNO $
94908KDBQ DBQ20120618235508106/18/12 23:55:31  5-MIN KDBQ 190555Z A2977 M M M M /M RMK AO2 PWINO FZRANO PNO $
94908KDBQ DBQ20120619000008106/19/12 00:00:38  5-MIN KDBQ 190600Z A2978 M M M M /M RMK AO2 PWINO FZRANO PNO $
94908KDBQ DBQ20120619000508106/19/12 00:05:31  5-MIN KDBQ 190605Z A2978 M M M M /M RMK AO2 PWINO FZRANO PNO $
94908KDBQ DBQ20120619001008106/19/12 00:10:31  5-MIN KDBQ 190610Z A2978 M M M M /M RMK AO2 PWINO FZRANO PNO $
94908KDBQ DBQ20120619001508106/19/12 00:15:33  5-MIN KDBQ 190615Z A2978 M M M M /M RMK AO2 PWINO FZRANO PNO $
94908KDBQ DBQ20120619002008106/19/12 00:20:31  5-MIN KDBQ 190620Z A2978 M M M M /M RMK AO2 PWINO FZRANO PNO $
94908KDBQ DBQ20120619002508106/19/12 00:25:31  5-MIN KDBQ 190625Z A2978 M M M M /M RMK AO2 PWINO FZRANO PNO $
94908KDBQ DBQ20120619003008106/19/12 00:30:31  5-MIN KDBQ 190630Z A2978 M M M M /M RMK AO2 PWINO FZRANO PNO $
94908KDBQ DBQ20120619003508106/19/12 00:35:31  5-MIN KDBQ 190635Z A2978 M M M M /M RMK AO2 PWINO FZRANO PNO $
94908KDBQ DBQ20120619004008106/19/12 00:40:31  5-MIN KDBQ 190640Z A2978 M M M M /M RMK AO2 PWINO FZRANO PNO $
94908KDBQ DBQ20120619004508106/19/12 00:45:31  5-MIN KDBQ 190645Z A2978 M M M M /M RMK AO2 PWINO FZRANO PNO $
94908KDBQ DBQ20120619005008706/19/12 00:50:31  5-MIN KDBQ 190650Z A2977 M M M M /M RMK AO2 SLPNO PWINO FZRANO PNO $
94908KDBQ DBQ20120619005508106/19/12 00:55:31  5-MIN KDBQ 190655Z A2977 M M M M /M RMK AO2 PWINO FZRANO PNO $
94908KDBQ DBQ20120619010008106/19/12 01:00:31  5-MIN KDBQ 190700Z A2977 M M M M /M RMK AO2 PWINO FZRANO PNO $
94908KDBQ DBQ20120619010508106/19/12 01:05:31  5-MIN KDBQ 190705Z A2977 M M M M /M RMK AO2 PWINO FZRANO PNO $
94908KDBQ DBQ20120619011008106/19/12 01:10:31  5-MIN KDBQ 190710Z A2977 M M M M /M RMK AO2 PWINO FZRANO PNO $
94908KDBQ DBQ20120619011508106/19/12 01:15:31  5-MIN KDBQ 190715Z A2977 M M M M /M RMK AO2 PWINO FZRANO PNO $
94908KDBQ DBQ20120619012008106/19/12 01:20:31  5-MIN KDBQ 190720Z A2977 M M M M /M RMK AO2 PWINO FZRANO PNO $
94908KDBQ DBQ20120619012508106/19/12 01:25:31  5-MIN KDBQ 190725Z A2977 M M M M /M RMK AO2 PWINO FZRANO PNO $
94908KDBQ DBQ20120619013008106/19/12 01:30:31  5-MIN KDBQ 190730Z A2977 M M M M /M RMK AO2 PWINO FZRANO PNO $
94908KDBQ DBQ20120619013508106/19/12 01:35:31  5-MIN KDBQ 190735Z A2977 M M M M /M RMK AO2 PWINO FZRANO PNO $
94908KDBQ DBQ20120619014008106/19/12 01:40:31  5-MIN KDBQ 190740Z A2978 M M M M /M RMK AO2 PWINO FZRANO PNO $
94908KDBQ DBQ20120619014508106/19/12 01:45:31  5-MIN KDBQ 190745Z A2978 M M M M /M RMK AO2 PWINO FZRANO PNO $
94908KDBQ DBQ20120619015008706/19/12 01:50:31  5-MIN KDBQ 190750Z A2978 M M M M /M RMK AO2 SLPNO PWINO FZRANO PNO $
94908KDBQ DBQ20120619015508106/19/12 01:55:31  5-MIN KDBQ 190755Z A2978 M M M M /M RMK AO2 PWINO FZRANO PNO $
94908KDBQ DBQ20120619020008106/19/12 02:00:31  5-MIN KDBQ 190800Z A2978 M M M M /M RMK AO2 PWINO FZRANO PNO $
94908KDBQ DBQ20120619020508106/19/12 02:05:31  5-MIN KDBQ 190805Z A2978 M M M M /M RMK AO2 PWINO FZRANO PNO $
94908KDBQ DBQ20120619021008106/19/12 02:10:31  5-MIN KDBQ 190810Z A2978 M M M M /M RMK AO2 PWINO FZRANO PNO $
94908KDBQ DBQ20120619021508106/19/12 02:15:31  5-MIN KDBQ 190815Z A2978 M M M M /M RMK AO2 PWINO FZRANO PNO $
94908KDBQ DBQ20120619022008106/19/12 02:20:31  5-MIN KDBQ 190820Z A2978 M M M M /M RMK AO2 PWINO FZRANO PNO $
94908KDBQ DBQ20120619022508106/19/12 02:25:31  5-MIN KDBQ 190825Z A2978 M M M M /M RMK AO2 PWINO FZRANO PNO $
94908KDBQ DBQ20120619023008106/19/12 02:30:31  5-MIN KDBQ 190830Z A2978 M M M M /M RMK AO2 PWINO FZRANO PNO $
94908KDBQ DBQ20120619023508106/19/12 02:35:31  5-MIN KDBQ 190835Z A2978 M M M M /M RMK AO2 PWINO FZRANO PNO $
94908KDBQ DBQ20120619024008106/19/12 02:40:31  5-MIN KDBQ 190840Z A2979 M M M M /M RMK AO2 PWINO FZRANO PNO $
94908KDBQ DBQ20120619024508106/19/12 02:45:31  5-MIN KDBQ 190845Z A2979 M M M M /M RMK AO2 PWINO FZRANO PNO $
94908KDBQ DBQ20120619025009906/19/12 02:50:31  5-MIN KDBQ 190850Z A2979 M M M M /M RMK AO2 SLPNO 6//// 51016 PWINO FZRANO PNO $
94908KDBQ DBQ20120619025508106/19/12 02:55:31  5-MIN KDBQ 190855Z A2979 M M M M /M RMK AO2 PWINO FZRANO PNO $
94908KDBQ DBQ20120619030008106/19/12 03:00:31  5-MIN KDBQ 190900Z A2979 M M M M /M RMK AO2 PWINO FZRANO PNO $
94908KDBQ DBQ20120619030508106/19/12 03:05:31  5-MIN KDBQ 190905Z A2980 M M M M /M RMK AO2 PWINO FZRANO PNO $
94908KDBQ DBQ20120619031008106/19/12 03:10:31  5-MIN KDBQ 190910Z A2980 M M M M /M RMK AO2 PWINO FZRANO PNO $
94908KDBQ DBQ20120619031508106/19/12 03:15:31  5-MIN KDBQ 190915Z A2980 M M M M /M RMK AO2 PWINO FZRANO PNO $
94908KDBQ DBQ20120619032008106/19/12 03:20:31  5-MIN KDBQ 190920Z A2980 M M M M /M RMK AO2 PWINO FZRANO PNO $
94908KDBQ DBQ20120619032508106/19/12 03:25:31  5-MIN KDBQ 190925Z A2980 M M M M /M RMK AO2 PWINO FZRANO PNO $
94908KDBQ DBQ20120619033008106/19/12 03:30:31  5-MIN KDBQ 190930Z A2980 M M M M /M RMK AO2 PWINO FZRANO PNO $
94908KDBQ DBQ20120619033508106/19/12 03:35:31  5-MIN KDBQ 190935Z A2980 M M M M /M RMK AO2 PWINO FZRANO PNO $
94908KDBQ DBQ20120619034008106/19/12 03:40:31  5-MIN KDBQ 190940Z A2980 M M M M /M RMK AO2 PWINO FZRANO PNO $
94908KDBQ DBQ20120619034508106/19/12 03:45:31  5-MIN KDBQ 190945Z A2980 M M M M /M RMK AO2 PWINO FZRANO PNO $
94908KDBQ DBQ20120619035008706/19/12 03:50:31  5-MIN KDBQ 190950Z A2980 M M M M /M RMK AO2 SLPNO PWINO FZRANO PNO $
94908KDBQ DBQ20120619035508106/19/12 03:55:31  5-MIN KDBQ 190955Z A2980 M M M M /M RMK AO2 PWINO FZRANO PNO $
94908KDBQ DBQ20120619040008106/19/12 04:00:31  5-MIN KDBQ 191000Z A2981 M M M M /M RMK AO2 PWINO FZRANO PNO $
94908KDBQ DBQ20120619040508106/19/12 04:05:31  5-MIN KDBQ 191005Z A2981 M M M M /M RMK AO2 PWINO FZRANO PNO $
94908KDBQ DBQ20120619041008106/19/12 04:10:31  5-MIN KDBQ 191010Z A2981 M M M M /M RMK AO2 PWINO FZRANO PNO $
94908KDBQ DBQ20120619041508106/19/12 04:15:31  5-MIN KDBQ 191015Z A2981 M M M M /M RMK AO2 PWINO FZRANO PNO $
94908KDBQ DBQ20120619042008106/19/12 04:20:31  5-MIN KDBQ 191020Z A2981 M M M M /M RMK AO2 PWINO FZRANO PNO $
94908KDBQ DBQ20120619042508106/19/12 04:25:31  5-MIN KDBQ 191025Z A2982 M M M M /M RMK AO2 PWINO FZRANO PNO $
94908KDBQ DBQ20120619043008106/19/12 04:30:31  5-MIN KDBQ 191030Z A2982 M M M M /M RMK AO2 PWINO FZRANO PNO $
94908KDBQ DBQ20120619043508106/19/12 04:35:31  5-MIN KDBQ 191035Z A2982 M M M M /M RMK AO2 PWINO FZRANO PNO $
94908KDBQ DBQ20120619044008106/19/12 04:40:31  5-MIN KDBQ 191040Z A2982 M M M M /M RMK AO2 PWINO FZRANO PNO $
94908KDBQ DBQ20120619044508106/19/12 04:45:31  5-MIN KDBQ 191045Z A2982 M M M M /M RMK AO2 PWINO FZRANO PNO $
94908KDBQ DBQ20120619045007406/19/12 04:50:31  5-MIN KDBQ 191050Z A2982 M M M M /M RMK AO2 SLPNO PNO $
94908KDBQ DBQ20120619045506806/19/12 04:55:31  5-MIN KDBQ 191055Z A2983 M M M M /M RMK AO2 PNO $
94908KDBQ DBQ20120619050006806/19/12 05:00:31  5-MIN KDBQ 191100Z A2983 M M M M /M RMK AO2 PNO $
94908KDBQ DBQ20120619050506806/19/12 05:05:31  5-MIN KDBQ 191105Z A2983 M M M M /M RMK AO2 PNO $
94908KDBQ DBQ20120619051006806/19/12 05:10:31  5-MIN KDBQ 191110Z A2983 M M M M /M RMK AO2 PNO $
94908KDBQ DBQ20120619051506806/19/12 05:15:31  5-MIN KDBQ 191115Z A2983 M M M M /M RMK AO2 PNO $
94908KDBQ DBQ20120619052006806/19/12 05:20:31  5-MIN KDBQ 191120Z A2983 M M M M /M RMK AO2 PNO $
94908KDBQ DBQ20120619052506806/19/12 05:25:31  5-MIN KDBQ 191125Z A2983 M M M M /M RMK AO2 PNO $
94908KDBQ DBQ20120619053006806/19/12 05:30:31  5-MIN KDBQ 191130Z A2983 M M M M /M RMK AO2 PNO $
94908KDBQ DBQ20120619053506806/19/12 05:35:31  5-MIN KDBQ 191135Z A2983 M M M M /M RMK AO2 PNO $
94908KDBQ DBQ20120619054006806/19/12 05:40:31  5-MIN KDBQ 191140Z A2983 M M M M /M RMK AO2 PNO $
94908KDBQ DBQ20120619054506806/19/12 05:45:31  5-MIN KDBQ 191145Z A2983 M M M M /M RMK AO2 PNO $
94908KDBQ DBQ20120619055013506/19/12 05:50:31  5-MIN KDBQ 191150Z 19012KT 10SM CLR 23/18 A2983 1160 73 2400 190/12 RMK AO2 SLP093 6//// 7//// T02300180 53006 PNO $
94908KDBQ DBQ20120619055506806/19/12 05:55:31  5-MIN KDBQ 191155Z A2983 M M M M /M RMK AO2 PNO $
94908KDBQ DBQ20120619060006806/19/12 06:00:31  5-MIN KDBQ 191200Z A2983 M M M M /M RMK AO2 PNO $
94908KDBQ DBQ20120619060506806/19/12 06:05:31  5-MIN KDBQ 191205Z A2983 M M M M /M RMK AO2 PNO $
94908KDBQ DBQ20120619061006806/19/12 06:10:31  5-MIN KDBQ 191210Z A2983 M M M M /M RMK AO2 PNO $
94908KDBQ DBQ20120619061506806/19/12 06:15:31  5-MIN KDBQ 191215Z A2983 M M M M /M RMK AO2 PNO $
94908KDBQ DBQ20120619062006806/19/12 06:20:31  5-MIN KDBQ 191220Z A2984 M M M M /M RMK AO2 PNO $
94908KDBQ DBQ20120619062506806/19/12 06:25:31  5-MIN KDBQ 191225Z A2984 M M M M /M RMK AO2 PNO $
94908KDBQ DBQ20120619063006806/19/12 06:30:31  5-MIN KDBQ 191230Z A2984 M M M M /M RMK AO2 PNO $
94908KDBQ DBQ20120619063506806/19/12 06:35:31  5-MIN KDBQ 191235Z A2984 M M M M /M RMK AO2 PNO $
94908KDBQ DBQ20120619064006806/19/12 06:40:31  5-MIN KDBQ 191240Z A2985 M M M M /M RMK AO2 PNO $
94908KDBQ DBQ20120619064506806/19/12 06:45:31  5-MIN KDBQ 191245Z A2985 M M M M /M RMK AO2 PNO $
94908KDBQ DBQ20120619065007406/19/12 06:50:31  5-MIN KDBQ 191250Z A2985 M M M M /M RMK AO2 SLPNO PNO $
94908KDBQ DBQ20120619065510606/19/12 06:55:31  5-MIN KDBQ 191255Z 21009G16KT 10SM CLR 25/19 A2986 1130 68 2600 210/09G16 RMK AO2 PNO $
94908KDBQ DBQ20120619070010606/19/12 07:00:31  5-MIN KDBQ 191300Z 21009G16KT 10SM CLR 25/19 A2987 1130 68 2600 210/09G16 RMK AO2 PNO $
94908KDBQ DBQ20120619070510606/19/12 07:05:31  5-MIN KDBQ 191305Z 21009G16KT 10SM CLR 25/19 A2987 1120 68 2600 210/09G16 RMK AO2 PNO $
94908KDBQ DBQ20120619071010606/19/12 07:10:31  5-MIN KDBQ 191310Z 21009G16KT 10SM CLR 25/19 A2987 1120 68 2600 210/09G16 RMK AO2 PNO $
94908KDBQ DBQ20120619071510606/19/12 07:15:31  5-MIN KDBQ 191315Z 21009G16KT 10SM CLR 25/19 A2987 1120 68 2600 210/09G16 RMK AO2 PNO $
94908KDBQ DBQ20120619072010606/19/12 07:20:31  5-MIN KDBQ 191320Z 21009G16KT 10SM CLR 25/19 A2987 1130 68 2600 210/09G16 RMK AO2 PNO $
94908KDBQ DBQ20120619072510606/19/12 07:25:31  5-MIN KDBQ 191325Z 21009G16KT 10SM CLR 25/19 A2987 1130 68 2600 210/09G16 RMK AO2 PNO $
94908KDBQ DBQ20120619073010606/19/12 07:30:31  5-MIN KDBQ 191330Z 21009G16KT 10SM CLR 25/19 A2987 1130 68 2600 210/09G16 RMK AO2 PNO $
94908KDBQ DBQ20120619073510206/19/12 07:35:31  5-MIN KDBQ 191335Z 21009G16KT 10SM CLR 25/19 A2987 1130 68 2600 210/09G16 RMK AO2 $
94908KDBQ DBQ20120619074010206/19/12 07:40:31  5-MIN KDBQ 191340Z 21009G16KT 10SM CLR 25/19 A2987 1120 68 2600 210/09G16 RMK AO2 $
94908KDBQ DBQ20120619074510606/19/12 07:45:31  5-MIN KDBQ 191345Z 21009G16KT 10SM CLR 25/19 A2987 1120 68 2600 210/09G16 RMK AO2 PNO $
94908KDBQ DBQ20120619075012206/19/12 07:50:31  5-MIN KDBQ 191350Z 22014G18KT 10SM CLR 26/19 A2988 1120 64 2700 220/14G18 RMK AO2 SLPNO T02600190 PNO $
94908KDBQ DBQ20120619075508006/19/12 07:55:31  5-MIN KDBQ 191355Z 20012KT 10SM 26/19 M 64 M 200/12 RMK AO2 $
94908KDBQ DBQ20120619080009006/19/12 08:00:31  5-MIN KDBQ 191400Z 20017KT 10SM 27/19 A2987 1120 62 2800 200/17 RMK AO2
94908KDBQ DBQ20120619080508606/19/12 08:05:31  5-MIN KDBQ 191405Z 10SM 27/19 A2987 1120 62 2800 M /M RMK AO2 PNO $
94908KDBQ DBQ20120619081009006/19/12 08:10:31  5-MIN KDBQ 191410Z 21015KT 10SM 27/19 A2987 1120 64 2800 210/15 RMK AO2
94908KDBQ DBQ20120619081509006/19/12 08:15:31  5-MIN KDBQ 191415Z 21013KT 10SM 27/19 A2987 1120 60 2800 200/13 RMK AO2
94908KDBQ DBQ20120619082009606/19/12 08:20:31  5-MIN KDBQ 191420Z 22015G20KT 10SM 27/19 A2987 1120 60 2800 210/15G20 RMK AO2
94908KDBQ DBQ20120619082509606/19/12 08:25:31  5-MIN KDBQ 191425Z 21015G21KT 10SM 27/19 A2988 1120 60 2800 210/15G21 RMK AO2
94908KDBQ DBQ20120619083009606/19/12 08:30:31  5-MIN KDBQ 191430Z 22013G22KT 10SM 27/19 A2988 1110 60 2800 210/13G22 RMK AO2
94908KDBQ DBQ20120619083510006/19/12 08:35:31  5-MIN KDBQ 191435Z 21014G22KT 10SM CLR 27/19 A2988 1110 60 2800 210/14G22 RMK AO2
94908KDBQ DBQ20120619084010406/19/12 08:40:31  5-MIN KDBQ 191440Z AUTO 21018KT 10SM CLR 28/19 A2988 1110 58 2900 210/18 RMK AO2 TSNO
94908KDBQ DBQ20120619084511006/19/12 08:45:31  5-MIN KDBQ 191445Z AUTO 23012G21KT 10SM CLR 28/19 A2988 1120 58 2900 230/12G21 RMK AO2 TSNO
94908KDBQ DBQ20120619085013806/19/12 08:50:31  5-MIN KDBQ 191450Z AUTO 23014G21KT 10SM CLR 28/19 A2988 1120 58 2900 230/14G21 RMK AO2 SLPNO 6//// T02780189 51011 TSNO
94908KDBQ DBQ20120619085510406/19/12 08:55:31  5-MIN KDBQ 191455Z AUTO 21016KT 10SM CLR 28/19 A2988 1110 58 2900 210/16 RMK AO2 TSNO
94908KDBQ DBQ20120619090010406/19/12 09:00:31  5-MIN KDBQ 191500Z AUTO 22018KT 10SM CLR 28/19 A2988 1110 58 2900 220/18 RMK AO2 TSNO
94908KDBQ DBQ20120619090511006/19/12 09:05:31  5-MIN KDBQ 191505Z AUTO 22014G22KT 10SM CLR 28/19 A2988 1120 58 2900 220/14G22 RMK AO2 TSNO
94908KDBQ DBQ20120619091011006/19/12 09:10:31  5-MIN KDBQ 191510Z AUTO 22013G20KT 10SM CLR 28/19 A2988 1110 58 2900 220/13G20 RMK AO2 TSNO
94908KDBQ DBQ20120619091511006/19/12 09:15:31  5-MIN KDBQ 191515Z AUTO 23016G20KT 10SM CLR 28/19 A2988 1110 58 2900 220/16G20 RMK AO2 TSNO
94908KDBQ DBQ20120619092011006/19/12 09:20:31  5-MIN KDBQ 191520Z AUTO 21016G20KT 10SM CLR 28/19 A2988 1110 60 2900 210/16G20 RMK AO2 TSNO
94908KDBQ DBQ20120619092510406/19/12 09:25:31  5-MIN KDBQ 191525Z AUTO 21015KT 10SM CLR 28/19 A2989 1110 58 2900 210/15 RMK AO2 TSNO
94908KDBQ DBQ20120619093011006/19/12 09:30:31  5-MIN KDBQ 191530Z AUTO 20014G22KT 10SM CLR 28/19 A2989 1110 58 2900 200/14G22 RMK AO2 TSNO
94908KDBQ DBQ20120619093511006/19/12 09:35:31  5-MIN KDBQ 191535Z AUTO 20014G22KT 10SM CLR 28/19 A2989 1110 58 2900 200/14G22 RMK AO2 TSNO
94908KDBQ DBQ20120619094010006/19/12 09:40:31  5-MIN KDBQ 191540Z 21016G20KT 10SM CLR 28/19 A2989 1110 58 2900 210/16G20 RMK AO2
94908KDBQ DBQ20120619094509406/19/12 09:45:31  5-MIN KDBQ 191545Z 20014KT 10SM CLR 28/19 A2989 1110 58 2900 200/14 RMK AO2
94908KDBQ DBQ20120619095011006/19/12 09:50:31  5-MIN KDBQ 191550Z 21013KT 10SM CLR 29/19 A2989 1110 56 3000 210/13 RMK AO2 SLPNO T02890194
94908KDBQ DBQ20120619095509406/19/12 09:55:31  5-MIN KDBQ 191555Z 21013KT 10SM CLR 29/19 A2989 1110 56 3000 210/13 RMK AO2
94908KDBQ DBQ20120619100009406/19/12 10:00:31  5-MIN KDBQ 191600Z 21011KT 10SM CLR 29/19 A2989 1110 56 3000 210/11 RMK AO2
94908KDBQ DBQ20120619100509406/19/12 10:05:31  5-MIN KDBQ 191605Z 21015KT 10SM CLR 29/20 A2989 1110 56 3100 210/15 RMK AO2
94908KDBQ DBQ20120619101009406/19/12 10:10:31  5-MIN KDBQ 191610Z 21012KT 10SM CLR 29/20 A2989 1110 58 3000 210/12 RMK AO2
94908KDBQ DBQ20120619101510006/19/12 10:15:31  5-MIN KDBQ 191615Z 20013G19KT 10SM CLR 29/20 A2989 1110 58 3000 200/13G19 RMK AO2
94908KDBQ DBQ20120619102009406/19/12 10:20:31  5-MIN KDBQ 191620Z 19014KT 10SM CLR 29/19 A2989 1110 56 3000 190/14 RMK AO2
94908KDBQ DBQ20120619102510006/19/12 10:25:31  5-MIN KDBQ 191625Z 19015G21KT 10SM CLR 29/20 A2989 1110 56 3000 190/15G21 RMK AO2
94908KDBQ DBQ20120619103010006/19/12 10:30:31  5-MIN KDBQ 191630Z 20014G21KT 10SM CLR 29/20 A2989 1110 56 3000 200/14G21 RMK AO2
94908KDBQ DBQ20120619103510006/19/12 10:35:31  5-MIN KDBQ 191635Z 21013G20KT 10SM CLR 29/20 A2989 1110 56 3100 210/13G20 RMK AO2
94908KDBQ DBQ20120619104009406/19/12 10:40:31  5-MIN KDBQ 191640Z 20015KT 10SM CLR 29/20 A2989 1110 56 3100 200/15 RMK AO2
94908KDBQ DBQ20120619104509706/19/12 10:45:31  5-MIN KDBQ 191645Z 22012KT 10SM FEW037 29/20 A2989 1110 56 3100 220/12 RMK AO2
94908KDBQ DBQ20120619105011306/19/12 10:50:31  5-MIN KDBQ 191650Z 21014KT 10SM FEW037 30/20 A2989 1110 54 3100 210/14 RMK AO2 SLPNO T03000200
94908KDBQ DBQ20120619105509406/19/12 10:55:31  5-MIN KDBQ 191655Z 19013KT 10SM CLR 30/20 A2989 1110 54 3100 190/13 RMK AO2
94908KDBQ DBQ20120619110010006/19/12 11:00:31  5-MIN KDBQ 191700Z 20015G20KT 10SM CLR 30/20 A2989 1110 54 3100 200/15G20 RMK AO2
94908KDBQ DBQ20120619110510006/19/12 11:05:31  5-MIN KDBQ 191705Z 20011G20KT 10SM CLR 30/20 A2989 1110 54 3100 200/11G20 RMK AO2
94908KDBQ DBQ20120619111010006/19/12 11:10:31  5-MIN KDBQ 191710Z 20018G23KT 10SM CLR 30/20 A2989 1110 54 3100 190/18G23 RMK AO2
94908KDBQ DBQ20120619111510006/19/12 11:15:31  5-MIN KDBQ 191715Z 22015G23KT 10SM CLR 30/19 A2989 1110 52 3100 210/15G23 RMK AO2
94908KDBQ DBQ20120619112010006/19/12 11:20:31  5-MIN KDBQ 191720Z 20016G21KT 10SM CLR 30/19 A2988 1110 52 3100 200/16G21 RMK AO2
94908KDBQ DBQ20120619112510006/19/12 11:25:31  5-MIN KDBQ 191725Z 20014G21KT 10SM CLR 30/19 A2989 1110 52 3100 200/14G21 RMK AO2
94908KDBQ DBQ20120619113009406/19/12 11:30:31  5-MIN KDBQ 191730Z 18014KT 10SM CLR 31/20 A2989 1110 52 3200 180/14 RMK AO2
94908KDBQ DBQ20120619113510006/19/12 11:35:31  5-MIN KDBQ 191735Z 21014G20KT 10SM CLR 31/20 A2988 1110 52 3200 210/14G20 RMK AO2
94908KDBQ DBQ20120619114011806/19/12 11:40:31  5-MIN KDBQ 191740Z 19019G27KT 10SM CLR 31/19 A2988 1110 49 3200 190/19G27 RMK AO2 PK WND 18027/1740
94908KDBQ DBQ20120619114511806/19/12 11:45:31  5-MIN KDBQ 191745Z 19018G27KT 10SM CLR 31/19 A2988 1120 47 3200 190/18G27 RMK AO2 PK WND 18027/1740
94908KDBQ DBQ20120619115014606/19/12 11:50:31  5-MIN KDBQ 191750Z 19016G24KT 10SM CLR 31/19 A2988 1120 49 3200 190/16G24 RMK AO2 PK WND 18027/1740 SLPNO 6//// T03110194 51017
94908KDBQ DBQ20120619115510306/19/12 11:55:31  5-MIN KDBQ 191755Z 21018G23KT 10SM FEW046 31/19 A2988 1110 51 3200 210/18G23 RMK AO2
94908KDBQ DBQ20120619120010306/19/12 12:00:31  5-MIN KDBQ 191800Z 21016G23KT 10SM FEW046 31/19 A2988 1120 47 3200 210/16G23 RMK AO2
94908KDBQ DBQ20120619120510306/19/12 12:05:31  5-MIN KDBQ 191805Z 19016G24KT 10SM FEW046 31/19 A2988 1120 47 3200 190/16G24 RMK AO2
94908KDBQ DBQ20120619121010306/19/12 12:10:31  5-MIN KDBQ 191810Z 19013G25KT 10SM FEW046 31/19 A2988 1120 49 3200 190/13G25 RMK AO2
94908KDBQ DBQ20120619121510306/19/12 12:15:31  5-MIN KDBQ 191815Z 20019G25KT 10SM FEW046 32/20 A2987 1120 49 3300 200/19G25 RMK AO2
94908KDBQ DBQ20120619122010306/19/12 12:20:31  5-MIN KDBQ 191820Z 20017G24KT 10SM FEW046 31/19 A2987 1130 49 3300 200/17G24 RMK AO2
94908KDBQ DBQ20120619122510006/19/12 12:25:31  5-MIN KDBQ 191825Z 18019G24KT 10SM CLR 32/19 A2987 1130 46 3300 180/19G24 RMK AO2
94908KDBQ DBQ20120619123009406/19/12 12:30:31  5-MIN KDBQ 191830Z 19019KT 10SM CLR 31/19 A2987 1130 47 3300 180/19 RMK AO2
94908KDBQ DBQ20120619123510006/19/12 12:35:31  5-MIN KDBQ 191835Z 19019G25KT 10SM CLR 32/18 A2987 1130 44 3300 190/19G25 RMK AO2
94908KDBQ DBQ20120619124010006/19/12 12:40:31  5-MIN KDBQ 191840Z 20016G25KT 10SM CLR 32/19 A2987 1130 46 3300 200/16G25 RMK AO2
94908KDBQ DBQ20120619124510006/19/12 12:45:31  5-MIN KDBQ 191845Z 20019G23KT 10SM CLR 32/19 A2986 1130 46 3300 190/19G23 RMK AO2
94908KDBQ DBQ20120619125011606/19/12 12:50:31  5-MIN KDBQ 191850Z 20018G25KT 10SM CLR 32/19 A2986 1130 46 3300 200/18G25 RMK AO2 SLPNO T03170189
94908KDBQ DBQ20120619125510006/19/12 12:55:31  5-MIN KDBQ 191855Z 20017G25KT 10SM CLR 32/19 A2986 1130 46 3400 200/17G25 RMK AO2
94908KDBQ DBQ20120619130009406/19/12 13:00:31  5-MIN KDBQ 191900Z 19018KT 10SM CLR 32/19 A2986 1130 46 3400 190/18 RMK AO2
94908KDBQ DBQ20120619130509406/19/12 13:05:31  5-MIN KDBQ 191905Z 19018KT 10SM CLR 32/19 A2986 1130 46 3300 190/18 RMK AO2
94908KDBQ DBQ20120619131009406/19/12 13:10:31  5-MIN KDBQ 191910Z 18018KT 10SM CLR 32/19 A2986 1130 46 3400 180/18 RMK AO2
94908KDBQ DBQ20120619131511806/19/12 13:15:31  5-MIN KDBQ 191915Z 19018G30KT 10SM CLR 32/19 A2986 1130 47 3300 190/18G30 RMK AO2 PK WND 19030/1912
94908KDBQ DBQ20120619132011806/19/12 13:20:31  5-MIN KDBQ 191920Z 19021G30KT 10SM CLR 32/19 A2986 1130 46 3300 190/21G30 RMK AO2 PK WND 19030/1912
94908KDBQ DBQ20120619132511806/19/12 13:25:31  5-MIN KDBQ 191925Z 20019G26KT 10SM CLR 32/19 A2986 1140 44 3400 190/19G26 RMK AO2 PK WND 19030/1912
94908KDBQ DBQ20120619133011806/19/12 13:30:31  5-MIN KDBQ 191930Z 19019G26KT 10SM CLR 32/19 A2986 1140 44 3400 190/19G26 RMK AO2 PK WND 19030/1912
94908KDBQ DBQ20120619133511806/19/12 13:35:31  5-MIN KDBQ 191935Z 19020G26KT 10SM CLR 32/18 A2986 1140 44 3300 190/20G26 RMK AO2 PK WND 19030/1912
94908KDBQ DBQ20120619134011806/19/12 13:40:31  5-MIN KDBQ 191940Z 20019G26KT 10SM CLR 32/19 A2986 1140 46 3300 200/19G26 RMK AO2 PK WND 19030/1912
94908KDBQ DBQ20120619134511806/19/12 13:45:31  5-MIN KDBQ 191945Z 20020G26KT 10SM CLR 32/19 A2986 1140 46 3400 200/20G26 RMK AO2 PK WND 19030/1912
94908KDBQ DBQ20120619135013406/19/12 13:50:31  5-MIN KDBQ 191950Z 19019G29KT 10SM CLR 32/19 A2985 1140 44 3400 190/19G29 RMK AO2 PK WND 19030/1912 SLPNO T03220189
94908KDBQ DBQ20120619135510306/19/12 13:55:31  5-MIN KDBQ 191955Z 17018G29KT 10SM FEW050 32/19 A2986 1140 47 3300 170/18G29 RMK AO2
94908KDBQ DBQ20120619140009706/19/12 14:00:31  5-MIN KDBQ 192000Z 19017KT 10SM SCT050 32/19 A2985 1140 47 3300 190/17 RMK AO2
94908KDBQ DBQ20120619140510306/19/12 14:05:31  5-MIN KDBQ 192005Z 19019G24KT 10SM SCT050 32/19 A2985 1140 46 3400 190/19G24 RMK AO2
94908KDBQ DBQ20120619141009706/19/12 14:10:31  5-MIN KDBQ 192010Z 20018KT 10SM SCT050 32/19 A2986 1140 47 3300 200/18 RMK AO2
94908KDBQ DBQ20120619141512106/19/12 14:15:31  5-MIN KDBQ 192015Z 19021G26KT 10SM SCT055 31/19 A2986 1140 47 3300 190/21G26 RMK AO2 PK WND 19026/2014
94908KDBQ DBQ20120619142012106/19/12 14:20:31  5-MIN KDBQ 192020Z 18017G26KT 10SM SCT055 31/19 A2986 1140 47 3300 180/17G26 RMK AO2 PK WND 19026/2014
94908KDBQ DBQ20120619142512106/19/12 14:25:31  5-MIN KDBQ 192025Z 20018G25KT 10SM SCT055 32/19 A2986 1140 46 3300 200/18G25 RMK AO2 PK WND 19026/2014
94908KDBQ DBQ20120619143012106/19/12 14:30:31  5-MIN KDBQ 192030Z 19017G25KT 10SM SCT055 32/18 A2986 1140 44 3300 190/17G25 RMK AO2 PK WND 19026/2014
94908KDBQ DBQ20120619143512106/19/12 14:35:31  5-MIN KDBQ 192035Z 18019G25KT 10SM FEW055 32/18 A2985 1140 44 3300 180/19G25 RMK AO2 PK WND 19026/2014
94908KDBQ DBQ20120619144012106/19/12 14:40:31  5-MIN KDBQ 192040Z 19022G28KT 10SM FEW055 32/18 A2985 1140 43 3400 190/22G28 RMK AO2 PK WND 19028/2036
94908KDBQ DBQ20120619144512106/19/12 14:45:31  5-MIN KDBQ 192045Z 18022G28KT 10SM FEW055 32/18 A2986 1140 43 3400 180/22G28 RMK AO2 PK WND 19028/2036
94908KDBQ DBQ20120619145014306/19/12 14:50:31  5-MIN KDBQ 192050Z 19020G29KT 10SM FEW055 32/18 A2985 1140 43 3300 190/20G29 RMK AO2 PK WND 18029/2046 SLPNO T03170178 50001
94908KDBQ DBQ20120619145512106/19/12 14:55:31  5-MIN KDBQ 192055Z 20023G29KT 10SM FEW055 32/18 A2985 1140 41 3400 200/23G29 RMK AO2 PK WND 20028/2055
94908KDBQ DBQ20120619150011806/19/12 15:00:31  5-MIN KDBQ 192100Z 21021G28KT 10SM CLR 32/18 A2985 1140 43 3400 210/21G28 RMK AO2 PK WND 21028/2100
94908KDBQ DBQ20120619150511806/19/12 15:05:31  5-MIN KDBQ 192105Z 20019G31KT 10SM CLR 32/18 A2985 1140 43 3300 200/19G31 RMK AO2 PK WND 21031/2101
94908KDBQ DBQ20120619151012106/19/12 15:10:31  5-MIN KDBQ 192110Z 21019G31KT 10SM FEW060 32/18 A2985 1140 44 3300 200/19G31 RMK AO2 PK WND 21031/2101
94908KDBQ DBQ20120619151512106/19/12 15:15:31  5-MIN KDBQ 192115Z 19021G27KT 10SM FEW055 32/18 A2985 1140 43 3400 180/21G27 RMK AO2 PK WND 21031/2101
94908KDBQ DBQ20120619152012106/19/12 15:20:31  5-MIN KDBQ 192120Z 20017G27KT 10SM FEW055 32/18 A2986 1140 43 3400 200/17G27 RMK AO2 PK WND 21031/2101
94908KDBQ DBQ20120619152512106/19/12 15:25:31  5-MIN KDBQ 192125Z 19021G29KT 10SM FEW055 32/19 A2985 1140 44 3400 190/21G29 RMK AO2 PK WND 21031/2101
94908KDBQ DBQ20120619153012106/19/12 15:30:31  5-MIN KDBQ 192130Z 19021G29KT 10SM FEW055 31/18 A2985 1140 46 3300 190/21G29 RMK AO2 PK WND 21031/2101
94908KDBQ DBQ20120619153512106/19/12 15:35:31  5-MIN KDBQ 192135Z 19019G29KT 10SM FEW055 31/18 A2985 1140 46 3300 190/19G29 RMK AO2 PK WND 21031/2101
94908KDBQ DBQ20120619154012106/19/12 15:40:31  5-MIN KDBQ 192140Z 19020G29KT 10SM FEW055 32/18 A2985 1140 44 3300 190/20G29 RMK AO2 PK WND 21031/2101
94908KDBQ DBQ20120619154512106/19/12 15:45:31  5-MIN KDBQ 192145Z 19016G28KT 10SM FEW055 32/19 A2985 1140 46 3300 190/16G28 RMK AO2 PK WND 21031/2101
94908KDBQ DBQ20120619155013706/19/12 15:50:31  5-MIN KDBQ 192150Z 19017G25KT 10SM FEW050 32/19 A2985 1140 47 3300 190/17G25 RMK AO2 PK WND 21031/2101 SLPNO T03170194
94908KDBQ DBQ20120619155512106/19/12 15:55:31  5-MIN KDBQ 192155Z 19021G28KT 10SM FEW050 31/19 A2985 1140 47 3300 190/21G28 RMK AO2 PK WND 19028/2155
94908KDBQ DBQ20120619160012106/19/12 16:00:31  5-MIN KDBQ 192200Z 19021G28KT 10SM FEW050 31/18 A2985 1140 46 3300 190/21G28 RMK AO2 PK WND 19028/2157
94908KDBQ DBQ20120619160512106/19/12 16:05:31  5-MIN KDBQ 192205Z 20018G28KT 10SM FEW050 31/19 A2985 1140 47 3300 200/18G28 RMK AO2 PK WND 19028/2157
94908KDBQ DBQ20120619161012106/19/12 16:10:31  5-MIN KDBQ 192210Z 19019G25KT 10SM FEW050 31/19 A2986 1140 49 3200 190/19G25 RMK AO2 PK WND 19028/2157
94908KDBQ DBQ20120619161512106/19/12 16:15:31  5-MIN KDBQ 192215Z 19019G25KT 10SM FEW050 31/19 A2985 1140 49 3200 190/19G25 RMK AO2 PK WND 19028/2157
94908KDBQ DBQ20120619162012806/19/12 16:20:31  5-MIN KDBQ 192220Z 19019G25KT 10SM FEW050 SCT060 31/19 A2985 1140 49 3300 190/19G25 RMK AO2 PK WND 19028/2157
94908KDBQ DBQ20120619162512106/19/12 16:25:31  5-MIN KDBQ 192225Z 19022G27KT 10SM SCT055 31/19 A2985 1150 49 3300 190/22G27 RMK AO2 PK WND 19028/2157
94908KDBQ DBQ20120619163012106/19/12 16:30:31  5-MIN KDBQ 192230Z 20021G28KT 10SM SCT060 31/19 A2985 1140 49 3200 200/21G28 RMK AO2 PK WND 21028/2227
94908KDBQ DBQ20120619163512106/19/12 16:35:31  5-MIN KDBQ 192235Z 20021G28KT 10SM SCT060 31/19 A2985 1140 49 3200 200/21G28 RMK AO2 PK WND 21028/2227
94908KDBQ DBQ20120619164012106/19/12 16:40:31  5-MIN KDBQ 192240Z 20016G26KT 10SM SCT060 31/19 A2985 1140 49 3200 200/16G26 RMK AO2 PK WND 21028/2227
94908KDBQ DBQ20120619164512106/19/12 16:45:31  5-MIN KDBQ 192245Z 20018G25KT 10SM SCT060 30/19 A2985 1150 51 3200 200/18G25 RMK AO2 PK WND 21028/2227
94908KDBQ DBQ20120619165013706/19/12 16:50:31  5-MIN KDBQ 192250Z 20019G26KT 10SM SCT060 30/19 A2985 1150 52 3200 200/19G26 RMK AO2 PK WND 21028/2227 SLPNO T03000194
94908KDBQ DBQ20120619165512106/19/12 16:55:31  5-MIN KDBQ 192255Z 20021G26KT 10SM FEW065 31/19 A2985 1150 51 3200 200/21G26 RMK AO2 PK WND 20026/2255
94908KDBQ DBQ20120619170012106/19/12 17:00:31  5-MIN KDBQ 192300Z 20022G29KT 10SM FEW065 31/19 A2985 1150 49 3200 200/22G29 RMK AO2 PK WND 20029/2300
94908KDBQ DBQ20120619170511806/19/12 17:05:31  5-MIN KDBQ 192305Z 20018G29KT 10SM CLR 31/19 A2984 1150 49 3200 200/18G29 RMK AO2 PK WND 20029/2300
94908KDBQ DBQ20120619171011806/19/12 17:10:31  5-MIN KDBQ 192310Z 20023G28KT 10SM CLR 31/19 A2984 1150 49 3200 200/23G28 RMK AO2 PK WND 20029/2300
94908KDBQ DBQ20120619171511806/19/12 17:15:31  5-MIN KDBQ 192315Z 20023G29KT 10SM CLR 31/18 A2984 1150 47 3200 200/23G29 RMK AO2 PK WND 21029/2313
94908KDBQ DBQ20120619172011806/19/12 17:20:31  5-MIN KDBQ 192320Z 20022G29KT 10SM CLR 31/18 A2984 1150 47 3200 200/22G29 RMK AO2 PK WND 21029/2313
94908KDBQ DBQ20120619172511806/19/12 17:25:31  5-MIN KDBQ 192325Z 20018G27KT 10SM CLR 31/18 A2985 1150 47 3200 200/18G27 RMK AO2 PK WND 21029/2313
94908KDBQ DBQ20120619173011806/19/12 17:30:31  5-MIN KDBQ 192330Z 20019G27KT 10SM CLR 31/18 A2985 1140 47 3200 200/19G27 RMK AO2 PK WND 21029/2313
94908KDBQ DBQ20120619173511806/19/12 17:35:31  5-MIN KDBQ 192335Z 20018G27KT 10SM CLR 30/19 A2985 1150 51 3200 200/18G27 RMK AO2 PK WND 21029/2313
94908KDBQ DBQ20120619174011806/19/12 17:40:31  5-MIN KDBQ 192340Z 20017G26KT 10SM CLR 30/19 A2985 1150 51 3200 200/17G26 RMK AO2 PK WND 21029/2313
94908KDBQ DBQ20120619174511806/19/12 17:45:31  5-MIN KDBQ 192345Z 20018G23KT 10SM CLR 30/19 A2985 1150 51 3200 200/18G23 RMK AO2 PK WND 21029/2313
94908KDBQ DBQ20120619175015306/19/12 17:50:31  5-MIN KDBQ 192350Z 20016G27KT 10SM CLR 30/19 A2985 1150 51 3200 200/16G27 RMK AO2 PK WND 21029/2313 SLP098 T03000189 10322 20300 56010
94908KDBQ DBQ20120619175511806/19/12 17:55:31  5-MIN KDBQ 192355Z 20020G27KT 10SM CLR 30/19 A2985 1150 51 3200 200/20G27 RMK AO2 PK WND 20026/2355
94908KDBQ DBQ20120619180011806/19/12 18:00:31  5-MIN KDBQ 200000Z 20017G26KT 10SM CLR 30/19 A2985 1150 51 3200 200/17G26 RMK AO2 PK WND 20026/2358
94908KDBQ DBQ20120619180511806/19/12 18:05:31  5-MIN KDBQ 200005Z 20018G26KT 10SM CLR 30/19 A2985 1140 51 3200 200/18G26 RMK AO2 PK WND 20026/2358
94908KDBQ DBQ20120619181011806/19/12 18:10:31  5-MIN KDBQ 200010Z 20017G24KT 10SM CLR 29/19 A2986 1140 52 3100 200/17G24 RMK AO2 PK WND 20026/2358
94908KDBQ DBQ20120619181511806/19/12 18:15:31  5-MIN KDBQ 200015Z 20018G24KT 10SM CLR 29/19 A2985 1140 52 3100 200/18G24 RMK AO2 PK WND 20026/2358
94908KDBQ DBQ20120619182011206/19/12 18:20:31  5-MIN KDBQ 200020Z 20018KT 10SM CLR 29/19 A2985 1140 52 3100 200/18 RMK AO2 PK WND 20026/2358
94908KDBQ DBQ20120619182511806/19/12 18:25:31  5-MIN KDBQ 200025Z 19016G21KT 10SM CLR 29/19 A2985 1140 54 3100 190/16G21 RMK AO2 PK WND 20026/2358
94908KDBQ DBQ20120619183011806/19/12 18:30:31  5-MIN KDBQ 200030Z 19017G22KT 10SM CLR 29/19 A2985 1140 52 3100 190/17G22 RMK AO2 PK WND 20026/2358
94908KDBQ DBQ20120619183511206/19/12 18:35:31  5-MIN KDBQ 200035Z 20017KT 10SM CLR 29/19 A2985 1140 52 3100 200/17 RMK AO2 PK WND 20026/2358
94908KDBQ DBQ20120619184011206/19/12 18:40:31  5-MIN KDBQ 200040Z 20017KT 10SM CLR 29/19 A2985 1140 52 3100 200/17 RMK AO2 PK WND 20026/2358
94908KDBQ DBQ20120619184511806/19/12 18:45:31  5-MIN KDBQ 200045Z 20017G24KT 10SM CLR 29/19 A2985 1140 54 3100 200/17G24 RMK AO2 PK WND 20026/2358
94908KDBQ DBQ20120619185013406/19/12 18:50:31  5-MIN KDBQ 200050Z 19017G24KT 10SM CLR 29/19 A2985 1140 56 3000 190/17G24 RMK AO2 PK WND 20026/2358 SLPNO T02890194
94908KDBQ DBQ20120619185510506/19/12 18:55:31  5-MIN KDBQ 200055Z AUTO 19017G23KT 10SM CLR 29/19 A2985 1140 56 3000 190/17G23 RMK AO2
94908KDBQ DBQ20120619190010506/19/12 19:00:31  5-MIN KDBQ 200100Z AUTO 19015G22KT 10SM CLR 29/19 A2985 1140 56 3000 190/15G22 RMK AO2
94908KDBQ DBQ20120619190509906/19/12 19:05:31  5-MIN KDBQ 200105Z AUTO 19015KT 10SM CLR 29/19 A2985 1140 56 3000 190/15 RMK AO2
94908KDBQ DBQ20120619191010506/19/12 19:10:31  5-MIN KDBQ 200110Z AUTO 19015G22KT 10SM CLR 29/19 A2985 1140 56 3000 190/15G22 RMK AO2
94908KDBQ DBQ20120619191510506/19/12 19:15:31  5-MIN KDBQ 200115Z AUTO 19012G22KT 10SM CLR 28/19 A2985 1140 58 3000 190/12G22 RMK AO2
94908KDBQ DBQ20120619192009906/19/12 19:20:31  5-MIN KDBQ 200120Z AUTO 19010KT 10SM CLR 28/19 A2985 1140 58 3000 180/10 RMK AO2
94908KDBQ DBQ20120619192509906/19/12 19:25:31  5-MIN KDBQ 200125Z AUTO 18013KT 10SM CLR 28/19 A2985 1140 60 2900 180/13 RMK AO2
94908KDBQ DBQ20120619193009906/19/12 19:30:31  5-MIN KDBQ 200130Z AUTO 19012KT 10SM CLR 28/20 A2985 1140 62 2900 180/12 RMK AO2
94908KDBQ DBQ20120619193509906/19/12 19:35:31  5-MIN KDBQ 200135Z AUTO 18013KT 10SM CLR 28/20 A2985 1140 62 2900 180/13 RMK AO2
94908KDBQ DBQ20120619194009906/19/12 19:40:31  5-MIN KDBQ 200140Z AUTO 19014KT 10SM CLR 28/20 A2985 1150 62 2900 180/14 RMK AO2
94908KDBQ DBQ20120619194510406/19/12 19:45:31  5-MIN KDBQ 200145Z AUTO 18014KT 10SM CLR 28/20 A2985 1150 62 2900 180/14 RMK AO2 TSNO
94908KDBQ DBQ20120619195012106/19/12 19:50:31  5-MIN KDBQ 200150Z AUTO 18014KT 10SM CLR 28/19 A2985 1140 60 2900 180/14 RMK AO2 SLP099 T02780194 TSNO
94908KDBQ DBQ20120619195510406/19/12 19:55:31  5-MIN KDBQ 200155Z AUTO 18013KT 10SM CLR 28/19 A2985 1140 60 2900 180/13 RMK AO2 TSNO
94908KDBQ DBQ20120619200009906/19/12 20:00:31  5-MIN KDBQ 200200Z AUTO 18013KT 10SM CLR 28/20 A2985 1140 62 2900 180/13 RMK AO2
94908KDBQ DBQ20120619200509906/19/12 20:05:31  5-MIN KDBQ 200205Z AUTO 18013KT 10SM CLR 28/20 A2985 1140 62 2900 180/13 RMK AO2
94908KDBQ DBQ20120619201009906/19/12 20:10:31  5-MIN KDBQ 200210Z AUTO 18014KT 10SM CLR 28/20 A2985 1140 62 2900 180/14 RMK AO2
94908KDBQ DBQ20120619201509906/19/12 20:15:31  5-MIN KDBQ 200215Z AUTO 19015KT 10SM CLR 28/20 A2986 1140 62 2900 180/15 RMK AO2
94908KDBQ DBQ20120619202009706/19/12 20:20:31  5-MIN KDBQ 200220Z AUTO 18014KT 10SM 28/20 A2986 1130 62 2900 180/14 RMK AO2 $
94908KDBQ DBQ20120619202509706/19/12 20:25:31  5-MIN KDBQ 200225Z AUTO 18015KT 10SM 28/20 A2986 1130 62 2900 180/15 RMK AO2 $
94908KDBQ DBQ20120619203009706/19/12 20:30:31  5-MIN KDBQ 200230Z AUTO 18013KT 10SM 27/20 A2986 1130 64 2800 180/13 RMK AO2 $
94908KDBQ DBQ20120619203509706/19/12 20:35:31  5-MIN KDBQ 200235Z AUTO 19014KT 10SM 27/20 A2987 1130 64 2800 180/14 RMK AO2 $
94908KDBQ DBQ20120619204009706/19/12 20:40:31  5-MIN KDBQ 200240Z AUTO 18012KT 10SM 27/21 A2987 1120 66 2800 180/12 RMK AO2 $
94908KDBQ DBQ20120619204509706/19/12 20:45:31  5-MIN KDBQ 200245Z AUTO 18014KT 10SM 27/21 A2987 1120 66 2800 180/14 RMK AO2 $
94908KDBQ DBQ20120619205012706/19/12 20:50:31  5-MIN KDBQ 200250Z AUTO 18013KT 10SM FEW046 27/21 A2987 1120 66 2800 180/13 RMK AO2 SLP106 T02720206 57002 $
94908KDBQ DBQ20120619205510406/19/12 20:55:31  5-MIN KDBQ 200255Z AUTO 18013KT 10SM FEW046 27/21 A2987 1120 66 2800 180/13 RMK AO2 $
94908KDBQ DBQ20120619210010106/19/12 21:00:31  5-MIN KDBQ 200300Z AUTO 19013KT 10SM CLR 27/21 A2988 1120 66 2800 190/13 RMK AO2 $
94908KDBQ DBQ20120619210510106/19/12 21:05:31  5-MIN KDBQ 200305Z AUTO 19013KT 10SM CLR 27/21 A2988 1120 69 2800 180/13 RMK AO2 $
94908KDBQ DBQ20120619211010706/19/12 21:10:31  5-MIN KDBQ 200310Z AUTO 19014G20KT 10SM CLR 27/20 A2988 1120 66 2800 190/14G20 RMK AO2 $
94908KDBQ DBQ20120619211510106/19/12 21:15:31  5-MIN KDBQ 200315Z AUTO 19015KT 10SM CLR 27/20 A2988 1120 66 2800 190/15 RMK AO2 $
94908KDBQ DBQ20120619212010706/19/12 21:20:31  5-MIN KDBQ 200320Z AUTO 19016G23KT 10SM CLR 27/20 A2988 1120 66 2800 190/16G23 RMK AO2 $
94908KDBQ DBQ20120619212510706/19/12 21:25:31  5-MIN KDBQ 200325Z AUTO 19014G23KT 10SM CLR 27/20 A2988 1120 66 2800 190/14G23 RMK AO2 $
94908KDBQ DBQ20120619213010106/19/12 21:30:31  5-MIN KDBQ 200330Z AUTO 19014KT 10SM CLR 27/20 A2988 1120 66 2800 190/14 RMK AO2 $
94908KDBQ DBQ20120619213510706/19/12 21:35:31  5-MIN KDBQ 200335Z AUTO 19015G24KT 10SM CLR 27/20 A2988 1120 66 2800 190/15G24 RMK AO2 $
94908KDBQ DBQ20120619214010706/19/12 21:40:31  5-MIN KDBQ 200340Z AUTO 19018G24KT 10SM CLR 27/20 A2988 1120 66 2800 190/18G24 RMK AO2 $
94908KDBQ DBQ20120619214510706/19/12 21:45:31  5-MIN KDBQ 200345Z AUTO 19015G23KT 10SM CLR 27/20 A2988 1120 66 2800 190/15G23 RMK AO2 $
94908KDBQ DBQ20120619215012406/19/12 21:50:31  5-MIN KDBQ 200350Z AUTO 19015G21KT 10SM CLR 27/20 A2988 1110 66 2700 190/15G21 RMK AO2 SLP109 T02670200 $
94908KDBQ DBQ20120619215510706/19/12 21:55:31  5-MIN KDBQ 200355Z AUTO 19014G21KT 10SM CLR 26/20 A2988 1110 68 2700 190/14G21 RMK AO2 $
94908KDBQ DBQ20120619220010106/19/12 22:00:31  5-MIN KDBQ 200400Z AUTO 19014KT 10SM CLR 26/20 A2988 1110 68 2700 190/14 RMK AO2 $
94908KDBQ DBQ20120619220510106/19/12 22:05:31  5-MIN KDBQ 200405Z AUTO 19014KT 10SM CLR 26/20 A2989 1110 68 2700 190/14 RMK AO2 $
94908KDBQ DBQ20120619221010106/19/12 22:10:31  5-MIN KDBQ 200410Z AUTO 19014KT 10SM CLR 26/20 A2989 1110 68 2700 190/14 RMK AO2 $
94908KDBQ DBQ20120619221510106/19/12 22:15:31  5-MIN KDBQ 200415Z AUTO 19015KT 10SM CLR 26/20 A2989 1110 68 2700 190/15 RMK AO2 $
94908KDBQ DBQ20120619222010106/19/12 22:20:31  5-MIN KDBQ 200420Z AUTO 19014KT 10SM CLR 26/20 A2989 1110 68 2700 190/14 RMK AO2 $
94908KDBQ DBQ20120619222510106/19/12 22:25:31  5-MIN KDBQ 200425Z AUTO 19015KT 10SM CLR 26/19 A2989 1110 68 2600 190/15 RMK AO2 $
94908KDBQ DBQ20120619223010706/19/12 22:30:31  5-MIN KDBQ 200430Z AUTO 19014G20KT 10SM CLR 26/19 A2989 1110 68 2600 190/14G20 RMK AO2 $
94908KDBQ DBQ20120619223510106/19/12 22:35:31  5-MIN KDBQ 200435Z AUTO 19013KT 10SM CLR 26/19 A2989 1110 68 2600 190/13 RMK AO2 $
94908KDBQ DBQ20120619224010106/19/12 22:40:31  5-MIN KDBQ 200440Z AUTO 19013KT 10SM CLR 26/19 A2989 1110 68 2600 190/13 RMK AO2 $
94908KDBQ DBQ20120619224510106/19/12 22:45:31  5-MIN KDBQ 200445Z AUTO 19013KT 10SM CLR 26/19 A2989 1110 68 2600 190/13 RMK AO2 $
94908KDBQ DBQ20120619225011806/19/12 22:50:31  5-MIN KDBQ 200450Z AUTO 19012KT 10SM CLR 26/19 A2989 1110 68 2600 190/12 RMK AO2 SLP111 T02560194 $
94908KDBQ DBQ20120619225510106/19/12 22:55:31  5-MIN KDBQ 200455Z AUTO 19013KT 10SM CLR 26/19 A2989 1110 68 2600 190/13 RMK AO2 $
94908KDBQ DBQ20120619230010106/19/12 23:00:31  5-MIN KDBQ 200500Z AUTO 19014KT 10SM CLR 26/19 A2989 1110 68 2600 190/14 RMK AO2 $
94908KDBQ DBQ20120619230510106/19/12 23:05:31  5-MIN KDBQ 200505Z AUTO 19011KT 10SM CLR 25/19 A2989 1110 71 2600 190/11 RMK AO2 $
94908KDBQ DBQ20120619231010106/19/12 23:10:31  5-MIN KDBQ 200510Z AUTO 19013KT 10SM CLR 25/19 A2989 1110 68 2600 190/13 RMK AO2 $
94908KDBQ DBQ20120619231510106/19/12 23:15:31  5-MIN KDBQ 200515Z AUTO 19014KT 10SM CLR 25/19 A2989 1110 68 2600 190/14 RMK AO2 $
94908KDBQ DBQ20120619232010106/19/12 23:20:31  5-MIN KDBQ 200520Z AUTO 19013KT 10SM CLR 25/19 A2989 1110 68 2600 190/13 RMK AO2 $
94908KDBQ DBQ20120619232510106/19/12 23:25:31  5-MIN KDBQ 200525Z AUTO 19013KT 10SM CLR 25/19 A2988 1110 68 2600 190/13 RMK AO2 $
94908KDBQ DBQ20120619233010106/19/12 23:30:31  5-MIN KDBQ 200530Z AUTO 19012KT 10SM CLR 25/19 A2988 1110 68 2600 190/12 RMK AO2 $
94908KDBQ DBQ20120619233510106/19/12 23:35:31  5-MIN KDBQ 200535Z AUTO 19012KT 10SM CLR 25/19 A2988 1110 68 2600 190/12 RMK AO2 $
94908KDBQ DBQ20120619234010106/19/12 23:40:31  5-MIN KDBQ 200540Z AUTO 19012KT 10SM CLR 24/19 A2988 1110 71 2500 190/12 RMK AO2 $
94908KDBQ DBQ20120619234510106/19/12 23:45:31  5-MIN KDBQ 200545Z AUTO 19012KT 10SM CLR 25/19 A2988 1110 68 2600 180/12 RMK AO2 $
94908KDBQ DBQ20120619235013606/19/12 23:50:31  5-MIN KDBQ 200550Z AUTO 18012KT 10SM CLR 24/19 A2988 1110 71 2500 180/12 RMK AO2 SLP110 T02440189 10300 20244 53009 $
94908KDBQ DBQ20120619235510106/19/12 23:55:31  5-MIN KDBQ 200555Z AUTO 18013KT 10SM CLR 24/19 A2988 1110 71 2500 180/13 RMK AO2 $
94908KDBQ DBQ20120620000010106/20/12 00:00:38  5-MIN KDBQ 200600Z AUTO 19014KT 10SM CLR 24/19 A2988 1110 71 2500 180/14 RMK AO2 $
94908KDBQ DBQ20120620000510106/20/12 00:05:31  5-MIN KDBQ 200605Z AUTO 19015KT 10SM CLR 24/19 A2988 1110 71 2500 180/15 RMK AO2 $
94908KDBQ DBQ20120620001010106/20/12 00:10:31  5-MIN KDBQ 200610Z AUTO 18014KT 10SM CLR 24/19 A2988 1120 71 2500 180/14 RMK AO2 $
94908KDBQ DBQ20120620001510706/20/12 00:15:31  5-MIN KDBQ 200615Z AUTO 19014G20KT 10SM CLR 24/19 A2988 1120 71 2500 180/14G20 RMK AO2 $
94908KDBQ DBQ20120620002010706/20/12 00:20:31  5-MIN KDBQ 200620Z AUTO 19014G20KT 10SM CLR 24/19 A2988 1120 71 2500 190/14G20 RMK AO2 $
94908KDBQ DBQ20120620002510706/20/12 00:25:31  5-MIN KDBQ 200625Z AUTO 19013G21KT 10SM CLR 24/19 A2988 1120 71 2500 190/13G21 RMK AO2 $
94908KDBQ DBQ20120620003010706/20/12 00:30:31  5-MIN KDBQ 200630Z AUTO 19014G21KT 10SM CLR 24/19 A2988 1120 71 2500 190/14G21 RMK AO2 $
94908KDBQ DBQ20120620003510106/20/12 00:35:31  5-MIN KDBQ 200635Z AUTO 19015KT 10SM CLR 24/19 A2987 1120 71 2500 190/15 RMK AO2 $
94908KDBQ DBQ20120620004010106/20/12 00:40:31  5-MIN KDBQ 200640Z AUTO 19015KT 10SM CLR 24/19 A2987 1120 71 2500 190/15 RMK AO2 $
94908KDBQ DBQ20120620004510106/20/12 00:45:31  5-MIN KDBQ 200645Z AUTO 19013KT 10SM CLR 24/19 A2987 1120 71 2500 190/13 RMK AO2 $
94908KDBQ DBQ20120620005011806/20/12 00:50:31  5-MIN KDBQ 200650Z AUTO 19013KT 10SM CLR 24/19 A2987 1120 71 2500 190/13 RMK AO2 SLP107 T02440189 $
94908KDBQ DBQ20120620005510106/20/12 00:55:31  5-MIN KDBQ 200655Z AUTO 19013KT 10SM CLR 24/19 A2988 1120 71 2500 190/13 RMK AO2 $
94908KDBQ DBQ20120620010010106/20/12 01:00:31  5-MIN KDBQ 200700Z AUTO 19013KT 10SM CLR 24/19 A2988 1120 71 2500 190/13 RMK AO2 $
94908KDBQ DBQ20120620010510106/20/12 01:05:31  5-MIN KDBQ 200705Z AUTO 19013KT 10SM CLR 24/19 A2988 1120 71 2500 190/13 RMK AO2 $
94908KDBQ DBQ20120620011010106/20/12 01:10:31  5-MIN KDBQ 200710Z AUTO 19014KT 10SM CLR 24/19 A2988 1120 71 2500 190/14 RMK AO2 $
94908KDBQ DBQ20120620011510106/20/12 01:15:31  5-MIN KDBQ 200715Z AUTO 19014KT 10SM CLR 24/19 A2988 1120 71 2500 190/14 RMK AO2 $
94908KDBQ DBQ20120620012010106/20/12 01:20:31  5-MIN KDBQ 200720Z AUTO 20012KT 10SM CLR 24/19 A2988 1110 71 2500 200/12 RMK AO2 $
94908KDBQ DBQ20120620012510106/20/12 01:25:31  5-MIN KDBQ 200725Z AUTO 19014KT 10SM CLR 24/19 A2988 1120 71 2500 190/14 RMK AO2 $
94908KDBQ DBQ20120620013010106/20/12 01:30:31  5-MIN KDBQ 200730Z AUTO 20013KT 10SM CLR 24/19 A2988 1120 73 2400 190/13 RMK AO2 $
94908KDBQ DBQ20120620013510106/20/12 01:35:31  5-MIN KDBQ 200735Z AUTO 19012KT 10SM CLR 24/19 A2988 1120 73 2400 190/12 RMK AO2 $
94908KDBQ DBQ20120620014010106/20/12 01:40:31  5-MIN KDBQ 200740Z AUTO 19012KT 10SM CLR 24/19 A2988 1120 73 2400 190/12 RMK AO2 $
94908KDBQ DBQ20120620014510106/20/12 01:45:31  5-MIN KDBQ 200745Z AUTO 19012KT 10SM CLR 24/19 A2988 1120 73 2400 190/12 RMK AO2 $
94908KDBQ DBQ20120620015011806/20/12 01:50:31  5-MIN KDBQ 200750Z AUTO 19012KT 10SM CLR 24/19 A2988 1120 73 2400 190/12 RMK AO2 SLP108 T02390189 $
94908KDBQ DBQ20120620015510106/20/12 01:55:31  5-MIN KDBQ 200755Z AUTO 19013KT 10SM CLR 24/19 A2988 1120 73 2400 190/13 RMK AO2 $
94908KDBQ DBQ20120620020010106/20/12 02:00:31  5-MIN KDBQ 200800Z AUTO 19012KT 10SM CLR 24/19 A2988 1120 73 2400 190/12 RMK AO2 $
94908KDBQ DBQ20120620020510706/20/12 02:05:31  5-MIN KDBQ 200805Z AUTO 19011G18KT 10SM CLR 24/19 A2988 1110 73 2400 190/11G18 RMK AO2 $
94908KDBQ DBQ20120620021010706/20/12 02:10:31  5-MIN KDBQ 200810Z AUTO 19012G18KT 10SM CLR 24/19 A2988 1120 73 2400 190/12G18 RMK AO2 $
94908KDBQ DBQ20120620021510106/20/12 02:15:31  5-MIN KDBQ 200815Z AUTO 19012KT 10SM CLR 24/19 A2988 1110 73 2400 190/12 RMK AO2 $
94908KDBQ DBQ20120620022010106/20/12 02:20:31  5-MIN KDBQ 200820Z AUTO 19011KT 10SM CLR 24/19 A2988 1110 73 2400 190/11 RMK AO2 $
94908KDBQ DBQ20120620022510106/20/12 02:25:31  5-MIN KDBQ 200825Z AUTO 19012KT 10SM CLR 23/19 A2988 1110 76 2400 190/12 RMK AO2 $
94908KDBQ DBQ20120620023010106/20/12 02:30:31  5-MIN KDBQ 200830Z AUTO 19011KT 10SM CLR 23/19 A2988 1110 76 2400 190/11 RMK AO2 $
94908KDBQ DBQ20120620023510106/20/12 02:35:31  5-MIN KDBQ 200835Z AUTO 18013KT 10SM CLR 23/19 A2988 1120 76 2400 180/13 RMK AO2 $
94908KDBQ DBQ20120620024010106/20/12 02:40:31  5-MIN KDBQ 200840Z AUTO 19011KT 10SM CLR 23/19 A2988 1110 76 2400 190/11 RMK AO2 $
94908KDBQ DBQ20120620024510106/20/12 02:45:31  5-MIN KDBQ 200845Z AUTO 19012KT 10SM CLR 23/19 A2988 1110 76 2400 190/12 RMK AO2 $
94908KDBQ DBQ20120620025012406/20/12 02:50:31  5-MIN KDBQ 200850Z AUTO 18011KT 10SM CLR 23/19 A2988 1110 76 2400 180/11 RMK AO2 SLP110 T02330189 50004 $
94908KDBQ DBQ20120620025510706/20/12 02:55:31  5-MIN KDBQ 200855Z AUTO 18013G18KT 10SM CLR 23/19 A2988 1110 76 2400 180/13G18 RMK AO2 $
94908KDBQ DBQ20120620030010706/20/12 03:00:31  5-MIN KDBQ 200900Z AUTO 18010G18KT 10SM CLR 23/19 A2988 1110 76 2400 180/10G18 RMK AO2 $
94908KDBQ DBQ20120620030510106/20/12 03:05:31  5-MIN KDBQ 200905Z AUTO 18009KT 10SM CLR 23/19 A2988 1110 78 2300 180/09 RMK AO2 $
94908KDBQ DBQ20120620031010106/20/12 03:10:31  5-MIN KDBQ 200910Z AUTO 19010KT 10SM CLR 23/19 A2988 1110 76 2400 180/10 RMK AO2 $
94908KDBQ DBQ20120620031510106/20/12 03:15:31  5-MIN KDBQ 200915Z AUTO 19010KT 10SM CLR 23/19 A2988 1110 78 2300 180/10 RMK AO2 $
94908KDBQ DBQ20120620032010106/20/12 03:20:31  5-MIN KDBQ 200920Z AUTO 19011KT 10SM CLR 23/19 A2988 1110 78 2300 190/11 RMK AO2 $
94908KDBQ DBQ20120620032510106/20/12 03:25:31  5-MIN KDBQ 200925Z AUTO 19012KT 10SM CLR 23/19 A2988 1110 78 2300 190/12 RMK AO2 $
94908KDBQ DBQ20120620033010106/20/12 03:30:31  5-MIN KDBQ 200930Z AUTO 19011KT 10SM CLR 23/19 A2989 1110 78 2300 190/11 RMK AO2 $
94908KDBQ DBQ20120620033510106/20/12 03:35:31  5-MIN KDBQ 200935Z AUTO 19013KT 10SM CLR 23/19 A2989 1110 78 2300 190/13 RMK AO2 $
94908KDBQ DBQ20120620034010106/20/12 03:40:31  5-MIN KDBQ 200940Z AUTO 19012KT 10SM CLR 23/19 A2989 1110 78 2300 190/12 RMK AO2 $
94908KDBQ DBQ20120620034510106/20/12 03:45:31  5-MIN KDBQ 200945Z AUTO 19012KT 10SM CLR 23/19 A2989 1110 78 2300 190/12 RMK AO2 $
94908KDBQ DBQ20120620035011806/20/12 03:50:31  5-MIN KDBQ 200950Z AUTO 19011KT 10SM CLR 23/19 A2989 1110 78 2300 190/11 RMK AO2 SLP112 T02280189 $
94908KDBQ DBQ20120620035510106/20/12 03:55:31  5-MIN KDBQ 200955Z AUTO 19012KT 10SM CLR 23/19 A2989 1110 78 2300 190/12 RMK AO2 $
94908KDBQ DBQ20120620040010106/20/12 04:00:31  5-MIN KDBQ 201000Z AUTO 19012KT 10SM CLR 23/19 A2989 1110 78 2300 190/12 RMK AO2 $
94908KDBQ DBQ20120620040510106/20/12 04:05:31  5-MIN KDBQ 201005Z AUTO 19014KT 10SM CLR 23/19 A2989 1100 78 2300 190/14 RMK AO2 $
94908KDBQ DBQ20120620041010106/20/12 04:10:31  5-MIN KDBQ 201010Z AUTO 19013KT 10SM CLR 23/19 A2990 1100 78 2300 190/13 RMK AO2 $
94908KDBQ DBQ20120620041510106/20/12 04:15:31  5-MIN KDBQ 201015Z AUTO 19013KT 10SM CLR 23/19 A2990 1100 78 2300 190/13 RMK AO2 $
94908KDBQ DBQ20120620042010106/20/12 04:20:31  5-MIN KDBQ 201020Z AUTO 19013KT 10SM CLR 23/19 A2990 1100 78 2300 190/13 RMK AO2 $
94908KDBQ DBQ20120620042510106/20/12 04:25:31  5-MIN KDBQ 201025Z AUTO 19013KT 10SM CLR 23/19 A2990 1100 78 2300 190/13 RMK AO2 $
94908KDBQ DBQ20120620043010106/20/12 04:30:31  5-MIN KDBQ 201030Z AUTO 19013KT 10SM CLR 23/19 A2990 1100 78 2300 190/13 RMK AO2 $
94908KDBQ DBQ20120620043510106/20/12 04:35:31  5-MIN KDBQ 201035Z AUTO 19013KT 10SM CLR 23/19 A2990 1100 78 2300 190/13 RMK AO2 $
94908KDBQ DBQ20120620044010106/20/12 04:40:31  5-MIN KDBQ 201040Z AUTO 19012KT 10SM CLR 23/19 A2990 1100 78 2300 190/12 RMK AO2 $
94908KDBQ DBQ20120620044510106/20/12 04:45:31  5-MIN KDBQ 201045Z AUTO 19012KT 10SM CLR 23/19 A2990 1090 78 2300 190/12 RMK AO2 $
94908KDBQ DBQ20120620045011906/20/12 04:50:31  5-MIN KDBQ 201050Z 19011G18KT 10SM CLR 23/19 A2991 1090 78 2300 190/11G18 RMK AO2 SLP119 T02280189 $
94908KDBQ DBQ20120620045510206/20/12 04:55:31  5-MIN KDBQ 201055Z 19012G18KT 10SM CLR 23/19 A2991 1090 78 2300 190/12G18 RMK AO2 $
94908KDBQ DBQ20120620050009606/20/12 05:00:31  5-MIN KDBQ 201100Z 19012KT 10SM CLR 23/19 A2991 1090 78 2300 190/12 RMK AO2 $
94908KDBQ DBQ20120620050509606/20/12 05:05:31  5-MIN KDBQ 201105Z 19011KT 10SM CLR 23/19 A2991 1090 78 2300 190/11 RMK AO2 $
94908KDBQ DBQ20120620051010206/20/12 05:10:31  5-MIN KDBQ 201110Z 18011G18KT 10SM CLR 23/19 A2991 1080 78 2300 180/11G18 RMK AO2 $
94908KDBQ DBQ20120620051510206/20/12 05:15:31  5-MIN KDBQ 201115Z 18010G18KT 10SM CLR 23/19 A2992 1080 78 2300 180/10G18 RMK AO2 $
94908KDBQ DBQ20120620052009606/20/12 05:20:31  5-MIN KDBQ 201120Z 18010KT 10SM CLR 23/19 A2992 1080 78 2300 180/10 RMK AO2 $
94908KDBQ DBQ20120620052509606/20/12 05:25:31  5-MIN KDBQ 201125Z 18011KT 10SM CLR 23/19 A2992 1080 78 2300 180/11 RMK AO2 $
94908KDBQ DBQ20120620053009606/20/12 05:30:31  5-MIN KDBQ 201130Z 18010KT 10SM CLR 23/19 A2992 1080 78 2300 180/10 RMK AO2 $
94908KDBQ DBQ20120620053509606/20/12 05:35:31  5-MIN KDBQ 201135Z 18013KT 10SM CLR 23/19 A2992 1080 78 2300 180/13 RMK AO2 $
94908KDBQ DBQ20120620054009606/20/12 05:40:31  5-MIN KDBQ 201140Z 18012KT 10SM CLR 23/19 A2992 1080 78 2300 180/12 RMK AO2 $
94908KDBQ DBQ20120620054509606/20/12 05:45:31  5-MIN KDBQ 201145Z 18010KT 10SM CLR 23/19 A2992 1080 78 2300 180/10 RMK AO2 $
94908KDBQ DBQ20120620055013706/20/12 05:50:31  5-MIN KDBQ 201150Z 18013KT 10SM CLR 23/19 A2992 1080 78 2300 180/13 RMK AO2 SLP124 7//// T02280189 10244 20228 55000 $
94908KDBQ DBQ20120620055509406/20/12 05:55:31  5-MIN KDBQ 201155Z 19011KT 10SM CLR 23/19 A2993 1070 76 2300 190/11 RMK AO2
94908KDBQ DBQ20120620060009406/20/12 06:00:31  5-MIN KDBQ 201200Z 18011KT 10SM CLR 23/19 A2993 1070 76 2300 180/11 RMK AO2
94908KDBQ DBQ20120620060509406/20/12 06:05:31  5-MIN KDBQ 201205Z 19011KT 10SM CLR 23/19 A2993 1070 76 2300 180/11 RMK AO2
94908KDBQ DBQ20120620061009406/20/12 06:10:31  5-MIN KDBQ 201210Z 19013KT 10SM CLR 23/19 A2993 1070 76 2300 190/13 RMK AO2
94908KDBQ DBQ20120620061509406/20/12 06:15:31  5-MIN KDBQ 201215Z 19011KT 10SM CLR 23/19 A2993 1070 76 2300 190/11 RMK AO2
94908KDBQ DBQ20120620062009406/20/12 06:20:31  5-MIN KDBQ 201220Z 19013KT 10SM CLR 24/19 A2993 1070 73 2400 190/13 RMK AO2
94908KDBQ DBQ20120620062509406/20/12 06:25:31  5-MIN KDBQ 201225Z 19011KT 10SM CLR 24/19 A2993 1070 73 2400 190/11 RMK AO2
94908KDBQ DBQ20120620063009406/20/12 06:30:31  5-MIN KDBQ 201230Z 19012KT 10SM CLR 24/19 A2993 1070 76 2400 190/12 RMK AO2
94908KDBQ DBQ20120620063510006/20/12 06:35:31  5-MIN KDBQ 201235Z 19012G19KT 10SM CLR 24/19 A2993 1070 73 2400 190/12G19 RMK AO2
94908KDBQ DBQ20120620064010006/20/12 06:40:31  5-MIN KDBQ 201240Z 19013G19KT 10SM CLR 24/19 A2993 1070 73 2400 190/13G19 RMK AO2
94908KDBQ DBQ20120620064509406/20/12 06:45:31  5-MIN KDBQ 201245Z 19013KT 10SM CLR 24/19 A2993 1070 73 2400 190/13 RMK AO2
94908KDBQ DBQ20120620065011706/20/12 06:50:31  5-MIN KDBQ 201250Z 19014G20KT 10SM CLR 24/19 A2993 1070 73 2400 190/14G20 RMK AO2 SLP127 T02440194
94908KDBQ DBQ20120620065510006/20/12 06:55:31  5-MIN KDBQ 201255Z 19018G22KT 10SM CLR 25/19 A2993 1070 68 2500 190/18G22 RMK AO2
94908KDBQ DBQ20120620070010006/20/12 07:00:31  5-MIN KDBQ 201300Z 19013G23KT 10SM CLR 25/19 A2993 1070 71 2500 190/13G23 RMK AO2
94908KDBQ DBQ20120620070510006/20/12 07:05:31  5-MIN KDBQ 201305Z 19014G20KT 10SM CLR 25/19 A2993 1070 71 2500 190/14G20 RMK AO2
94908KDBQ DBQ20120620071009406/20/12 07:10:31  5-MIN KDBQ 201310Z 19013KT 10SM CLR 26/19 A2993 1070 68 2600 190/13 RMK AO2
94908KDBQ DBQ20120620071509406/20/12 07:15:31  5-MIN KDBQ 201315Z 19015KT 10SM CLR 26/19 A2993 1070 68 2600 190/15 RMK AO2
94908KDBQ DBQ20120620072010006/20/12 07:20:31  5-MIN KDBQ 201320Z 20017G21KT 10SM CLR 26/19 A2993 1070 68 2600 200/17G21 RMK AO2
94908KDBQ DBQ20120620072510006/20/12 07:25:31  5-MIN KDBQ 201325Z 19018G24KT 10SM CLR 26/19 A2993 1070 66 2600 190/18G24 RMK AO2
94908KDBQ DBQ20120620073010006/20/12 07:30:31  5-MIN KDBQ 201330Z 20017G24KT 10SM CLR 26/19 A2993 1070 66 2600 200/17G24 RMK AO2
94908KDBQ DBQ20120620073510006/20/12 07:35:31  5-MIN KDBQ 201335Z 21017G23KT 10SM CLR 27/19 A2993 1070 64 2700 210/17G23 RMK AO2
94908KDBQ DBQ20120620074010006/20/12 07:40:31  5-MIN KDBQ 201340Z 20015G23KT 10SM CLR 27/20 A2993 1070 66 2700 200/15G23 RMK AO2
94908KDBQ DBQ20120620074510006/20/12 07:45:31  5-MIN KDBQ 201345Z 20017G24KT 10SM CLR 27/19 A2993 1070 62 2800 200/17G24 RMK AO2
94908KDBQ DBQ20120620075011706/20/12 07:50:31  5-MIN KDBQ 201350Z 21016G24KT 10SM CLR 27/19 A2993 1070 64 2700 210/16G24 RMK AO2 SLP127 T02670194
94908KDBQ DBQ20120620075510006/20/12 07:55:31  5-MIN KDBQ 201355Z 21018G23KT 10SM CLR 27/19 A2993 1070 62 2800 210/18G23 RMK AO2
94908KDBQ DBQ20120620080010006/20/12 08:00:31  5-MIN KDBQ 201400Z 21019G25KT 10SM CLR 27/19 A2993 1070 62 2800 210/19G25 RMK AO2
94908KDBQ DBQ20120620080511806/20/12 08:05:31  5-MIN KDBQ 201405Z 21018G26KT 10SM CLR 27/19 A2994 1060 62 2700 210/18G26 RMK AO2 PK WND 21026/1401
94908KDBQ DBQ20120620081011806/20/12 08:10:31  5-MIN KDBQ 201410Z 21017G26KT 10SM CLR 27/19 A2994 1060 62 2700 210/17G26 RMK AO2 PK WND 21026/1406
94908KDBQ DBQ20120620081511806/20/12 08:15:31  5-MIN KDBQ 201415Z 20018G26KT 10SM CLR 28/19 A2993 1070 60 2800 200/18G26 RMK AO2 PK WND 21026/1406
94908KDBQ DBQ20120620082011806/20/12 08:20:31  5-MIN KDBQ 201420Z 20019G25KT 10SM CLR 28/19 A2994 1060 60 2800 200/19G25 RMK AO2 PK WND 21026/1406
94908KDBQ DBQ20120620082511806/20/12 08:25:31  5-MIN KDBQ 201425Z 21019G25KT 10SM CLR 28/19 A2993 1070 60 2800 210/19G25 RMK AO2 PK WND 21026/1406
94908KDBQ DBQ20120620083011806/20/12 08:30:31  5-MIN KDBQ 201430Z 21019G26KT 10SM CLR 28/19 A2994 1060 60 2800 210/19G26 RMK AO2 PK WND 22026/1426
94908KDBQ DBQ20120620083511806/20/12 08:35:31  5-MIN KDBQ 201435Z 22017G27KT 10SM CLR 28/19 A2993 1070 60 2800 220/17G27 RMK AO2 PK WND 21027/1432
94908KDBQ DBQ20120620084011806/20/12 08:40:31  5-MIN KDBQ 201440Z 21019G28KT 10SM CLR 28/19 A2994 1060 58 2900 210/19G28 RMK AO2 PK WND 19028/1439
94908KDBQ DBQ20120620084511806/20/12 08:45:31  5-MIN KDBQ 201445Z 22014G28KT 10SM CLR 28/19 A2994 1060 58 2900 220/14G28 RMK AO2 PK WND 19028/1439
94908KDBQ DBQ20120620085014106/20/12 08:50:31  5-MIN KDBQ 201450Z 21019G27KT 10SM CLR 28/20 A2994 1060 60 2900 210/19G27 RMK AO2 PK WND 19028/1439 SLP127 T02830200 53014
94908KDBQ DBQ20120620085510006/20/12 08:55:31  5-MIN KDBQ 201455Z 21019G27KT 10SM CLR 28/19 A2993 1070 58 2900 210/19G27 RMK AO2
94908KDBQ DBQ20120620090011806/20/12 09:00:31  5-MIN KDBQ 201500Z 20021G26KT 10SM CLR 28/19 A2993 1070 58 2900 200/21G26 RMK AO2 PK WND 20026/1459
94908KDBQ DBQ20120620090511806/20/12 09:05:31  5-MIN KDBQ 201505Z 22021G26KT 10SM CLR 28/19 A2993 1070 58 2900 210/21G26 RMK AO2 PK WND 22026/1505
94908KDBQ DBQ20120620091011806/20/12 09:10:31  5-MIN KDBQ 201510Z 20018G26KT 10SM CLR 29/19 A2993 1070 56 2900 200/18G26 RMK AO2 PK WND 22026/1505
94908KDBQ DBQ20120620091511806/20/12 09:15:31  5-MIN KDBQ 201515Z 22020G28KT 10SM CLR 29/19 A2993 1070 56 2900 220/20G28 RMK AO2 PK WND 22028/1514
94908KDBQ DBQ20120620092011806/20/12 09:20:31  5-MIN KDBQ 201520Z 22018G29KT 10SM CLR 29/19 A2993 1070 56 2900 220/18G29 RMK AO2 PK WND 22029/1520
94908KDBQ DBQ20120620092511806/20/12 09:25:31  5-MIN KDBQ 201525Z 22020G29KT 10SM CLR 29/19 A2993 1070 56 2900 220/20G29 RMK AO2 PK WND 22029/1520
94908KDBQ DBQ20120620093011806/20/12 09:30:31  5-MIN KDBQ 201530Z 21016G25KT 10SM CLR 29/19 A2993 1070 56 2900 210/16G25 RMK AO2 PK WND 22029/1520
94908KDBQ DBQ20120620093511806/20/12 09:35:31  5-MIN KDBQ 201535Z 20020G27KT 10SM CLR 29/19 A2993 1070 54 2900 200/20G27 RMK AO2 PK WND 22029/1520
94908KDBQ DBQ20120620094011806/20/12 09:40:31  5-MIN KDBQ 201540Z 21020G27KT 10SM CLR 29/19 A2993 1070 52 3000 210/20G27 RMK AO2 PK WND 22029/1520
94908KDBQ DBQ20120620094511806/20/12 09:45:31  5-MIN KDBQ 201545Z 22022G27KT 10SM CLR 29/19 A2993 1070 52 3000 220/22G27 RMK AO2 PK WND 22029/1520
94908KDBQ DBQ20120620095013506/20/12 09:50:31  5-MIN KDBQ 201550Z 21014G26KT 10SM CLR 29/19 A2993 1070 54 2900 210/14G26 RMK AO2 PK WND 22029/1520 SLP125 T02890189
94908KDBQ DBQ20120620095510006/20/12 09:55:31  5-MIN KDBQ 201555Z 21018G23KT 10SM CLR 29/19 A2993 1070 54 3000 210/18G23 RMK AO2
94908KDBQ DBQ20120620100010006/20/12 10:00:31  5-MIN KDBQ 201600Z 20019G24KT 10SM CLR 29/19 A2993 1070 54 3000 200/19G24 RMK AO2
94908KDBQ DBQ20120620100510006/20/12 10:05:31  5-MIN KDBQ 201605Z 19019G24KT 10SM CLR 29/19 A2993 1070 54 3000 190/19G24 RMK AO2
94908KDBQ DBQ20120620101011806/20/12 10:10:31  5-MIN KDBQ 201610Z 20023G27KT 10SM CLR 29/19 A2992 1080 54 3000 200/23G27 RMK AO2 PK WND 20027/1609
94908KDBQ DBQ20120620101511806/20/12 10:15:31  5-MIN KDBQ 201615Z 20019G27KT 10SM CLR 29/19 A2992 1080 54 3000 200/19G27 RMK AO2 PK WND 20027/1612
94908KDBQ DBQ20120620102011806/20/12 10:20:31  5-MIN KDBQ 201620Z 22020G27KT 10SM CLR 29/19 A2992 1080 54 3000 220/20G27 RMK AO2 PK WND 20027/1612
94908KDBQ DBQ20120620102511806/20/12 10:25:31  5-MIN KDBQ 201625Z 20020G26KT 10SM CLR 29/19 A2992 1080 54 3000 200/20G26 RMK AO2 PK WND 20027/1612
94908KDBQ DBQ20120620103011806/20/12 10:30:31  5-MIN KDBQ 201630Z 22018G28KT 10SM CLR 30/19 A2992 1080 52 3100 220/18G28 RMK AO2 PK WND 20028/1626
94908KDBQ DBQ20120620103511806/20/12 10:35:31  5-MIN KDBQ 201635Z 21019G28KT 10SM CLR 29/19 A2992 1080 54 3000 210/19G28 RMK AO2 PK WND 20028/1626
94908KDBQ DBQ20120620104011806/20/12 10:40:31  5-MIN KDBQ 201640Z 21020G27KT 10SM CLR 30/19 A2991 1080 52 3100 210/20G27 RMK AO2 PK WND 20028/1626
94908KDBQ DBQ20120620104511806/20/12 10:45:31  5-MIN KDBQ 201645Z 22016G27KT 10SM CLR 30/19 A2992 1080 52 3100 220/16G27 RMK AO2 PK WND 20028/1626
94908KDBQ DBQ20120620105013806/20/12 10:50:31  5-MIN KDBQ 201650Z 20018G23KT 10SM FEW039 30/20 A2992 1080 54 3100 200/18G23 RMK AO2 PK WND 20028/1626 SLP121 T03000200
94908KDBQ DBQ20120620105510306/20/12 10:55:31  5-MIN KDBQ 201655Z 22018G24KT 10SM FEW039 30/20 A2992 1080 54 3100 220/18G24 RMK AO2
94908KDBQ DBQ20120620110010306/20/12 11:00:31  5-MIN KDBQ 201700Z 22017G24KT 10SM SCT039 30/20 A2992 1080 54 3100 220/17G24 RMK AO2
94908KDBQ DBQ20120620110509706/20/12 11:05:31  5-MIN KDBQ 201705Z 22018KT 10SM FEW039 31/20 A2992 1080 52 3100 220/18 RMK AO2
94908KDBQ DBQ20120620111010306/20/12 11:10:31  5-MIN KDBQ 201710Z 21018G23KT 10SM FEW039 31/20 A2992 1080 52 3100 200/18G23 RMK AO2
94908KDBQ DBQ20120620111509706/20/12 11:15:31  5-MIN KDBQ 201715Z 21017KT 10SM FEW039 30/20 A2992 1080 54 3100 210/17 RMK AO2
94908KDBQ DBQ20120620112010306/20/12 11:20:31  5-MIN KDBQ 201720Z 21016G22KT 10SM FEW039 31/20 A2992 1080 52 3100 210/16G22 RMK AO2
94908KDBQ DBQ20120620112510306/20/12 11:25:31  5-MIN KDBQ 201725Z 19017G23KT 10SM FEW041 31/20 A2991 1080 52 3100 190/17G23 RMK AO2
94908KDBQ DBQ20120620113011806/20/12 11:30:31  5-MIN KDBQ 201730Z 20017G26KT 10SM CLR 31/20 A2992 1080 52 3100 200/17G26 RMK AO2 PK WND 21026/1726
94908KDBQ DBQ20120620113511806/20/12 11:35:31  5-MIN KDBQ 201735Z 21018G26KT 10SM CLR 31/20 A2991 1090 51 3200 210/18G26 RMK AO2 PK WND 21026/1726
94908KDBQ DBQ20120620114011806/20/12 11:40:31  5-MIN KDBQ 201740Z 20013G26KT 10SM CLR 31/20 A2991 1080 51 3200 200/13G26 RMK AO2 PK WND 22026/1736
94908KDBQ DBQ20120620114511806/20/12 11:45:31  5-MIN KDBQ 201745Z 19019G26KT 10SM CLR 31/20 A2991 1090 51 3200 190/19G26 RMK AO2 PK WND 19026/1742
94908KDBQ DBQ20120620115015306/20/12 11:50:31  5-MIN KDBQ 201750Z 20020G26KT 10SM CLR 31/20 A2990 1090 51 3200 200/20G26 RMK AO2 PK WND 21026/1750 SLP116 T03110200 10311 20233 51002
94908KDBQ DBQ20120620115511206/20/12 11:55:31  5-MIN KDBQ 201755Z 20021KT 10SM CLR 31/20 A2990 1100 51 3200 200/21 RMK AO2 PK WND 21026/1754
94908KDBQ DBQ20120620120011806/20/12 12:00:31  5-MIN KDBQ 201800Z 21019G26KT 10SM CLR 31/19 A2990 1100 49 3200 210/19G26 RMK AO2 PK WND 21026/1754
94908KDBQ DBQ20120620120511806/20/12 12:05:31  5-MIN KDBQ 201805Z 19019G27KT 10SM CLR 31/20 A2990 1100 51 3200 190/19G27 RMK AO2 PK WND 21027/1801
94908KDBQ DBQ20120620121011806/20/12 12:10:31  5-MIN KDBQ 201810Z 20020G27KT 10SM CLR 31/20 A2989 1100 51 3200 190/20G27 RMK AO2 PK WND 21027/1801
94908KDBQ DBQ20120620121511806/20/12 12:15:31  5-MIN KDBQ 201815Z 20018G29KT 10SM CLR 31/20 A2990 1100 51 3200 200/18G29 RMK AO2 PK WND 21029/1814
94908KDBQ DBQ20120620122011806/20/12 12:20:31  5-MIN KDBQ 201820Z 19020G29KT 10SM CLR 32/20 A2989 1100 49 3300 190/20G29 RMK AO2 PK WND 21029/1814
94908KDBQ DBQ20120620122511806/20/12 12:25:31  5-MIN KDBQ 201825Z 20021G27KT 10SM CLR 31/19 A2989 1100 49 3200 200/21G27 RMK AO2 PK WND 21029/1814
94908KDBQ DBQ20120620123011806/20/12 12:30:31  5-MIN KDBQ 201830Z 20014G27KT 10SM CLR 32/19 A2990 1100 47 3300 200/14G27 RMK AO2 PK WND 21029/1814
94908KDBQ DBQ20120620123511806/20/12 12:35:31  5-MIN KDBQ 201835Z 20018G26KT 10SM CLR 31/20 A2990 1100 51 3200 200/18G26 RMK AO2 PK WND 21029/1814
94908KDBQ DBQ20120620124011806/20/12 12:40:31  5-MIN KDBQ 201840Z 20020G26KT 10SM CLR 31/20 A2989 1100 51 3200 190/20G26 RMK AO2 PK WND 21029/1814
94908KDBQ DBQ20120620124512106/20/12 12:45:31  5-MIN KDBQ 201845Z 22021G28KT 10SM FEW046 32/20 A2989 1100 49 3300 210/21G28 RMK AO2 PK WND 21029/1814
94908KDBQ DBQ20120620125013506/20/12 12:50:31  5-MIN KDBQ 201850Z 19019G28KT 10SM CLR 32/19 A2990 1100 47 3300 190/19G28 RMK AO2 PK WND 21029/1814 SLP114 T03170194
94908KDBQ DBQ20120620125510006/20/12 12:55:31  5-MIN KDBQ 201855Z 20019G27KT 10SM CLR 32/20 A2990 1100 48 3300 200/19G27 RMK AO2
94908KDBQ DBQ20120620130012106/20/12 13:00:31  5-MIN KDBQ 201900Z 21020G26KT 10SM FEW046 32/19 A2989 1100 47 3300 210/20G26 RMK AO2 PK WND 20026/1858
94908KDBQ DBQ20120620130512106/20/12 13:05:31  5-MIN KDBQ 201905Z 22016G27KT 10SM FEW046 32/20 A2989 1100 49 3300 210/16G27 RMK AO2 PK WND 21027/1901
94908KDBQ DBQ20120620131012106/20/12 13:10:31  5-MIN KDBQ 201910Z 20018G27KT 10SM FEW048 31/19 A2990 1100 49 3200 200/18G27 RMK AO2 PK WND 18027/1907
94908KDBQ DBQ20120620131512106/20/12 13:15:31  5-MIN KDBQ 201915Z 20018G27KT 10SM FEW048 32/20 A2990 1100 48 3300 200/18G27 RMK AO2 PK WND 18027/1907
94908KDBQ DBQ20120620132012106/20/12 13:20:31  5-MIN KDBQ 201920Z 19018G26KT 10SM FEW048 31/19 A2990 1100 49 3200 190/18G26 RMK AO2 PK WND 18027/1907
94908KDBQ DBQ20120620132512806/20/12 13:25:31  5-MIN KDBQ 201925Z 20020G26KT 10SM SCT048 SCT055 32/20 A2989 1100 49 3300 200/20G26 RMK AO2 PK WND 18027/1907
94908KDBQ DBQ20120620133012106/20/12 13:30:31  5-MIN KDBQ 201930Z 21022G26KT 10SM FEW048 32/20 A2989 1110 49 3300 210/22G26 RMK AO2 PK WND 18027/1907
94908KDBQ DBQ20120620133512106/20/12 13:35:31  5-MIN KDBQ 201935Z 20021G26KT 10SM FEW048 32/20 A2989 1110 49 3300 200/21G26 RMK AO2 PK WND 18027/1907
94908KDBQ DBQ20120620134012106/20/12 13:40:31  5-MIN KDBQ 201940Z 20022G27KT 10SM FEW050 32/20 A2988 1110 49 3300 200/22G27 RMK AO2 PK WND 19027/1938
94908KDBQ DBQ20120620134512106/20/12 13:45:31  5-MIN KDBQ 201945Z 20021G27KT 10SM FEW050 32/20 A2988 1110 49 3300 200/21G27 RMK AO2 PK WND 19027/1945
94908KDBQ DBQ20120620135014006/20/12 13:50:31  5-MIN KDBQ 201950Z AUTO 20019G27KT 10SM CLR 32/20 A2988 1120 49 3300 200/19G27 RMK AO2 PK WND 19027/1945 SLP108 T03170200
94908KDBQ DBQ20120620135511806/20/12 13:55:31  5-MIN KDBQ 201955Z 18020G26KT 10SM CLR 32/20 A2987 1120 49 3300 180/20G26 RMK AO2 PK WND 18026/1954
94908KDBQ DBQ20120620140011806/20/12 14:00:31  5-MIN KDBQ 202000Z 19022G26KT 10SM CLR 32/20 A2987 1130 49 3300 190/22G26 RMK AO2 PK WND 18026/2000
94908KDBQ DBQ20120620140511806/20/12 14:05:31  5-MIN KDBQ 202005Z 18020G31KT 10SM CLR 32/19 A2987 1130 47 3300 180/20G31 RMK AO2 PK WND 18031/2003
94908KDBQ DBQ20120620141011806/20/12 14:10:31  5-MIN KDBQ 202010Z 20021G31KT 10SM CLR 32/19 A2987 1130 47 3300 200/21G31 RMK AO2 PK WND 18031/2003
94908KDBQ DBQ20120620141511806/20/12 14:15:31  5-MIN KDBQ 202015Z 19021G28KT 10SM CLR 32/19 A2987 1130 47 3300 190/21G28 RMK AO2 PK WND 18031/2003
94908KDBQ DBQ20120620142011806/20/12 14:20:31  5-MIN KDBQ 202020Z 21023G29KT 10SM CLR 32/19 A2986 1130 47 3300 210/23G29 RMK AO2 PK WND 18031/2003
94908KDBQ DBQ20120620142511806/20/12 14:25:31  5-MIN KDBQ 202025Z 20020G29KT 10SM CLR 32/19 A2986 1130 47 3300 190/20G29 RMK AO2 PK WND 18031/2003
94908KDBQ DBQ20120620143011806/20/12 14:30:31  5-MIN KDBQ 202030Z 19018G27KT 10SM CLR 32/19 A2986 1140 47 3300 190/18G27 RMK AO2 PK WND 18031/2003
94908KDBQ DBQ20120620143511806/20/12 14:35:31  5-MIN KDBQ 202035Z 20020G26KT 10SM CLR 32/20 A2986 1130 49 3300 200/20G26 RMK AO2 PK WND 18031/2003
94908KDBQ DBQ20120620144011806/20/12 14:40:31  5-MIN KDBQ 202040Z 20023G29KT 10SM CLR 32/20 A2985 1140 48 3400 200/23G29 RMK AO2 PK WND 18031/2003
94908KDBQ DBQ20120620144511806/20/12 14:45:31  5-MIN KDBQ 202045Z 22021G29KT 10SM CLR 32/19 A2986 1140 46 3300 210/21G29 RMK AO2 PK WND 18031/2003
94908KDBQ DBQ20120620145014406/20/12 14:50:31  5-MIN KDBQ 202050Z 19018G28KT 10SM FEW049 32/19 A2986 1140 46 3400 190/18G28 RMK AO2 PK WND 18031/2003 SLP101 T03220194 58010
94908KDBQ DBQ20120620145512106/20/12 14:55:31  5-MIN KDBQ 202055Z 20021G28KT 10SM SCT049 32/20 A2986 1140 49 3300 190/21G28 RMK AO2 PK WND 20028/2054
94908KDBQ DBQ20120620150012106/20/12 15:00:31  5-MIN KDBQ 202100Z 19022G28KT 10SM SCT049 32/19 A2985 1140 47 3300 190/22G28 RMK AO2 PK WND 19028/2100
94908KDBQ DBQ20120620150512106/20/12 15:05:31  5-MIN KDBQ 202105Z 19021G28KT 10SM FEW049 31/19 A2985 1140 47 3300 190/21G28 RMK AO2 PK WND 20028/2104
94908KDBQ DBQ20120620151012106/20/12 15:10:31  5-MIN KDBQ 202110Z 19019G28KT 10SM FEW049 32/20 A2984 1150 48 3400 190/19G28 RMK AO2 PK WND 20028/2104
94908KDBQ DBQ20120620151512106/20/12 15:15:31  5-MIN KDBQ 202115Z 20023G32KT 10SM FEW049 32/19 A2984 1150 46 3400 200/23G32 RMK AO2 PK WND 19032/2113
94908KDBQ DBQ20120620152012106/20/12 15:20:31  5-MIN KDBQ 202120Z 20021G32KT 10SM FEW049 32/19 A2984 1150 47 3300 200/21G32 RMK AO2 PK WND 19032/2113
94908KDBQ DBQ20120620152512106/20/12 15:25:31  5-MIN KDBQ 202125Z 19023G29KT 10SM SCT047 32/20 A2984 1150 49 3300 190/23G29 RMK AO2 PK WND 19032/2113
94908KDBQ DBQ20120620153012106/20/12 15:30:31  5-MIN KDBQ 202130Z 19023G29KT 10SM SCT047 32/21 A2984 1150 51 3300 190/23G29 RMK AO2 PK WND 19032/2113
94908KDBQ DBQ20120620153512106/20/12 15:35:31  5-MIN KDBQ 202135Z 19021G30KT 10SM SCT047 31/20 A2984 1150 51 3300 190/21G30 RMK AO2 PK WND 19032/2113
94908KDBQ DBQ20120620154012106/20/12 15:40:31  5-MIN KDBQ 202140Z 20020G30KT 10SM SCT047 31/20 A2983 1160 51 3300 200/20G30 RMK AO2 PK WND 19032/2113
94908KDBQ DBQ20120620154512106/20/12 15:45:31  5-MIN KDBQ 202145Z 20024G30KT 10SM FEW045 31/20 A2983 1160 51 3300 200/24G30 RMK AO2 PK WND 19032/2113
94908KDBQ DBQ20120620155013806/20/12 15:50:31  5-MIN KDBQ 202150Z 20024G30KT 10SM SCT047 32/20 A2983 1160 49 3400 200/24G30 RMK AO2 PK WND 19032/2113 SLP092 T03170200
94908KDBQ DBQ20120620155512106/20/12 15:55:31  5-MIN KDBQ 202155Z 19025G33KT 10SM FEW045 31/19 A2983 1170 49 3300 190/25G33 RMK AO2 PK WND 19031/2155
94908KDBQ DBQ20120620160012106/20/12 16:00:31  5-MIN KDBQ 202200Z 19018G33KT 10SM FEW047 32/20 A2982 1170 49 3400 190/18G33 RMK AO2 PK WND 19031/2155
94908KDBQ DBQ20120620160512106/20/12 16:05:31  5-MIN KDBQ 202205Z 19025G33KT 10SM FEW047 31/20 A2982 1170 51 3300 190/25G33 RMK AO2 PK WND 20033/2203
94908KDBQ DBQ20120620161012106/20/12 16:10:31  5-MIN KDBQ 202210Z 20020G33KT 10SM FEW047 31/20 A2982 1170 52 3300 200/20G33 RMK AO2 PK WND 20033/2203
94908KDBQ DBQ20120620161512106/20/12 16:15:31  5-MIN KDBQ 202215Z 19020G32KT 10SM FEW047 31/20 A2982 1180 51 3300 190/20G32 RMK AO2 PK WND 20033/2203
94908KDBQ DBQ20120620162012106/20/12 16:20:31  5-MIN KDBQ 202220Z 20025G32KT 10SM FEW047 31/19 A2981 1180 49 3300 190/25G32 RMK AO2 PK WND 20033/2203
94908KDBQ DBQ20120620162512106/20/12 16:25:31  5-MIN KDBQ 202225Z 20020G34KT 10SM FEW047 31/19 A2981 1180 51 3300 200/20G34 RMK AO2 PK WND 19034/2221
94908KDBQ DBQ20120620163012106/20/12 16:30:31  5-MIN KDBQ 202230Z 19024G34KT 10SM FEW047 31/19 A2980 1190 49 3300 190/24G34 RMK AO2 PK WND 19034/2221
94908KDBQ DBQ20120620163511806/20/12 16:35:31  5-MIN KDBQ 202235Z 20027G34KT 10SM CLR 31/19 A2980 1190 51 3300 200/27G34 RMK AO2 PK WND 20034/2234
94908KDBQ DBQ20120620164012106/20/12 16:40:31  5-MIN KDBQ 202240Z 20024G34KT 10SM FEW048 31/19 A2980 1190 49 3300 200/24G34 RMK AO2 PK WND 20034/2234
94908KDBQ DBQ20120620164512106/20/12 16:45:31  5-MIN KDBQ 202245Z 20018G30KT 10SM FEW048 31/20 A2981 1180 51 3300 200/18G30 RMK AO2 PK WND 20034/2234
94908KDBQ DBQ20120620165013806/20/12 16:50:31  5-MIN KDBQ 202250Z 20022G29KT 10SM FEW046 31/20 A2980 1190 51 3300 200/22G29 RMK AO2 PK WND 20034/2234 SLP083 T03110200
94908KDBQ DBQ20120620165512106/20/12 16:55:31  5-MIN KDBQ 202255Z 20022G32KT 10SM FEW046 31/20 A2980 1190 51 3300 200/22G32 RMK AO2 PK WND 20029/2255
94908KDBQ DBQ20120620170012106/20/12 17:00:31  5-MIN KDBQ 202300Z 19023G32KT 10SM SCT046 31/19 A2980 1190 51 3300 190/23G32 RMK AO2 PK WND 18031/2259
94908KDBQ DBQ20120620170512106/20/12 17:05:31  5-MIN KDBQ 202305Z 19024G31KT 10SM SCT048 30/20 A2980 1190 54 3200 190/24G31 RMK AO2 PK WND 18031/2259
94908KDBQ DBQ20120620171012106/20/12 17:10:31  5-MIN KDBQ 202310Z 19022G31KT 10SM SCT046 30/20 A2979 1200 54 3200 190/22G31 RMK AO2 PK WND 18031/2306
94908KDBQ DBQ20120620171512106/20/12 17:15:31  5-MIN KDBQ 202315Z 19022G31KT 10SM FEW046 30/20 A2980 1190 54 3200 190/22G31 RMK AO2 PK WND 18031/2306
94908KDBQ DBQ20120620172012106/20/12 17:20:31  5-MIN KDBQ 202320Z 19023G31KT 10SM SCT046 30/20 A2980 1190 54 3200 190/23G31 RMK AO2 PK WND 20031/2319
94908KDBQ DBQ20120620172512106/20/12 17:25:31  5-MIN KDBQ 202325Z 19023G32KT 10SM SCT046 30/20 A2980 1190 54 3200 180/23G32 RMK AO2 PK WND 19032/2324
94908KDBQ DBQ20120620173012106/20/12 17:30:31  5-MIN KDBQ 202330Z 19024G34KT 10SM SCT048 30/20 A2980 1190 54 3200 190/24G34 RMK AO2 PK WND 19034/2329
94908KDBQ DBQ20120620173512106/20/12 17:35:31  5-MIN KDBQ 202335Z 20021G34KT 10SM FEW048 30/20 A2980 1190 54 3200 200/21G34 RMK AO2 PK WND 19034/2329
94908KDBQ DBQ20120620174012106/20/12 17:40:31  5-MIN KDBQ 202340Z 20023G31KT 10SM FEW048 29/19 A2981 1180 54 3100 200/23G31 RMK AO2 PK WND 19034/2329
94908KDBQ DBQ20120620174512106/20/12 17:45:31  5-MIN KDBQ 202345Z 20019G29KT 10SM FEW048 29/19 A2980 1190 54 3100 200/19G29 RMK AO2 PK WND 19034/2329
94908KDBQ DBQ20120620175015606/20/12 17:50:31  5-MIN KDBQ 202350Z 20021G27KT 10SM FEW048 29/19 A2981 1180 54 3100 200/21G27 RMK AO2 PK WND 19034/2329 SLP085 T02940194 10322 20294 58014
94908KDBQ DBQ20120620175510306/20/12 17:55:31  5-MIN KDBQ 202355Z 19020G27KT 10SM FEW050 29/19 A2981 1180 54 3100 190/20G27 RMK AO2
94908KDBQ DBQ20120620180011806/20/12 18:00:31  5-MIN KDBQ 210000Z 20020G26KT 10SM CLR 29/20 A2981 1180 56 3100 200/20G26 RMK AO2 PK WND 20026/0000
94908KDBQ DBQ20120620180512106/20/12 18:05:31  5-MIN KDBQ 210005Z 20017G26KT 10SM FEW050 29/19 A2981 1180 54 3100 190/17G26 RMK AO2 PK WND 20026/0000
94908KDBQ DBQ20120620181012106/20/12 18:10:31  5-MIN KDBQ 210010Z 20021G24KT 10SM SCT050 29/20 A2981 1180 56 3100 200/21G24 RMK AO2 PK WND 20026/0000
94908KDBQ DBQ20120620181512106/20/12 18:15:31  5-MIN KDBQ 210015Z 20017G26KT 10SM SCT050 29/20 A2982 1170 56 3100 200/17G26 RMK AO2 PK WND 20026/0011
94908KDBQ DBQ20120620182012106/20/12 18:20:31  5-MIN KDBQ 210020Z 19014G26KT 10SM SCT050 29/20 A2982 1180 58 3100 190/14G26 RMK AO2 PK WND 20026/0011
94908KDBQ DBQ20120620182512106/20/12 18:25:31  5-MIN KDBQ 210025Z 20015G22KT 10SM SCT050 29/20 A2982 1170 58 3100 200/15G22 RMK AO2 PK WND 20026/0011
94908KDBQ DBQ20120620183012106/20/12 18:30:31  5-MIN KDBQ 210030Z 20015G21KT 10SM SCT050 29/20 A2982 1170 58 3100 200/15G21 RMK AO2 PK WND 20026/0011
94908KDBQ DBQ20120620183512106/20/12 18:35:31  5-MIN KDBQ 210035Z 20015G21KT 10SM BKN050 29/20 A2983 1170 56 3100 200/15G21 RMK AO2 PK WND 20026/0011
94908KDBQ DBQ20120620184011506/20/12 18:40:31  5-MIN KDBQ 210040Z 20015KT 10SM BKN050 29/20 A2982 1170 58 3100 200/15 RMK AO2 PK WND 20026/0011
94908KDBQ DBQ20120620184512106/20/12 18:45:31  5-MIN KDBQ 210045Z 20014G23KT 10SM SCT050 29/19 A2982 1170 56 3100 200/14G23 RMK AO2 PK WND 20026/0011
94908KDBQ DBQ20120620185013806/20/12 18:50:31  5-MIN KDBQ 210050Z 20017G23KT 10SM SCT050 29/19 A2982 1170 56 3100 200/17G23 RMK AO2 PK WND 20026/0011 SLP090 T02890194
94908KDBQ DBQ20120620185510806/20/12 18:55:31  5-MIN KDBQ 210055Z AUTO 20019G22KT 10SM SCT050 29/19 A2983 1160 56 3100 200/19G22 RMK AO2
94908KDBQ DBQ20120620190010806/20/12 19:00:31  5-MIN KDBQ 210100Z AUTO 21015G22KT 10SM SCT050 29/19 A2983 1160 56 3100 210/15G22 RMK AO2
94908KDBQ DBQ20120620190510206/20/12 19:05:31  5-MIN KDBQ 210105Z AUTO 20015KT 10SM FEW050 29/19 A2983 1160 56 3100 200/15 RMK AO2
94908KDBQ DBQ20120620191010806/20/12 19:10:31  5-MIN KDBQ 210110Z AUTO 20013G21KT 10SM FEW050 28/19 A2983 1160 58 3000 200/13G21 RMK AO2
94908KDBQ DBQ20120620191511506/20/12 19:15:31  5-MIN KDBQ 210115Z AUTO 20014G21KT 10SM FEW050 SCT060 28/19 A2983 1160 58 3000 200/14G21 RMK AO2
94908KDBQ DBQ20120620192010806/20/12 19:20:31  5-MIN KDBQ 210120Z AUTO 20015G21KT 10SM FEW050 28/19 A2983 1160 58 3000 200/15G21 RMK AO2
94908KDBQ DBQ20120620192511506/20/12 19:25:31  5-MIN KDBQ 210125Z AUTO 20014G21KT 10SM SCT055 SCT075 28/19 A2984 1160 58 3000 200/14G21 RMK AO2
94908KDBQ DBQ20120620193010906/20/12 19:30:31  5-MIN KDBQ 210130Z AUTO 20014KT 10SM SCT060 BKN075 28/19 A2983 1160 58 3000 200/14 RMK AO2
94908KDBQ DBQ20120620193510906/20/12 19:35:31  5-MIN KDBQ 210135Z AUTO 20014KT 10SM SCT060 BKN080 28/19 A2983 1160 58 3000 200/14 RMK AO2
94908KDBQ DBQ20120620194010906/20/12 19:40:31  5-MIN KDBQ 210140Z AUTO 20015KT 10SM SCT060 BKN080 28/19 A2983 1160 58 3000 200/15 RMK AO2
94908KDBQ DBQ20120620194510906/20/12 19:45:31  5-MIN KDBQ 210145Z AUTO 20013KT 10SM FEW060 SCT075 28/19 A2983 1160 58 3000 200/13 RMK AO2
94908KDBQ DBQ20120620195012606/20/12 19:50:31  5-MIN KDBQ 210150Z AUTO 20014KT 10SM FEW060 SCT075 28/19 A2984 1160 60 2900 200/14 RMK AO2 SLP094 T02780194
94908KDBQ DBQ20120620195510206/20/12 19:55:31  5-MIN KDBQ 210155Z AUTO 20014KT 10SM FEW060 28/19 A2984 1150 60 2900 200/14 RMK AO2
94908KDBQ DBQ20120620200010206/20/12 20:00:31  5-MIN KDBQ 210200Z AUTO 20011KT 10SM FEW080 28/19 A2984 1150 60 2900 200/11 RMK AO2
94908KDBQ DBQ20120620200510906/20/12 20:05:31  5-MIN KDBQ 210205Z AUTO 20013KT 10SM FEW080 SCT100 28/19 A2984 1150 60 2900 200/13 RMK AO2
94908KDBQ DBQ20120620201010906/20/12 20:10:31  5-MIN KDBQ 210210Z AUTO 20011KT 10SM SCT075 SCT100 28/19 A2984 1150 60 2900 200/11 RMK AO2
94908KDBQ DBQ20120620201511606/20/12 20:15:31  5-MIN KDBQ 210215Z AUTO 20011KT 10SM FEW050 SCT080 BKN100 28/19 A2985 1150 60 2900 200/11 RMK AO2
94908KDBQ DBQ20120620202011606/20/12 20:20:31  5-MIN KDBQ 210220Z AUTO 20011KT 10SM FEW055 SCT065 BKN100 28/19 A2984 1150 60 2900 200/11 RMK AO2
94908KDBQ DBQ20120620202511606/20/12 20:25:31  5-MIN KDBQ 210225Z AUTO 20011KT 10SM FEW050 SCT070 BKN080 27/19 A2984 1150 62 2900 200/11 RMK AO2
94908KDBQ DBQ20120620203011606/20/12 20:30:31  5-MIN KDBQ 210230Z AUTO 20012KT 10SM FEW050 SCT065 BKN100 27/19 A2985 1150 62 2900 200/12 RMK AO2
94908KDBQ DBQ20120620203511606/20/12 20:35:31  5-MIN KDBQ 210235Z AUTO 21013KT 10SM FEW050 SCT075 BKN100 27/19 A2985 1140 62 2800 210/13 RMK AO2
94908KDBQ DBQ20120620204014106/20/12 20:40:31  5-MIN KDBQ 210240Z AUTO 22017KT 4SM R36/6000VP6000FT HZ FEW023 SCT050 BKN110 26/21 A2985 1140 71 2700 220/17 RMK AO2 P0002
94908KDBQ DBQ20120620204514106/20/12 20:45:31  5-MIN KDBQ 210245Z AUTO 22013KT 4SM R36/6000VP6000FT HZ FEW023 SCT065 BKN110 25/21 A2985 1140 76 2600 220/13 RMK AO2 P0004
94908KDBQ DBQ20120620205014406/20/12 20:50:31  5-MIN KDBQ 210250Z AUTO 22010KT 10SM FEW023 BKN110 25/21 A2985 1140 79 2600 210/10 RMK AO2 SLP100 P0004 60004 T02500211 55017
94908KDBQ DBQ20120620205510906/20/12 20:55:31  5-MIN KDBQ 210255Z AUTO 21010KT 10SM FEW023 SCT110 25/21 A2985 1140 79 2600 210/10 RMK AO2
94908KDBQ DBQ20120620210010906/20/12 21:00:31  5-MIN KDBQ 210300Z AUTO 21010KT 10SM FEW023 SCT110 25/21 A2986 1140 79 2600 210/10 RMK AO2
94908KDBQ DBQ20120620210511306/20/12 21:05:31  5-MIN KDBQ 210305Z AUTO 21009KT 10SM FEW023 25/21 A2986 1140 79 2600 200/09 RMK AO2 LTG DSNT W
94908KDBQ DBQ20120620211012006/20/12 21:10:31  5-MIN KDBQ 210310Z AUTO 20010KT 10SM FEW060 25/21 A2985 1140 79 2600 200/10 RMK AO2 LTG DSNT W AND NW
94908KDBQ DBQ20120620211512006/20/12 21:15:31  5-MIN KDBQ 210315Z AUTO 20010KT 10SM FEW060 26/21 A2985 1140 73 2700 200/10 RMK AO2 LTG DSNT W AND NW
94908KDBQ DBQ20120620212011106/20/12 21:20:31  5-MIN KDBQ 210320Z AUTO 21012KT 10SM CLR 26/21 A2985 1150 73 2700 210/12 RMK AO2 LTG DSNT NW
94908KDBQ DBQ20120620212511706/20/12 21:25:31  5-MIN KDBQ 210325Z AUTO 20014G20KT 10SM CLR 26/21 A2984 1150 73 2700 200/14G20 RMK AO2 LTG DSNT NW
94908KDBQ DBQ20120620213011106/20/12 21:30:31  5-MIN KDBQ 210330Z AUTO 21013KT 10SM CLR 26/20 A2984 1150 68 2700 210/13 RMK AO2 LTG DSNT NW
94908KDBQ DBQ20120620213509906/20/12 21:35:31  5-MIN KDBQ 210335Z AUTO 21014KT 10SM CLR 26/20 A2984 1150 71 2700 210/14 RMK AO2
94908KDBQ DBQ20120620214010506/20/12 21:40:31  5-MIN KDBQ 210340Z AUTO 20014G20KT 10SM CLR 26/20 A2984 1150 68 2700 200/14G20 RMK AO2
94908KDBQ DBQ20120620214510506/20/12 21:45:31  5-MIN KDBQ 210345Z AUTO 20014G20KT 10SM CLR 26/20 A2984 1160 68 2700 200/14G20 RMK AO2
94908KDBQ DBQ20120620215011606/20/12 21:50:31  5-MIN KDBQ 210350Z AUTO 20012KT 10SM CLR 26/20 A2984 1160 68 2700 200/12 RMK AO2 SLP093 T02610200
94908KDBQ DBQ20120620215509906/20/12 21:55:31  5-MIN KDBQ 210355Z AUTO 21012KT 10SM CLR 26/20 A2984 1150 68 2700 210/12 RMK AO2
94908KDBQ DBQ20120620220010206/20/12 22:00:31  5-MIN KDBQ 210400Z AUTO 21011KT 10SM FEW060 26/20 A2984 1150 68 2700 210/11 RMK AO2
94908KDBQ DBQ20120620220511606/20/12 22:05:31  5-MIN KDBQ 210405Z AUTO 21012KT 10SM FEW060 SCT080 SCT100 26/20 A2984 1150 68 2700 210/12 RMK AO2
94908KDBQ DBQ20120620221011606/20/12 22:10:31  5-MIN KDBQ 210410Z AUTO 21012KT 10SM FEW055 SCT080 BKN100 26/20 A2985 1150 68 2700 210/12 RMK AO2
94908KDBQ DBQ20120620221511606/20/12 22:15:31  5-MIN KDBQ 210415Z AUTO 29011KT 10SM SCT055 BKN080 BKN100 26/20 A2986 1130 68 2700 290/11 RMK AO2
94908KDBQ DBQ20120620222012906/20/12 22:20:31  5-MIN KDBQ 210420Z AUTO 28014G23KT 10SM FEW035 BKN055 BKN080 25/20 A2987 1120 73 2600 280/14G23 RMK AO2 PRESRR
94908KDBQ DBQ20120620222515006/20/12 22:25:31  5-MIN KDBQ 210425Z AUTO 31022G40KT 10SM SQ FEW029 BKN055 OVC100 24/19 A2990 1100 71 2500 300/22G40 RMK AO2 PK WND 27040/0421 PRESRR
94908KDBQ DBQ20120620223014306/20/12 22:30:31  5-MIN KDBQ 210430Z AUTO 29024G40KT 10SM SQ SCT032 BKN044 OVC080 23/18 A2990 1100 73 2400 290/24G40 RMK AO2 PK WND 27040/0421
94908KDBQ DBQ20120620223514906/20/12 22:35:31  5-MIN KDBQ 210435Z AUTO 30016G30KT 6SM HZ SCT032 BKN044 OVC055 22/18 A2991 1080 75 2200 300/16G30 RMK AO2 PK WND 27040/0421 PRESRR
94908KDBQ DBQ20120620224015206/20/12 22:40:31  5-MIN KDBQ 210440Z AUTO 30013G21KT 2 1/2SM BR FEW025 BKN044 OVC055 21/18 A2991 1090 87 2000 300/13G21 RMK AO2 PK WND 27040/0421 P0008
94908KDBQ DBQ20120620224514806/20/12 22:45:31  5-MIN KDBQ 210445Z AUTO 31011G21KT 3SM BR FEW032 BKN040 OVC070 21/18 A2991 1090 87 2000 310/11G21 RMK AO2 PK WND 27040/0421 P0010
94908KDBQ DBQ20120620225015606/20/12 22:50:31  5-MIN KDBQ 210450Z AUTO 30011KT 8SM FEW032 BKN044 OVC095 21/18 A2990 1090 87 2000 300/11 RMK AO2 PK WND 27040/0421 SLP118 P0010 T02060183
94908KDBQ DBQ20120620225511506/20/12 22:55:31  5-MIN KDBQ 210455Z AUTO 30014KT 9SM SCT042 BKN070 OVC110 20/18 A2990 1090 90 2000 300/14 RMK AO2
94908KDBQ DBQ20120620230011606/20/12 23:00:31  5-MIN KDBQ 210500Z AUTO 30011KT 10SM SCT042 BKN070 OVC095 20/18 A2990 1090 90 2000 300/11 RMK AO2
94908KDBQ DBQ20120620230511606/20/12 23:05:31  5-MIN KDBQ 210505Z AUTO 30010KT 10SM FEW042 SCT060 OVC095 20/18 A2991 1090 90 2000 300/10 RMK AO2
94908KDBQ DBQ20120620231011506/20/12 23:10:31  5-MIN KDBQ 210510Z AUTO 31010KT 9SM FEW055 BKN090 OVC110 20/18 A2991 1090 90 2000 300/10 RMK AO2
94908KDBQ DBQ20120620231512006/20/12 23:15:31  5-MIN KDBQ 210515Z AUTO 33009KT 8SM FEW055 OVC095 20/18 A2990 1090 90 2000 320/09 RMK AO2 LTG DSNT SW
94908KDBQ DBQ20120620232013306/20/12 23:20:31  5-MIN KDBQ 210520Z AUTO 32008KT 9SM SCT055 SCT075 OVC100 20/18 A2991 1090 90 2000 310/08 RMK AO2 LTG DSNT SW P0001
94908KDBQ DBQ20120620232513406/20/12 23:25:31  5-MIN KDBQ 210525Z AUTO 32007KT 10SM SCT055 BKN075 OVC095 19/18 A2991 1090 93 1900 320/07 RMK AO2 LTG DSNT SW P0001
94908KDBQ DBQ20120620233012206/20/12 23:30:31  5-MIN KDBQ 210530Z AUTO 31007KT 10SM BKN060 BKN075 OVC110 19/18 A2991 1090 93 1900 310/07 RMK AO2 P0001
94908KDBQ DBQ20120620233512206/20/12 23:35:31  5-MIN KDBQ 210535Z AUTO 33007KT 10SM FEW050 BKN080 OVC100 19/18 A2991 1090 93 1900 330/07 RMK AO2 P0001
94908KDBQ DBQ20120620234012206/20/12 23:40:31  5-MIN KDBQ 210540Z AUTO 33009KT 10SM FEW050 SCT070 OVC100 19/18 A2990 1090 93 1900 330/09 RMK AO2 P0001
94908KDBQ DBQ20120620234512206/20/12 23:45:31  5-MIN KDBQ 210545Z AUTO 33010KT 10SM FEW009 BKN075 OVC100 19/18 A2990 1090 93 1900 330/10 RMK AO2 P0001
94908KDBQ DBQ20120620235017306/20/12 23:50:31  5-MIN KDBQ 210550Z AUTO 35008KT 10SM FEW009 SCT060 BKN085 19/18 A2990 1100 93 1900 350/08 RMK AO2 SLP117 P0001 60015 T01940183 10294 20194 403220194 53015
94908KDBQ DBQ20120620235511606/20/12 23:55:31  5-MIN KDBQ 210555Z AUTO 33004KT 10SM FEW009 BKN090 BKN110 19/18 A2990 1100 93 1900 330/04 RMK AO2
94908KDBQ DBQ20120621000011606/21/12 00:00:38  5-MIN KDBQ 210600Z AUTO 34005KT 10SM FEW009 BKN090 BKN110 19/18 A2991 1090 93 1900 330/05 RMK AO2
94908KDBQ DBQ20120621000510906/21/12 00:05:31  5-MIN KDBQ 210605Z AUTO 35006KT 10SM FEW009 BKN090 19/18 A2990 1090 93 1900 350/06 RMK AO2
94908KDBQ DBQ20120621001010906/21/12 00:10:31  5-MIN KDBQ 210610Z AUTO 32005KT 10SM FEW009 BKN090 19/18 A2991 1090 93 1900 320/05 RMK AO2
94908KDBQ DBQ20120621001510206/21/12 00:15:34  5-MIN KDBQ 210615Z AUTO 29004KT 10SM BKN090 19/18 A2991 1090 93 1900 290/04 RMK AO2
94908KDBQ DBQ20120621002010906/21/12 00:20:31  5-MIN KDBQ 210620Z AUTO 30004KT 10SM FEW010 OVC090 19/18 A2991 1090 93 1900 300/04 RMK AO2
94908KDBQ DBQ20120621002512406/21/12 00:25:31  5-MIN KDBQ 210625Z AUTO 00000KT 10SM FEW010 OVC085 19/18 A2991 1090 93 1900 000/00 RMK AO2 RAB23E25 P0000
94908KDBQ DBQ20120621003011706/21/12 00:30:31  5-MIN KDBQ 210630Z AUTO 31003KT 10SM OVC090 19/18 A2990 1100 93 1900 310/03 RMK AO2 RAB23E25 P0000
94908KDBQ DBQ20120621003512406/21/12 00:35:31  5-MIN KDBQ 210635Z AUTO 00000KT 10SM FEW055 OVC090 19/18 A2989 1100 93 1900 000/00 RMK AO2 RAB23E25 P0000
94908KDBQ DBQ20120621004013206/21/12 00:40:31  5-MIN KDBQ 210640Z AUTO 00000KT 10SM -RA FEW031 BKN085 OVC100 19/18 A2990 1100 93 1900 000/00 RMK AO2 RAB23 P0000
94908KDBQ DBQ20120621004513206/21/12 00:45:31  5-MIN KDBQ 210645Z AUTO 26003KT 10SM -RA FEW009 BKN085 OVC100 19/18 A2990 1090 97 1800 260/03 RMK AO2 RAB23 P0000
94908KDBQ DBQ20120621005014806/21/12 00:50:31  5-MIN KDBQ 210650Z AUTO 25004KT 10SM FEW009 BKN090 OVC110 19/18 A2991 1090 97 1800 250/04 RMK AO2 RAB23E48 SLP119 P0000 T01890183
94908KDBQ DBQ20120621005511606/21/12 00:55:31  5-MIN KDBQ 210655Z AUTO 28006KT 10SM SCT009 BKN090 OVC110 19/18 A2991 1090 97 1800 280/06 RMK AO2
94908KDBQ DBQ20120621010011606/21/12 01:00:31  5-MIN KDBQ 210700Z AUTO 27006KT 10SM BKN009 BKN095 OVC110 19/18 A2991 1090 97 1800 270/06 RMK AO2
94908KDBQ DBQ20120621010510906/21/12 01:05:31  5-MIN KDBQ 210705Z AUTO 25007KT 10SM BKN009 OVC110 19/18 A2991 1090 97 1800 250/07 RMK AO2
94908KDBQ DBQ20120621011010906/21/12 01:10:31  5-MIN KDBQ 210710Z AUTO 24006KT 10SM BKN009 OVC110 19/18 A2991 1090 97 1800 240/06 RMK AO2
94908KDBQ DBQ20120621011512406/21/12 01:15:31  5-MIN KDBQ 210715Z AUTO 25005KT 9SM -RA BKN009 OVC110 19/18 A2990 1090 97 1800 250/05 RMK AO2 RAB13 P0000
94908KDBQ DBQ20120621012011706/21/12 01:20:31  5-MIN KDBQ 210720Z AUTO 26006KT 8SM -RA OVC009 19/18 A2990 1100 97 1800 260/06 RMK AO2 RAB13 P0001
94908KDBQ DBQ20120621012511706/21/12 01:25:31  5-MIN KDBQ 210725Z AUTO 26006KT 9SM -RA BKN009 19/18 A2990 1090 97 1800 260/06 RMK AO2 RAB13 P0001
94908KDBQ DBQ20120621013011706/21/12 01:30:31  5-MIN KDBQ 210730Z AUTO 27007KT 10SM BKN009 19/18 A2991 1090 97 1800 270/07 RMK AO2 RAB13E28 P0001
94908KDBQ DBQ20120621013511706/21/12 01:35:31  5-MIN KDBQ 210735Z AUTO 27008KT 10SM OVC011 19/18 A2991 1090 97 1800 270/08 RMK AO2 RAB13E28 P0001
94908KDBQ DBQ20120621014011806/21/12 01:40:31  5-MIN KDBQ 210740Z AUTO 28007KT 10SM -RA BKN011 19/18 A2991 1090 97 1800 270/07 RMK AO2 RAB13 P0001
94908KDBQ DBQ20120621014512406/21/12 01:45:31  5-MIN KDBQ 210745Z AUTO 28007KT 8SM -RA FEW007 OVC011 19/18 A2991 1090 97 1800 280/07 RMK AO2 RAB13 P0001
94908KDBQ DBQ20120621015014806/21/12 01:50:31  5-MIN KDBQ 210750Z AUTO 29008KT 6SM RA BR OVC009 19/18 A2991 1080 97 1800 290/08 RMK AO2 RAB13 CIG 005V012 SLP122 P0002 T01890183
94908KDBQ DBQ20120621015513006/21/12 01:55:31  5-MIN KDBQ 210755Z AUTO 29008KT 7SM -RA BKN009 OVC012 19/18 A2991 1090 97 1800 290/08 RMK AO2 CIG 005V010 P0000
94908KDBQ DBQ20120621020013006/21/12 02:00:31  5-MIN KDBQ 210800Z AUTO 30008KT 7SM -RA BKN009 OVC012 19/18 A2991 1090 93 1800 300/08 RMK AO2 CIG 005V010 P0001
94908KDBQ DBQ20120621020511706/21/12 02:05:31  5-MIN KDBQ 210805Z AUTO 32007KT 7SM RA BKN009 BKN110 19/18 A2990 1100 93 1800 320/07 RMK AO2 P0002
94908KDBQ DBQ20120621021012506/21/12 02:10:31  5-MIN KDBQ 210810Z AUTO 32008KT 8SM -RA SCT007 BKN013 BKN110 19/18 A2990 1100 93 1800 320/08 RMK AO2 P0002
94908KDBQ DBQ20120621021512606/21/12 02:15:31  5-MIN KDBQ 210815Z AUTO 32007KT 10SM -RA SCT007 BKN012 BKN110 18/18 A2989 1100 96 1800 320/07 RMK AO2 P0002
94908KDBQ DBQ20120621022012106/21/12 02:20:31  5-MIN KDBQ 210820Z AUTO 32009KT 10SM SCT009 SCT110 18/18 A2989 1100 96 1800 320/09 RMK AO2 RAE18 P0002
94908KDBQ DBQ20120621022512106/21/12 02:25:31  5-MIN KDBQ 210825Z AUTO 33006KT 10SM FEW011 SCT100 18/17 A2989 1110 93 1800 330/06 RMK AO2 RAE18 P0002
94908KDBQ DBQ20120621023012106/21/12 02:30:31  5-MIN KDBQ 210830Z AUTO 34007KT 10SM FEW011 SCT110 18/18 A2988 1110 96 1800 340/07 RMK AO2 RAE18 P0002
94908KDBQ DBQ20120621023512106/21/12 02:35:31  5-MIN KDBQ 210835Z AUTO 33008KT 10SM FEW011 SCT110 18/17 A2989 1110 93 1800 330/08 RMK AO2 RAE18 P0002
94908KDBQ DBQ20120621024011306/21/12 02:40:31  5-MIN KDBQ 210840Z AUTO 31009KT 9SM SCT110 18/17 A2990 1100 93 1800 310/09 RMK AO2 RAE18 P0002
94908KDBQ DBQ20120621024512006/21/12 02:45:31  5-MIN KDBQ 210845Z AUTO 31009KT 9SM FEW055 BKN110 18/17 A2990 1090 96 1700 310/09 RMK AO2 RAE18 P0002
94908KDBQ DBQ20120621025015006/21/12 02:50:31  5-MIN KDBQ 210850Z AUTO 31008KT 10SM FEW055 SCT110 18/17 A2990 1090 96 1700 310/08 RMK AO2 RAE18 SLP118 P0002 60004 T01780172 50019
94908KDBQ DBQ20120621025510906/21/12 02:55:31  5-MIN KDBQ 210855Z AUTO 31008KT 10SM FEW100 SCT110 18/17 A2991 1090 93 1700 310/08 RMK AO2
94908KDBQ DBQ20120621030010206/21/12 03:00:31  5-MIN KDBQ 210900Z AUTO 31009KT 10SM FEW110 17/17 A2991 1090 96 1600 310/09 RMK AO2
94908KDBQ DBQ20120621030510206/21/12 03:05:31  5-MIN KDBQ 210905Z AUTO 31011KT 10SM FEW100 17/16 A2992 1080 93 1600 310/11 RMK AO2
94908KDBQ DBQ20120621031009906/21/12 03:10:31  5-MIN KDBQ 210910Z AUTO 31011KT 10SM CLR 17/16 A2992 1080 93 1600 310/11 RMK AO2
94908KDBQ DBQ20120621031510206/21/12 03:15:31  5-MIN KDBQ 210915Z AUTO 30009KT 10SM FEW014 17/16 A2993 1070 93 1600 300/09 RMK AO2
94908KDBQ DBQ20120621032010206/21/12 03:20:31  5-MIN KDBQ 210920Z AUTO 31010KT 10SM SCT014 17/16 A2993 1070 93 1600 310/10 RMK AO2
94908KDBQ DBQ20120621032510906/21/12 03:25:31  5-MIN KDBQ 210925Z AUTO 32011KT 10SM SCT014 BKN039 17/16 A2993 1070 93 1600 320/11 RMK AO2
94908KDBQ DBQ20120621033010906/21/12 03:30:31  5-MIN KDBQ 210930Z AUTO 33008KT 10SM FEW014 BKN039 17/16 A2992 1080 93 1600 330/08 RMK AO2
94908KDBQ DBQ20120621033510906/21/12 03:35:31  5-MIN KDBQ 210935Z AUTO 32008KT 10SM FEW014 BKN035 17/16 A2992 1070 93 1600 320/08 RMK AO2
94908KDBQ DBQ20120621034011606/21/12 03:40:31  5-MIN KDBQ 210940Z AUTO 32009KT 10SM FEW014 BKN031 OVC038 17/16 A2993 1070 93 1600 320/09 RMK AO2
94908KDBQ DBQ20120621034511606/21/12 03:45:31  5-MIN KDBQ 210945Z AUTO 33009KT 10SM FEW014 BKN028 OVC038 17/16 A2993 1070 90 1600 330/09 RMK AO2
94908KDBQ DBQ20120621035012606/21/12 03:50:31  5-MIN KDBQ 210950Z AUTO 33008KT 10SM BKN030 OVC038 17/16 A2993 1070 90 1600 330/08 RMK AO2 SLP126 T01720156
94908KDBQ DBQ20120621035510906/21/12 03:55:31  5-MIN KDBQ 210955Z AUTO 34009KT 10SM FEW027 OVC032 17/16 A2992 1080 90 1600 340/09 RMK AO2
94908KDBQ DBQ20120621040010206/21/12 04:00:31  5-MIN KDBQ 211000Z AUTO 34010KT 10SM OVC032 17/16 A2992 1080 90 1600 340/10 RMK AO2
94908KDBQ DBQ20120621040510906/21/12 04:05:31  5-MIN KDBQ 211005Z AUTO 34008KT 10SM FEW027 OVC032 17/16 A2992 1080 90 1600 340/08 RMK AO2
94908KDBQ DBQ20120621041010906/21/12 04:10:31  5-MIN KDBQ 211010Z AUTO 34008KT 10SM BKN032 OVC070 17/16 A2992 1080 90 1600 340/08 RMK AO2
94908KDBQ DBQ20120621041510906/21/12 04:15:31  5-MIN KDBQ 211015Z AUTO 33007KT 10SM BKN032 OVC065 17/16 A2992 1080 90 1600 330/07 RMK AO2
94908KDBQ DBQ20120621042010906/21/12 04:20:31  5-MIN KDBQ 211020Z AUTO 33008KT 10SM SCT032 OVC065 17/16 A2993 1070 90 1600 330/08 RMK AO2
94908KDBQ DBQ20120621042510906/21/12 04:25:31  5-MIN KDBQ 211025Z AUTO 33008KT 10SM FEW032 OVC065 17/16 A2993 1070 90 1600 330/08 RMK AO2
94908KDBQ DBQ20120621043010906/21/12 04:30:31  5-MIN KDBQ 211030Z AUTO 33007KT 10SM FEW032 OVC065 17/16 A2993 1070 90 1600 330/07 RMK AO2
94908KDBQ DBQ20120621043510206/21/12 04:35:31  5-MIN KDBQ 211035Z AUTO 33006KT 10SM OVC070 17/16 A2993 1070 90 1600 330/06 RMK AO2
94908KDBQ DBQ20120621044010206/21/12 04:40:31  5-MIN KDBQ 211040Z AUTO 33008KT 10SM OVC070 17/16 A2994 1060 90 1600 320/08 RMK AO2
94908KDBQ DBQ20120621044510206/21/12 04:45:31  5-MIN KDBQ 211045Z AUTO 32007KT 10SM OVC070 17/16 A2994 1060 90 1600 320/07 RMK AO2
94908KDBQ DBQ20120621045012106/21/12 04:50:31  5-MIN KDBQ 211050Z 32006KT 10SM BKN075 OVC090 17/15 A2994 1060 87 1600 310/06 RMK AO2 SLP132 T01720150
94908KDBQ DBQ20120621045510406/21/12 04:55:31  5-MIN KDBQ 211055Z 32006KT 10SM BKN075 OVC090 17/15 A2994 1060 87 1600 320/06 RMK AO2
94908KDBQ DBQ20120621050010406/21/12 05:00:31  5-MIN KDBQ 211100Z 31006KT 10SM SCT075 OVC090 17/15 A2995 1050 87 1600 310/06 RMK AO2
94908KDBQ DBQ20120621050510406/21/12 05:05:31  5-MIN KDBQ 211105Z 31008KT 10SM FEW075 BKN090 17/15 A2995 1050 90 1500 310/08 RMK AO2
94908KDBQ DBQ20120621051009706/21/12 05:10:31  5-MIN KDBQ 211110Z 30005KT 10SM SCT085 17/14 A2995 1050 86 1500 300/05 RMK AO2
94908KDBQ DBQ20120621051510406/21/12 05:15:31  5-MIN KDBQ 211115Z 30004KT 10SM SCT090 SCT110 17/15 A2995 1050 90 1500 290/04 RMK AO2
94908KDBQ DBQ20120621052010406/21/12 05:20:31  5-MIN KDBQ 211120Z 29004KT 10SM FEW090 SCT110 17/15 A2995 1050 90 1500 290/04 RMK AO2
94908KDBQ DBQ20120621052509706/21/12 05:25:31  5-MIN KDBQ 211125Z 29005KT 10SM FEW090 17/15 A2996 1050 87 1600 290/05 RMK AO2
94908KDBQ DBQ20120621053009706/21/12 05:30:31  5-MIN KDBQ 211130Z 28003KT 10SM FEW110 17/15 A2996 1040 87 1600 280/03 RMK AO2
94908KDBQ DBQ20120621053509706/21/12 05:35:31  5-MIN KDBQ 211135Z 27003KT 10SM FEW110 17/15 A2996 1040 87 1600 270/03 RMK AO2
94908KDBQ DBQ20120621054009406/21/12 05:40:31  5-MIN KDBQ 211140Z 00000KT 10SM CLR 17/15 A2996 1040 87 1600 000/00 RMK AO2
94908KDBQ DBQ20120621054509406/21/12 05:45:31  5-MIN KDBQ 211145Z 30003KT 10SM CLR 18/16 A2996 1040 87 1600 300/03 RMK AO2
94908KDBQ DBQ20120621055014106/21/12 05:50:31  5-MIN KDBQ 211150Z 30004KT 10SM CLR 18/16 A2996 1040 87 1600 300/04 RMK AO2 SLP139 60004 70019 T01780156 10189 20167 50002
94908KDBQ DBQ20120621055509406/21/12 05:55:31  5-MIN KDBQ 211155Z 31004KT 10SM CLR 18/16 A2996 1040 87 1600 310/04 RMK AO2
94908KDBQ DBQ20120621060009406/21/12 06:00:31  5-MIN KDBQ 211200Z 33005KT 10SM CLR 18/15 A2996 1040 83 1600 320/05 RMK AO2
94908KDBQ DBQ20120621060509406/21/12 06:05:31  5-MIN KDBQ 211205Z 33007KT 10SM CLR 18/15 A2996 1040 83 1600 330/07 RMK AO2
94908KDBQ DBQ20120621061009406/21/12 06:10:31  5-MIN KDBQ 211210Z 32006KT 10SM CLR 18/15 A2996 1040 83 1600 320/06 RMK AO2
94908KDBQ DBQ20120621061509406/21/12 06:15:31  5-MIN KDBQ 211215Z 32006KT 10SM CLR 18/15 A2997 1040 83 1600 320/06 RMK AO2
94908KDBQ DBQ20120621062009406/21/12 06:20:31  5-MIN KDBQ 211220Z 31007KT 10SM CLR 18/15 A2997 1030 83 1600 310/07 RMK AO2
94908KDBQ DBQ20120621062509406/21/12 06:25:31  5-MIN KDBQ 211225Z 32006KT 10SM CLR 18/15 A2997 1030 83 1600 320/06 RMK AO2
94908KDBQ DBQ20120621063009406/21/12 06:30:31  5-MIN KDBQ 211230Z 32006KT 10SM CLR 18/15 A2998 1030 83 1600 320/06 RMK AO2
94908KDBQ DBQ20120621063509406/21/12 06:35:31  5-MIN KDBQ 211235Z 32008KT 10SM CLR 18/15 A2998 1020 83 1600 320/08 RMK AO2
94908KDBQ DBQ20120621064009406/21/12 06:40:31  5-MIN KDBQ 211240Z 32009KT 10SM CLR 18/15 A2998 1020 83 1600 320/09 RMK AO2
94908KDBQ DBQ20120621064509406/21/12 06:45:31  5-MIN KDBQ 211245Z 32008KT 10SM CLR 18/15 A2999 1020 83 1600 320/08 RMK AO2
94908KDBQ DBQ20120621065011106/21/12 06:50:31  5-MIN KDBQ 211250Z 31008KT 10SM CLR 18/15 A2999 1020 83 1600 310/08 RMK AO2 SLP148 T01780150
94908KDBQ DBQ20120621065509406/21/12 06:55:31  5-MIN KDBQ 211255Z 31008KT 10SM CLR 18/16 A2999 1020 84 1700 310/08 RMK AO2
94908KDBQ DBQ20120621070009406/21/12 07:00:31  5-MIN KDBQ 211300Z 31010KT 10SM CLR 18/16 A2999 1020 84 1700 310/10 RMK AO2
94908KDBQ DBQ20120621070509406/21/12 07:05:31  5-MIN KDBQ 211305Z 31010KT 10SM CLR 18/16 A2999 1010 84 1700 310/10 RMK AO2
94908KDBQ DBQ20120621071009406/21/12 07:10:31  5-MIN KDBQ 211310Z 32009KT 10SM CLR 19/16 A2999 1010 81 1700 310/09 RMK AO2
94908KDBQ DBQ20120621071509406/21/12 07:15:31  5-MIN KDBQ 211315Z 31007KT 10SM CLR 19/16 A3000 1010 81 1700 310/07 RMK AO2
94908KDBQ DBQ20120621072009406/21/12 07:20:31  5-MIN KDBQ 211320Z 31006KT 10SM CLR 19/16 A3000 1010 84 1700 310/06 RMK AO2
94908KDBQ DBQ20120621072509406/21/12 07:25:31  5-MIN KDBQ 211325Z 31007KT 10SM CLR 19/16 A3000 1000 81 1800 310/07 RMK AO2
94908KDBQ DBQ20120621073009406/21/12 07:30:31  5-MIN KDBQ 211330Z 30009KT 10SM CLR 19/16 A3000 1000 81 1700 300/09 RMK AO2
94908KDBQ DBQ20120621073509406/21/12 07:35:31  5-MIN KDBQ 211335Z 31009KT 10SM CLR 19/16 A3000 1000 81 1700 310/09 RMK AO2
94908KDBQ DBQ20120621074009406/21/12 07:40:31  5-MIN KDBQ 211340Z 30009KT 10SM CLR 19/16 A3001 1000 81 1700 300/09 RMK AO2
94908KDBQ DBQ20120621074509406/21/12 07:45:31  5-MIN KDBQ 211345Z 31009KT 10SM CLR 18/15 A3001 1000 81 1700 310/09 RMK AO2
94908KDBQ DBQ20120621075011106/21/12 07:50:31  5-MIN KDBQ 211350Z 31007KT 10SM CLR 18/15 A3001 1000 81 1700 310/07 RMK AO2 SLP155 T01830150
94908KDBQ DBQ20120621075509406/21/12 07:55:31  5-MIN KDBQ 211355Z 30009KT 10SM CLR 18/16 A3001 1000 84 1700 300/09 RMK AO2
94908KDBQ DBQ20120621080009406/21/12 08:00:31  5-MIN KDBQ 211400Z 29007KT 10SM CLR 18/16 A3001 1000 84 1700 290/07 RMK AO2
94908KDBQ DBQ20120621080509406/21/12 08:05:31  5-MIN KDBQ 211405Z 29007KT 10SM CLR 18/16 A3001 1000 84 1700 290/07 RMK AO2
94908KDBQ DBQ20120621081009406/21/12 08:10:31  5-MIN KDBQ 211410Z 29009KT 10SM CLR 19/16 A3000 1000 81 1700 290/09 RMK AO2
94908KDBQ DBQ20120621081509406/21/12 08:15:31  5-MIN KDBQ 211415Z 30007KT 10SM CLR 19/16 A3001 1000 81 1700 290/07 RMK AO2
94908KDBQ DBQ20120621082009406/21/12 08:20:31  5-MIN KDBQ 211420Z 30008KT 10SM CLR 19/16 A3001 1000 78 1800 290/08 RMK AO2
94908KDBQ DBQ20120621082509406/21/12 08:25:31  5-MIN KDBQ 211425Z 29009KT 10SM CLR 19/16 A3001 1000 78 1800 290/09 RMK AO2
94908KDBQ DBQ20120621083009406/21/12 08:30:31  5-MIN KDBQ 211430Z 29009KT 10SM CLR 20/16 A3001 1000 75 1900 290/09 RMK AO2
94908KDBQ DBQ20120621083509406/21/12 08:35:31  5-MIN KDBQ 211435Z 29007KT 10SM CLR 20/16 A3001 1000 75 1900 290/07 RMK AO2
94908KDBQ DBQ20120621084009406/21/12 08:40:31  5-MIN KDBQ 211440Z 29008KT 10SM CLR 20/16 A3001 1000 75 1900 280/08 RMK AO2
94908KDBQ DBQ20120621084509606/21/12 08:45:31  5-MIN KDBQ 211445Z 30009KT 10SM CLR 21/16 A3001 1000 73 1900 300/09 RMK AO2 $
94908KDBQ DBQ20120621085011906/21/12 08:50:31  5-MIN KDBQ 211450Z 29008KT 10SM CLR 21/16 A3001 1000 73 2000 290/08 RMK AO2 SLP154 T02110161 53019 $
94908KDBQ DBQ20120621085509606/21/12 08:55:31  5-MIN KDBQ 211455Z 29008KT 10SM CLR 21/16 A3000 1000 73 2000 290/08 RMK AO2 $
94908KDBQ DBQ20120621090009606/21/12 09:00:31  5-MIN KDBQ 211500Z 30008KT 10SM CLR 21/16 A3000 1000 70 2000 300/08 RMK AO2 $
94908KDBQ DBQ20120621090509606/21/12 09:05:31  5-MIN KDBQ 211505Z 29010KT 10SM CLR 21/16 A3000 1000 70 2000 290/10 RMK AO2 $
94908KDBQ DBQ20120621091009606/21/12 09:10:31  5-MIN KDBQ 211510Z 30008KT 10SM CLR 21/16 A3000 1000 73 2000 300/08 RMK AO2 $
94908KDBQ DBQ20120621091508106/21/12 09:15:31  5-MIN KDBQ 211515Z 21/16 A3001 1000 73 2000 M /M RMK AO2 PNO $
94908KDBQ DBQ20120621092008106/21/12 09:20:31  5-MIN KDBQ 211520Z 21/16 A3001 1000 73 2000 M /M RMK AO2 PNO $
94908KDBQ DBQ20120621092508106/21/12 09:25:31  5-MIN KDBQ 211525Z 21/16 A3001 1000 73 2000 M /M RMK AO2 PNO $
94908KDBQ DBQ20120621094007606/21/12 09:40:31  5-MIN KDBQ 211540Z 28008KT M M M 280/08 RMK AO2 RVRNO PNO
94908KDBQ DBQ20120621094509106/21/12 09:45:31  5-MIN KDBQ 211545Z 29008KT 23/17 A3001 1000 68 2200 290/08 RMK AO2 RVRNO
94908KDBQ DBQ20120621095510006/21/12 09:55:31  5-MIN KDBQ 211555Z 26008KT 10SM CLR 23/21 A3000 1010 90 2200 260/08 RMK AO2 PNO $
94908KDBQ DBQ20120621100009606/21/12 10:00:31  5-MIN KDBQ 211600Z 26008KT 10SM CLR 23/21 A3000 1010 90 2200 260/08 RMK AO2 $
94908KDBQ DBQ20120621100509606/21/12 10:05:31  5-MIN KDBQ 211605Z 26008KT 10SM CLR 23/21 A3000 1010 90 2200 260/08 RMK AO2 $
94908KDBQ DBQ20120621101009606/21/12 10:10:31  5-MIN KDBQ 211610Z 26008KT 10SM CLR 23/21 A3000 1010 90 2200 260/08 RMK AO2 $
94908KDBQ DBQ20120621101509606/21/12 10:15:31  5-MIN KDBQ 211615Z 26008KT 10SM CLR 23/21 A3000 1010 90 2200 260/08 RMK AO2 $
94908KDBQ DBQ20120621102009606/21/12 10:20:31  5-MIN KDBQ 211620Z 26008KT 10SM CLR 23/21 A3000 1010 90 2200 260/08 RMK AO2 $
94908KDBQ DBQ20120621102509406/21/12 10:25:31  5-MIN KDBQ 211625Z 26008KT 10SM CLR 23/21 A3000 1010 90 2200 260/08 RMK AO2
94908KDBQ DBQ20120621103009406/21/12 10:30:31  5-MIN KDBQ 211630Z 26008KT 10SM CLR 23/21 A3000 1010 90 2200 260/08 RMK AO2
94908KDBQ DBQ20120621103510406/21/12 10:35:31  5-MIN KDBQ 211635Z AUTO 26008KT 10SM CLR 23/21 A3000 1010 90 2200 260/08 RMK AO2 TSNO
94908KDBQ DBQ20120621104009706/21/12 10:40:31  5-MIN KDBQ 211640Z 28012KT 10SM FEW028 24/17 A3001 1000 66 2300 280/12 RMK AO2
94908KDBQ DBQ20120621104509706/21/12 10:45:31  5-MIN KDBQ 211645Z 29011KT 10SM FEW028 24/17 A3001 1000 63 2300 290/11 RMK AO2
94908KDBQ DBQ20120621105011406/21/12 10:50:31  5-MIN KDBQ 211650Z 28011KT 10SM FEW028 24/17 A3000 1000 63 2300 280/11 RMK AO2 SLP154 T02390167
94908KDBQ DBQ20120621105509706/21/12 10:55:31  5-MIN KDBQ 211655Z 29010KT 10SM FEW028 24/17 A3001 1000 63 2300 280/10 RMK AO2
94908KDBQ DBQ20120621110010306/21/12 11:00:31  5-MIN KDBQ 211700Z 28009G17KT 10SM FEW028 24/17 A3000 1000 61 2400 280/09G17 RMK AO2
94908KDBQ DBQ20120621110509706/21/12 11:05:31  5-MIN KDBQ 211705Z 28009KT 10SM SCT028 24/17 A3000 1000 66 2300 280/09 RMK AO2
94908KDBQ DBQ20120621111010306/21/12 11:10:31  5-MIN KDBQ 211710Z 28013G16KT 10SM SCT028 24/17 A3001 1000 63 2300 280/13G16 RMK AO2
94908KDBQ DBQ20120621111509706/21/12 11:15:31  5-MIN KDBQ 211715Z 29012KT 10SM SCT028 24/16 A3001 1000 59 2400 290/12 RMK AO2
94908KDBQ DBQ20120621112010306/21/12 11:20:31  5-MIN KDBQ 211720Z 30008G16KT 10SM FEW028 24/17 A3001 1000 61 2400 300/08G16 RMK AO2
94908KDBQ DBQ20120621112509706/21/12 11:25:31  5-MIN KDBQ 211725Z 29010KT 10SM FEW028 25/17 A3001 1000 59 2400 290/10 RMK AO2
94908KDBQ DBQ20120621113009706/21/12 11:30:31  5-MIN KDBQ 211730Z 28012KT 10SM FEW028 24/16 A3000 1000 57 2400 280/12 RMK AO2
94908KDBQ DBQ20120621113509706/21/12 11:35:31  5-MIN KDBQ 211735Z 28012KT 10SM FEW028 25/16 A3001 1000 55 2400 280/12 RMK AO2
94908KDBQ DBQ20120621114010006/21/12 11:40:31  5-MIN KDBQ 211740Z 30010G16KT 10SM CLR 25/15 A3001 1000 53 2400 300/10G16 RMK AO2
94908KDBQ DBQ20120621114510306/21/12 11:45:31  5-MIN KDBQ 211745Z 30007G16KT 10SM FEW047 25/16 A3001 1000 55 2400 300/07G16 RMK AO2
94908KDBQ DBQ20120621115013806/21/12 11:50:31  5-MIN KDBQ 211750Z 29013G17KT 10SM FEW043 25/16 A3001 1000 55 2400 290/13G17 RMK AO2 SLP155 6//// T02500156 10250 20167
94908KDBQ DBQ20120621115511006/21/12 11:55:31  5-MIN KDBQ 211755Z 31013G19KT 10SM FEW039 SCT047 24/15 A3000 1000 55 2400 310/13G19 RMK AO2
94908KDBQ DBQ20120621120011006/21/12 12:00:31  5-MIN KDBQ 211800Z 30014G20KT 10SM FEW041 SCT049 25/14 A3000 1000 51 2400 300/14G20 RMK AO2
94908KDBQ DBQ20120621120511006/21/12 12:05:31  5-MIN KDBQ 211805Z 29010G20KT 10SM SCT043 SCT049 26/15 A3000 1000 51 2500 290/10G20 RMK AO2
94908KDBQ DBQ20120621121010306/21/12 12:10:31  5-MIN KDBQ 211810Z 31008G15KT 10SM SCT043 26/15 A3000 1000 50 2600 310/08G15 RMK AO2
94908KDBQ DBQ20120621121511006/21/12 12:15:31  5-MIN KDBQ 211815Z 27013G16KT 10SM FEW043 SCT050 26/14 A3000 1000 48 2500 270/13G16 RMK AO2
94908KDBQ DBQ20120621122010306/21/12 12:20:31  5-MIN KDBQ 211820Z 28010G17KT 10SM FEW043 26/13 A3000 1010 46 2500 280/10G17 RMK AO2
94908KDBQ DBQ20120621122510306/21/12 12:25:31  5-MIN KDBQ 211825Z 30015G21KT 10SM FEW047 26/13 A3000 1010 44 2600 300/15G21 RMK AO2
94908KDBQ DBQ20120621123010306/21/12 12:30:31  5-MIN KDBQ 211830Z 30012G21KT 10SM FEW047 26/13 A3000 1010 44 2500 300/12G21 RMK AO2
94908KDBQ DBQ20120621123510006/21/12 12:35:31  5-MIN KDBQ 211835Z 29013G19KT 10SM CLR 26/13 A2999 1010 44 2500 290/13G19 RMK AO2
94908KDBQ DBQ20120621124010006/21/12 12:40:31  5-MIN KDBQ 211840Z 28009G19KT 10SM CLR 26/13 A3000 1010 43 2600 280/09G19 RMK AO2
94908KDBQ DBQ20120621124510006/21/12 12:45:31  5-MIN KDBQ 211845Z 30010G18KT 10SM CLR 26/13 A3000 1010 44 2600 300/10G18 RMK AO2
94908KDBQ DBQ20120621125011706/21/12 12:50:31  5-MIN KDBQ 211850Z 32012G18KT 10SM CLR 26/13 A2999 1010 44 2500 320/12G18 RMK AO2 SLP151 T02560128
94908KDBQ DBQ20120621125509406/21/12 12:55:31  5-MIN KDBQ 211855Z 31013KT 10SM CLR 26/13 A2999 1010 43 2600 310/13 RMK AO2
94908KDBQ DBQ20120621130009406/21/12 13:00:31  5-MIN KDBQ 211900Z 31010KT 10SM CLR 26/13 A3000 1010 43 2600 310/10 RMK AO2
94908KDBQ DBQ20120621130509406/21/12 13:05:31  5-MIN KDBQ 211905Z 30012KT 10SM CLR 26/13 A2999 1010 43 2600 300/12 RMK AO2
94908KDBQ DBQ20120621131010006/21/12 13:10:31  5-MIN KDBQ 211910Z 31014G18KT 10SM CLR 26/13 A2999 1010 43 2600 310/14G18 RMK AO2
94908KDBQ DBQ20120621131510306/21/12 13:15:31  5-MIN KDBQ 211915Z 26011G18KT 10SM FEW050 26/13 A2999 1010 44 2500 260/11G18 RMK AO2
94908KDBQ DBQ20120621132009706/21/12 13:20:31  5-MIN KDBQ 211920Z 28012KT 10SM FEW050 26/13 A2999 1010 46 2500 280/12 RMK AO2
94908KDBQ DBQ20120621132510306/21/12 13:25:31  5-MIN KDBQ 211925Z 29012G20KT 10SM SCT050 27/13 A2999 1010 43 2600 290/12G20 RMK AO2
94908KDBQ DBQ20120621133010306/21/12 13:30:31  5-MIN KDBQ 211930Z 28012G20KT 10SM SCT050 26/13 A2999 1010 44 2500 280/12G20 RMK AO2
94908KDBQ DBQ20120621133510306/21/12 13:35:31  5-MIN KDBQ 211935Z 29011G17KT 10SM SCT050 26/13 A2999 1020 44 2600 290/11G17 RMK AO2
94908KDBQ DBQ20120621134010306/21/12 13:40:31  5-MIN KDBQ 211940Z 30010G17KT 10SM FEW050 26/13 A2999 1020 43 2600 300/10G17 RMK AO2
94908KDBQ DBQ20120621134509706/21/12 13:45:31  5-MIN KDBQ 211945Z 29013KT 10SM FEW050 26/13 A2999 1020 43 2600 290/13 RMK AO2
94908KDBQ DBQ20120621135011406/21/12 13:50:31  5-MIN KDBQ 211950Z 30011KT 10SM FEW050 26/12 A2999 1020 41 2600 300/11 RMK AO2 SLP149 T02610122
94908KDBQ DBQ20120621135510306/21/12 13:55:31  5-MIN KDBQ 211955Z 32015G18KT 10SM FEW050 26/12 A2999 1020 41 2600 320/15G18 RMK AO2
94908KDBQ DBQ20120621140010306/21/12 14:00:31  5-MIN KDBQ 212000Z 32011G18KT 10SM FEW050 27/13 A2999 1010 41 2600 320/11G18 RMK AO2
94908KDBQ DBQ20120621140509406/21/12 14:05:31  5-MIN KDBQ 212005Z 29010KT 10SM CLR 26/13 A2999 1020 44 2500 290/10 RMK AO2
94908KDBQ DBQ20120621141009706/21/12 14:10:31  5-MIN KDBQ 212010Z 31012KT 10SM FEW050 26/12 A2999 1020 41 2600 310/12 RMK AO2
94908KDBQ DBQ20120621141509706/21/12 14:15:31  5-MIN KDBQ 212015Z 29013KT 10SM FEW050 27/12 A2999 1020 40 2600 290/13 RMK AO2
94908KDBQ DBQ20120621142010306/21/12 14:20:31  5-MIN KDBQ 212020Z 28012G18KT 10SM FEW050 26/12 A2999 1020 41 2600 280/12G18 RMK AO2
94908KDBQ DBQ20120621142509706/21/12 14:25:31  5-MIN KDBQ 212025Z 31012KT 10SM FEW050 27/13 A2998 1020 41 2600 310/12 RMK AO2
94908KDBQ DBQ20120621143009706/21/12 14:30:31  5-MIN KDBQ 212030Z 31011KT 10SM FEW050 27/13 A2998 1020 41 2600 300/11 RMK AO2
94908KDBQ DBQ20120621143509706/21/12 14:35:31  5-MIN KDBQ 212035Z 30012KT 10SM FEW050 27/13 A2999 1020 41 2600 290/12 RMK AO2
94908KDBQ DBQ20120621144010006/21/12 14:40:31  5-MIN KDBQ 212040Z 31011G18KT 10SM CLR 27/13 A2998 1020 41 2600 310/11G18 RMK AO2
94908KDBQ DBQ20120621144510006/21/12 14:45:31  5-MIN KDBQ 212045Z 28015G19KT 10SM CLR 27/12 A2998 1020 40 2600 280/15G19 RMK AO2
94908KDBQ DBQ20120621145012006/21/12 14:50:31  5-MIN KDBQ 212050Z 29012G19KT 10SM FEW055 26/12 A2998 1020 41 2600 290/12G19 RMK AO2 SLP147 T02610122
94908KDBQ DBQ20120621145510006/21/12 14:55:31  5-MIN KDBQ 212055Z 30012G19KT 10SM CLR 26/12 A2998 1020 41 2600 300/12G19 RMK AO2
94908KDBQ DBQ20120621150010006/21/12 15:00:31  5-MIN KDBQ 212100Z 28013G19KT 10SM CLR 26/13 A2998 1020 43 2600 280/13G19 RMK AO2
94908KDBQ DBQ20120621150510006/21/12 15:05:31  5-MIN KDBQ 212105Z 32013G19KT 10SM CLR 26/12 A2998 1030 41 2600 320/13G19 RMK AO2
94908KDBQ DBQ20120621151010006/21/12 15:10:31  5-MIN KDBQ 212110Z 29014G17KT 10SM CLR 26/13 A2998 1030 43 2600 290/14G17 RMK AO2
94908KDBQ DBQ20120621151510006/21/12 15:15:31  5-MIN KDBQ 212115Z 31011G17KT 10SM CLR 26/12 A2998 1020 41 2600 310/11G17 RMK AO2
94908KDBQ DBQ20120621152009406/21/12 15:20:31  5-MIN KDBQ 212120Z 27009KT 10SM CLR 26/13 A2998 1030 43 2600 270/09 RMK AO2
94908KDBQ DBQ20120621152510306/21/12 15:25:31  5-MIN KDBQ 212125Z 28010G18KT 10SM FEW050 26/13 A2998 1020 43 2600 280/10G18 RMK AO2
94908KDBQ DBQ20120621153010306/21/12 15:30:31  5-MIN KDBQ 212130Z 30012G18KT 10SM FEW050 26/13 A2998 1020 44 2600 300/12G18 RMK AO2
94908KDBQ DBQ20120621153509706/21/12 15:35:31  5-MIN KDBQ 212135Z 30008KT 10SM FEW050 26/13 A2998 1020 43 2600 300/08 RMK AO2
94908KDBQ DBQ20120621154010306/21/12 15:40:31  5-MIN KDBQ 212140Z 31010G18KT 10SM FEW050 26/13 A2998 1020 43 2600 310/10G18 RMK AO2
94908KDBQ DBQ20120621154510306/21/12 15:45:31  5-MIN KDBQ 212145Z 29014G18KT 10SM FEW050 26/12 A2998 1020 41 2600 290/14G18 RMK AO2
94908KDBQ DBQ20120621155011406/21/12 15:50:31  5-MIN KDBQ 212150Z 30014KT 10SM FEW050 26/12 A2998 1030 40 2600 300/14 RMK AO2 SLP145 T02610117
94908KDBQ DBQ20120621155510306/21/12 15:55:31  5-MIN KDBQ 212155Z 31013G19KT 10SM FEW050 26/12 A2998 1020 41 2600 310/13G19 RMK AO2
94908KDBQ DBQ20120621160010306/21/12 16:00:31  5-MIN KDBQ 212200Z 30013G19KT 10SM FEW050 26/12 A2998 1030 40 2600 300/13G19 RMK AO2
94908KDBQ DBQ20120621160510006/21/12 16:05:31  5-MIN KDBQ 212205Z 30012G19KT 10SM CLR 26/12 A2998 1030 41 2600 300/12G19 RMK AO2
94908KDBQ DBQ20120621161010006/21/12 16:10:31  5-MIN KDBQ 212210Z 32013G19KT 10SM CLR 26/12 A2998 1020 41 2600 320/13G19 RMK AO2
94908KDBQ DBQ20120621161509406/21/12 16:15:31  5-MIN KDBQ 212215Z 32011KT 10SM CLR 26/13 A2998 1020 43 2600 320/11 RMK AO2
94908KDBQ DBQ20120621162009406/21/12 16:20:31  5-MIN KDBQ 212220Z 29012KT 10SM CLR 26/12 A2998 1020 41 2600 290/12 RMK AO2
94908KDBQ DBQ20120621165011706/21/12 16:50:31  5-MIN KDBQ 212250Z 30010G15KT 10SM CLR 26/12 A2998 1020 43 2500 300/10G15 RMK AO2 SLP147 T02560122
94908KDBQ DBQ20120621165509706/21/12 16:55:31  5-MIN KDBQ 212255Z 31012KT 10SM FEW050 26/12 A2998 1020 43 2500 310/12 RMK AO2
94908KDBQ DBQ20120621170009706/21/12 17:00:31  5-MIN KDBQ 212300Z 32009KT 10SM FEW050 26/12 A2998 1020 43 2500 310/09 RMK AO2
94908KDBQ DBQ20120621170509706/21/12 17:05:31  5-MIN KDBQ 212305Z 30010KT 10SM FEW050 26/12 A2998 1020 43 2500 290/10 RMK AO2
94908KDBQ DBQ20120621171010306/21/12 17:10:31  5-MIN KDBQ 212310Z 31010G16KT 10SM FEW050 25/12 A2998 1020 44 2400 310/10G16 RMK AO2
94908KDBQ DBQ20120621171509706/21/12 17:15:31  5-MIN KDBQ 212315Z 30009KT 10SM FEW050 24/12 A2999 1020 46 2400 300/09 RMK AO2
94908KDBQ DBQ20120621172009706/21/12 17:20:31  5-MIN KDBQ 212320Z 31012KT 10SM FEW050 24/13 A2999 1020 47 2400 310/12 RMK AO2
94908KDBQ DBQ20120621172509406/21/12 17:25:31  5-MIN KDBQ 212325Z 32008KT 10SM CLR 25/12 A2999 1020 44 2400 320/08 RMK AO2
94908KDBQ DBQ20120621173009706/21/12 17:30:31  5-MIN KDBQ 212330Z 32008KT 10SM FEW050 25/12 A2999 1020 44 2400 320/08 RMK AO2
94908KDBQ DBQ20120621173509706/21/12 17:35:31  5-MIN KDBQ 212335Z 31012KT 10SM FEW050 25/13 A2999 1020 46 2400 310/12 RMK AO2
94908KDBQ DBQ20120621174009406/21/12 17:40:31  5-MIN KDBQ 212340Z 31010KT 10SM CLR 25/13 A2999 1020 46 2400 310/10 RMK AO2
94908KDBQ DBQ20120621174509406/21/12 17:45:31  5-MIN KDBQ 212345Z 32009KT 10SM CLR 24/12 A2999 1020 46 2400 320/09 RMK AO2
94908KDBQ DBQ20120621175012906/21/12 17:50:31  5-MIN KDBQ 212350Z 31009KT 10SM CLR 24/12 A2999 1020 46 2400 310/09 RMK AO2 SLP150 T02440122 10267 20244 56008
94908KDBQ DBQ20120621175509706/21/12 17:55:31  5-MIN KDBQ 212355Z 33010KT 10SM FEW050 24/12 A2999 1020 46 2400 330/10 RMK AO2
94908KDBQ DBQ20120621180009706/21/12 18:00:31  5-MIN KDBQ 220000Z 30011KT 10SM FEW050 24/12 A2999 1020 46 2400 300/11 RMK AO2
94908KDBQ DBQ20120621180509706/21/12 18:05:31  5-MIN KDBQ 220005Z 31009KT 10SM FEW050 24/12 A2999 1010 46 2400 300/09 RMK AO2
94908KDBQ DBQ20120621181009706/21/12 18:10:31  5-MIN KDBQ 220010Z 31009KT 10SM FEW050 24/12 A2999 1010 47 2300 310/09 RMK AO2
94908KDBQ DBQ20120621181509706/21/12 18:15:31  5-MIN KDBQ 220015Z 31008KT 10SM FEW050 24/12 A2999 1010 46 2300 310/08 RMK AO2
94908KDBQ DBQ20120621182009706/21/12 18:20:31  5-MIN KDBQ 220020Z 30009KT 10SM FEW050 24/12 A2999 1010 47 2300 300/09 RMK AO2
94908KDBQ DBQ20120621182509406/21/12 18:25:31  5-MIN KDBQ 220025Z 31009KT 10SM CLR 24/12 A2999 1010 47 2300 310/09 RMK AO2
94908KDBQ DBQ20120621183009406/21/12 18:30:31  5-MIN KDBQ 220030Z 31008KT 10SM CLR 24/12 A2999 1010 47 2300 310/08 RMK AO2
94908KDBQ DBQ20120621183509406/21/12 18:35:31  5-MIN KDBQ 220035Z 31006KT 10SM CLR 23/13 A2999 1010 51 2200 310/06 RMK AO2
94908KDBQ DBQ20120621184009406/21/12 18:40:31  5-MIN KDBQ 220040Z 31006KT 10SM CLR 23/13 A3000 1010 51 2200 310/06 RMK AO2
94908KDBQ DBQ20120621184509406/21/12 18:45:31  5-MIN KDBQ 220045Z 31009KT 10SM CLR 23/12 A3000 1010 49 2200 310/09 RMK AO2
94908KDBQ DBQ20120621185011106/21/12 18:50:31  5-MIN KDBQ 220050Z 31007KT 10SM CLR 23/12 A3000 1010 51 2200 310/07 RMK AO2 SLP153 T02280122
94908KDBQ DBQ20120621185509906/21/12 18:55:31  5-MIN KDBQ 220055Z AUTO 31006KT 10SM CLR 23/12 A3000 1010 51 2200 310/06 RMK AO2
94908KDBQ DBQ20120621190009906/21/12 19:00:31  5-MIN KDBQ 220100Z AUTO 31007KT 10SM CLR 23/12 A3000 1010 51 2200 310/07 RMK AO2
94908KDBQ DBQ20120621190509906/21/12 19:05:31  5-MIN KDBQ 220105Z AUTO 32007KT 10SM CLR 22/12 A3000 1010 51 2100 320/07 RMK AO2
94908KDBQ DBQ20120621191009906/21/12 19:10:31  5-MIN KDBQ 220110Z AUTO 32007KT 10SM CLR 22/12 A3000 1000 51 2100 310/07 RMK AO2
94908KDBQ DBQ20120621191509906/21/12 19:15:31  5-MIN KDBQ 220115Z AUTO 32006KT 10SM CLR 22/12 A3000 1000 52 2000 320/06 RMK AO2
94908KDBQ DBQ20120621192009906/21/12 19:20:31  5-MIN KDBQ 220120Z AUTO 32007KT 10SM CLR 22/12 A3000 1000 52 2000 320/07 RMK AO2
94908KDBQ DBQ20120621192509906/21/12 19:25:31  5-MIN KDBQ 220125Z AUTO 32006KT 10SM CLR 22/12 A3000 1000 52 2100 320/06 RMK AO2
94908KDBQ DBQ20120621193009906/21/12 19:30:31  5-MIN KDBQ 220130Z AUTO 32008KT 10SM CLR 21/12 A3000 1010 58 1900 320/08 RMK AO2
94908KDBQ DBQ20120621193509906/21/12 19:35:31  5-MIN KDBQ 220135Z AUTO 32007KT 10SM CLR 21/12 A3000 1000 58 1900 320/07 RMK AO2
94908KDBQ DBQ20120621194009906/21/12 19:40:31  5-MIN KDBQ 220140Z AUTO 32007KT 10SM CLR 20/12 A3000 1010 60 1900 320/07 RMK AO2
94908KDBQ DBQ20120621194509906/21/12 19:45:31  5-MIN KDBQ 220145Z AUTO 32007KT 10SM CLR 20/12 A3000 1000 60 1900 320/07 RMK AO2
94908KDBQ DBQ20120621195011606/21/12 19:50:31  5-MIN KDBQ 220150Z AUTO 32006KT 10SM CLR 20/12 A3000 1000 60 1900 320/06 RMK AO2 SLP155 T02000122
94908KDBQ DBQ20120621195509906/21/12 19:55:31  5-MIN KDBQ 220155Z AUTO 32007KT 10SM CLR 19/12 A3000 1000 62 1800 320/07 RMK AO2
94908KDBQ DBQ20120621200009906/21/12 20:00:31  5-MIN KDBQ 220200Z AUTO 32006KT 10SM CLR 19/12 A3000 1000 62 1800 320/06 RMK AO2
94908KDBQ DBQ20120621200509906/21/12 20:05:31  5-MIN KDBQ 220205Z AUTO 31006KT 10SM CLR 19/12 A3001 1000 62 1800 310/06 RMK AO2
94908KDBQ DBQ20120621201009906/21/12 20:10:31  5-MIN KDBQ 220210Z AUTO 31006KT 10SM CLR 19/12 A3001 1000 65 1700 310/06 RMK AO2
94908KDBQ DBQ20120621201509906/21/12 20:15:31  5-MIN KDBQ 220215Z AUTO 32006KT 10SM CLR 19/12 A3001 1000 65 1700 320/06 RMK AO2
94908KDBQ DBQ20120621202009906/21/12 20:20:31  5-MIN KDBQ 220220Z AUTO 32006KT 10SM CLR 19/12 A3001 1000 65 1700 320/06 RMK AO2
94908KDBQ DBQ20120621202509806/21/12 20:25:31  5-MIN KDBQ 220225Z AUTO 32007KT 10SM CLR 19/12 A3001 990 65 1700 320/07 RMK AO2
94908KDBQ DBQ20120621203009806/21/12 20:30:31  5-MIN KDBQ 220230Z AUTO 32006KT 10SM CLR 19/12 A3001 990 65 1700 320/06 RMK AO2
94908KDBQ DBQ20120621203509806/21/12 20:35:31  5-MIN KDBQ 220235Z AUTO 32007KT 10SM CLR 19/12 A3001 990 65 1700 320/07 RMK AO2
94908KDBQ DBQ20120621204009806/21/12 20:40:31  5-MIN KDBQ 220240Z AUTO 32007KT 10SM CLR 19/12 A3002 990 65 1700 320/07 RMK AO2
94908KDBQ DBQ20120621204509806/21/12 20:45:31  5-MIN KDBQ 220245Z AUTO 32007KT 10SM CLR 19/12 A3002 990 65 1700 320/07 RMK AO2
94908KDBQ DBQ20120621205012106/21/12 20:50:31  5-MIN KDBQ 220250Z AUTO 32006KT 10SM CLR 18/12 A3002 980 67 1600 320/06 RMK AO2 SLP163 T01830122 53002
94908KDBQ DBQ20120621205509806/21/12 20:55:31  5-MIN KDBQ 220255Z AUTO 32006KT 10SM CLR 18/12 A3002 980 67 1600 310/06 RMK AO2
94908KDBQ DBQ20120621210009806/21/12 21:00:31  5-MIN KDBQ 220300Z AUTO 31005KT 10SM CLR 18/12 A3003 980 67 1600 310/05 RMK AO2
94908KDBQ DBQ20120621210509806/21/12 21:05:31  5-MIN KDBQ 220305Z AUTO 31004KT 10SM CLR 19/12 A3003 980 65 1700 310/04 RMK AO2
94908KDBQ DBQ20120621211009806/21/12 21:10:31  5-MIN KDBQ 220310Z AUTO 31004KT 10SM CLR 19/12 A3003 980 65 1700 310/04 RMK AO2
94908KDBQ DBQ20120621211509806/21/12 21:15:31  5-MIN KDBQ 220315Z AUTO 31004KT 10SM CLR 19/12 A3003 980 65 1700 310/04 RMK AO2
94908KDBQ DBQ20120621212009806/21/12 21:20:31  5-MIN KDBQ 220320Z AUTO 31004KT 10SM CLR 19/12 A3003 980 65 1700 310/04 RMK AO2
94908KDBQ DBQ20120621212509806/21/12 21:25:31  5-MIN KDBQ 220325Z AUTO 30004KT 10SM CLR 19/12 A3003 970 65 1700 300/04 RMK AO2
94908KDBQ DBQ20120621213009806/21/12 21:30:31  5-MIN KDBQ 220330Z AUTO 31005KT 10SM CLR 18/12 A3003 970 67 1600 300/05 RMK AO2
94908KDBQ DBQ20120621213509806/21/12 21:35:31  5-MIN KDBQ 220335Z AUTO 31004KT 10SM CLR 18/12 A3003 970 67 1600 300/04 RMK AO2
94908KDBQ DBQ20120621214009806/21/12 21:40:31  5-MIN KDBQ 220340Z AUTO 30004KT 10SM CLR 18/12 A3003 970 67 1600 300/04 RMK AO2
94908KDBQ DBQ20120621214509806/21/12 21:45:31  5-MIN KDBQ 220345Z AUTO 29004KT 10SM CLR 18/12 A3004 970 67 1600 290/04 RMK AO2
94908KDBQ DBQ20120621215011506/21/12 21:50:31  5-MIN KDBQ 220350Z AUTO 29004KT 10SM CLR 18/12 A3004 970 67 1600 290/04 RMK AO2 SLP166 T01830122
94908KDBQ DBQ20120621215509806/21/12 21:55:31  5-MIN KDBQ 220355Z AUTO 29004KT 10SM CLR 18/12 A3004 970 67 1600 290/04 RMK AO2
94908KDBQ DBQ20120621220009806/21/12 22:00:31  5-MIN KDBQ 220400Z AUTO 29004KT 10SM CLR 17/12 A3004 970 72 1500 290/04 RMK AO2
94908KDBQ DBQ20120621220509806/21/12 22:05:31  5-MIN KDBQ 220405Z AUTO 29004KT 10SM CLR 17/12 A3004 970 75 1400 290/04 RMK AO2
94908KDBQ DBQ20120621221009806/21/12 22:10:31  5-MIN KDBQ 220410Z AUTO 29005KT 10SM CLR 17/12 A3004 970 75 1400 290/05 RMK AO2
94908KDBQ DBQ20120621221509806/21/12 22:15:31  5-MIN KDBQ 220415Z AUTO 29005KT 10SM CLR 16/12 A3004 970 77 1400 290/05 RMK AO2
94908KDBQ DBQ20120621222009806/21/12 22:20:31  5-MIN KDBQ 220420Z AUTO 29005KT 10SM CLR 16/13 A3004 970 80 1400 290/05 RMK AO2
94908KDBQ DBQ20120621222509806/21/12 22:25:31  5-MIN KDBQ 220425Z AUTO 29005KT 10SM CLR 16/12 A3004 970 80 1300 290/05 RMK AO2
94908KDBQ DBQ20120621223009806/21/12 22:30:31  5-MIN KDBQ 220430Z AUTO 29005KT 10SM CLR 16/13 A3004 970 83 1300 290/05 RMK AO2
94908KDBQ DBQ20120621223509806/21/12 22:35:31  5-MIN KDBQ 220435Z AUTO 29004KT 10SM CLR 16/13 A3004 960 83 1300 290/04 RMK AO2
94908KDBQ DBQ20120621224009806/21/12 22:40:31  5-MIN KDBQ 220440Z AUTO 29004KT 10SM CLR 16/13 A3004 960 83 1300 290/04 RMK AO2
94908KDBQ DBQ20120621224509806/21/12 22:45:31  5-MIN KDBQ 220445Z AUTO 29005KT 10SM CLR 15/12 A3004 960 83 1200 290/05 RMK AO2
94908KDBQ DBQ20120621225011506/21/12 22:50:31  5-MIN KDBQ 220450Z AUTO 29005KT 10SM CLR 15/12 A3004 960 83 1200 290/05 RMK AO2 SLP170 T01500122
94908KDBQ DBQ20120621225509806/21/12 22:55:31  5-MIN KDBQ 220455Z AUTO 29004KT 10SM CLR 15/12 A3004 960 83 1200 290/04 RMK AO2
94908KDBQ DBQ20120621230009806/21/12 23:00:31  5-MIN KDBQ 220500Z AUTO 29003KT 10SM CLR 14/13 A3004 960 90 1200 290/03 RMK AO2
94908KDBQ DBQ20120621230509806/21/12 23:05:31  5-MIN KDBQ 220505Z AUTO 00000KT 10SM CLR 15/13 A3004 960 86 1200 000/00 RMK AO2
94908KDBQ DBQ20120621231009806/21/12 23:10:31  5-MIN KDBQ 220510Z AUTO 00000KT 10SM CLR 16/12 A3004 960 80 1300 000/00 RMK AO2
94908KDBQ DBQ20120621231509806/21/12 23:15:31  5-MIN KDBQ 220515Z AUTO 24003KT 10SM CLR 15/12 A3005 960 83 1200 240/03 RMK AO2
94908KDBQ DBQ20120621232009806/21/12 23:20:31  5-MIN KDBQ 220520Z AUTO 22003KT 10SM CLR 15/12 A3005 960 83 1200 220/03 RMK AO2
94908KDBQ DBQ20120621232509806/21/12 23:25:31  5-MIN KDBQ 220525Z AUTO 21003KT 10SM CLR 16/12 A3005 960 80 1300 210/03 RMK AO2
94908KDBQ DBQ20120621233009806/21/12 23:30:31  5-MIN KDBQ 220530Z AUTO 21004KT 10SM CLR 15/12 A3005 960 83 1200 210/04 RMK AO2
94908KDBQ DBQ20120621233509806/21/12 23:35:31  5-MIN KDBQ 220535Z AUTO 22003KT 10SM CLR 15/12 A3005 960 83 1200 220/03 RMK AO2
94908KDBQ DBQ20120621234009806/21/12 23:40:31  5-MIN KDBQ 220540Z AUTO 24003KT 10SM CLR 14/12 A3005 960 86 1200 230/03 RMK AO2
94908KDBQ DBQ20120621234509806/21/12 23:45:31  5-MIN KDBQ 220545Z AUTO 25003KT 10SM CLR 14/12 A3004 960 90 1100 250/03 RMK AO2
94908KDBQ DBQ20120621235014306/21/12 23:50:31  5-MIN KDBQ 220550Z AUTO 23003KT 10SM CLR 14/13 A3004 960 90 1200 230/03 RMK AO2 SLP170 T01440128 10244 20139 402670139 53012
94908KDBQ DBQ20120621235509806/21/12 23:55:31  5-MIN KDBQ 220555Z AUTO 00000KT 10SM CLR 14/12 A3004 960 86 1200 000/00 RMK AO2
94908KDBQ DBQ20120622000009806/22/12 00:00:38  5-MIN KDBQ 220600Z AUTO 22003KT 10SM CLR 14/12 A3004 960 86 1200 220/03 RMK AO2
94908KDBQ DBQ20120622000509806/22/12 00:05:31  5-MIN KDBQ 220605Z AUTO 23003KT 10SM CLR 15/13 A3004 960 86 1200 230/03 RMK AO2
94908KDBQ DBQ20120622001009806/22/12 00:10:31  5-MIN KDBQ 220610Z AUTO 00000KT 10SM CLR 15/13 A3004 960 86 1200 000/00 RMK AO2
94908KDBQ DBQ20120622001509806/22/12 00:15:32  5-MIN KDBQ 220615Z AUTO 00000KT 10SM CLR 15/12 A3004 960 83 1200 000/00 RMK AO2
94908KDBQ DBQ20120622002009806/22/12 00:20:31  5-MIN KDBQ 220620Z AUTO 00000KT 10SM CLR 14/12 A3004 960 86 1200 000/00 RMK AO2
94908KDBQ DBQ20120622002509806/22/12 00:25:31  5-MIN KDBQ 220625Z AUTO 00000KT 10SM CLR 15/12 A3004 960 83 1200 000/00 RMK AO2
94908KDBQ DBQ20120622003009806/22/12 00:30:31  5-MIN KDBQ 220630Z AUTO 00000KT 10SM CLR 15/12 A3004 960 83 1200 000/00 RMK AO2
94908KDBQ DBQ20120622003509806/22/12 00:35:31  5-MIN KDBQ 220635Z AUTO 00000KT 10SM CLR 15/12 A3004 970 83 1200 000/00 RMK AO2
94908KDBQ DBQ20120622004009806/22/12 00:40:31  5-MIN KDBQ 220640Z AUTO 00000KT 10SM CLR 15/12 A3004 970 83 1200 000/00 RMK AO2
94908KDBQ DBQ20120622004509806/22/12 00:45:31  5-MIN KDBQ 220645Z AUTO 00000KT 10SM CLR 14/12 A3004 970 86 1200 000/00 RMK AO2
94908KDBQ DBQ20120622005011506/22/12 00:50:31  5-MIN KDBQ 220650Z AUTO 00000KT 10SM CLR 14/12 A3004 970 90 1100 000/00 RMK AO2 SLP169 T01390122
94908KDBQ DBQ20120622005509806/22/12 00:55:31  5-MIN KDBQ 220655Z AUTO 00000KT 10SM CLR 14/12 A3004 970 90 1100 000/00 RMK AO2
94908KDBQ DBQ20120622010009806/22/12 01:00:31  5-MIN KDBQ 220700Z AUTO 00000KT 10SM CLR 14/12 A3004 970 86 1200 000/00 RMK AO2
94908KDBQ DBQ20120622010509806/22/12 01:05:31  5-MIN KDBQ 220705Z AUTO 00000KT 10SM CLR 14/12 A3004 970 86 1200 000/00 RMK AO2
94908KDBQ DBQ20120622011009806/22/12 01:10:31  5-MIN KDBQ 220710Z AUTO 00000KT 10SM CLR 14/12 A3004 970 86 1200 000/00 RMK AO2
94908KDBQ DBQ20120622011509806/22/12 01:15:31  5-MIN KDBQ 220715Z AUTO 00000KT 10SM CLR 14/12 A3004 970 86 1200 000/00 RMK AO2
94908KDBQ DBQ20120622012009806/22/12 01:20:31  5-MIN KDBQ 220720Z AUTO 00000KT 10SM CLR 14/12 A3004 970 86 1200 000/00 RMK AO2
94908KDBQ DBQ20120622012509806/22/12 01:25:31  5-MIN KDBQ 220725Z AUTO 00000KT 10SM CLR 14/12 A3004 970 86 1200 000/00 RMK AO2
94908KDBQ DBQ20120622013009806/22/12 01:30:31  5-MIN KDBQ 220730Z AUTO 00000KT 10SM CLR 14/12 A3004 970 86 1200 000/00 RMK AO2
94908KDBQ DBQ20120622013509806/22/12 01:35:31  5-MIN KDBQ 220735Z AUTO 00000KT 10SM CLR 15/12 A3004 970 83 1200 000/00 RMK AO2
94908KDBQ DBQ20120622014009806/22/12 01:40:31  5-MIN KDBQ 220740Z AUTO 00000KT 10SM CLR 15/12 A3004 970 83 1200 000/00 RMK AO2
94908KDBQ DBQ20120622014509806/22/12 01:45:31  5-MIN KDBQ 220745Z AUTO 00000KT 10SM CLR 16/12 A3004 970 80 1300 000/00 RMK AO2
94908KDBQ DBQ20120622015011506/22/12 01:50:31  5-MIN KDBQ 220750Z AUTO 29003KT 10SM CLR 15/12 A3004 970 80 1200 290/03 RMK AO2 SLP167 T01500117
94908KDBQ DBQ20120622015509806/22/12 01:55:31  5-MIN KDBQ 220755Z AUTO 00000KT 10SM CLR 14/12 A3004 970 83 1200 000/00 RMK AO2
94908KDBQ DBQ20120622020009806/22/12 02:00:31  5-MIN KDBQ 220800Z AUTO 00000KT 10SM CLR 15/12 A3004 970 83 1200 000/00 RMK AO2
94908KDBQ DBQ20120622020509806/22/12 02:05:31  5-MIN KDBQ 220805Z AUTO 00000KT 10SM CLR 14/12 A3004 970 83 1200 000/00 RMK AO2
94908KDBQ DBQ20120622021009806/22/12 02:10:31  5-MIN KDBQ 220810Z AUTO 00000KT 10SM CLR 15/12 A3004 970 80 1200 000/00 RMK AO2
94908KDBQ DBQ20120622021509806/22/12 02:15:31  5-MIN KDBQ 220815Z AUTO 00000KT 10SM CLR 16/12 A3004 970 77 1300 000/00 RMK AO2
94908KDBQ DBQ20120622022009806/22/12 02:20:31  5-MIN KDBQ 220820Z AUTO 00000KT 10SM CLR 14/12 A3004 970 83 1200 000/00 RMK AO2
94908KDBQ DBQ20120622022509806/22/12 02:25:31  5-MIN KDBQ 220825Z AUTO 00000KT 10SM CLR 14/12 A3004 970 83 1200 000/00 RMK AO2
94908KDBQ DBQ20120622023009806/22/12 02:30:31  5-MIN KDBQ 220830Z AUTO 00000KT 10SM CLR 14/12 A3004 970 83 1200 000/00 RMK AO2
94908KDBQ DBQ20120622023509806/22/12 02:35:31  5-MIN KDBQ 220835Z AUTO 00000KT 10SM CLR 14/12 A3004 970 83 1200 000/00 RMK AO2
94908KDBQ DBQ20120622024009806/22/12 02:40:31  5-MIN KDBQ 220840Z AUTO 00000KT 10SM CLR 14/12 A3004 970 86 1100 000/00 RMK AO2
94908KDBQ DBQ20120622024509806/22/12 02:45:31  5-MIN KDBQ 220845Z AUTO 00000KT 10SM CLR 14/12 A3004 970 83 1200 000/00 RMK AO2
94908KDBQ DBQ20120622025012106/22/12 02:50:31  5-MIN KDBQ 220850Z AUTO 00000KT 10SM CLR 14/12 A3004 970 83 1200 000/00 RMK AO2 SLP168 T01440117 50007
94908KDBQ DBQ20120622025509806/22/12 02:55:31  5-MIN KDBQ 220855Z AUTO 00000KT 10SM CLR 14/12 A3004 970 86 1100 000/00 RMK AO2
94908KDBQ DBQ20120622030009806/22/12 03:00:31  5-MIN KDBQ 220900Z AUTO 00000KT 10SM CLR 14/12 A3004 970 86 1100 000/00 RMK AO2
94908KDBQ DBQ20120622030509806/22/12 03:05:31  5-MIN KDBQ 220905Z AUTO 00000KT 10SM CLR 14/12 A3004 970 86 1100 000/00 RMK AO2
94908KDBQ DBQ20120622031009806/22/12 03:10:31  5-MIN KDBQ 220910Z AUTO 00000KT 10SM CLR 14/12 A3004 960 86 1100 000/00 RMK AO2
94908KDBQ DBQ20120622031509806/22/12 03:15:31  5-MIN KDBQ 220915Z AUTO 00000KT 10SM CLR 14/12 A3004 960 86 1100 000/00 RMK AO2
94908KDBQ DBQ20120622032009806/22/12 03:20:31  5-MIN KDBQ 220920Z AUTO 00000KT 10SM CLR 14/11 A3004 960 83 1100 000/00 RMK AO2
94908KDBQ DBQ20120622032509806/22/12 03:25:31  5-MIN KDBQ 220925Z AUTO 00000KT 10SM CLR 14/11 A3004 960 83 1100 000/00 RMK AO2
94908KDBQ DBQ20120622033009806/22/12 03:30:31  5-MIN KDBQ 220930Z AUTO 00000KT 10SM CLR 14/12 A3004 960 86 1100 000/00 RMK AO2
94908KDBQ DBQ20120622033509806/22/12 03:35:31  5-MIN KDBQ 220935Z AUTO 00000KT 10SM CLR 14/12 A3004 960 86 1100 000/00 RMK AO2
94908KDBQ DBQ20120622034009806/22/12 03:40:31  5-MIN KDBQ 220940Z AUTO 00000KT 10SM CLR 14/12 A3005 960 86 1100 000/00 RMK AO2
94908KDBQ DBQ20120622034509806/22/12 03:45:31  5-MIN KDBQ 220945Z AUTO 00000KT 10SM CLR 14/12 A3005 960 86 1100 000/00 RMK AO2
94908KDBQ DBQ20120622035011506/22/12 03:50:31  5-MIN KDBQ 220950Z AUTO 00000KT 10SM CLR 13/11 A3005 960 86 1000 000/00 RMK AO2 SLP171 T01330111
94908KDBQ DBQ20120622035509806/22/12 03:55:31  5-MIN KDBQ 220955Z AUTO 00000KT 10SM CLR 13/11 A3005 960 86 1000 000/00 RMK AO2
94908KDBQ DBQ20120622040009806/22/12 04:00:31  5-MIN KDBQ 221000Z AUTO 00000KT 10SM CLR 14/12 A3005 960 86 1100 000/00 RMK AO2
94908KDBQ DBQ20120622040509806/22/12 04:05:31  5-MIN KDBQ 221005Z AUTO 21003KT 10SM CLR 14/12 A3005 960 86 1100 210/03 RMK AO2
94908KDBQ DBQ20120622041009806/22/12 04:10:31  5-MIN KDBQ 221010Z AUTO 00000KT 10SM CLR 13/11 A3005 960 86 1000 000/00 RMK AO2
94908KDBQ DBQ20120622041509806/22/12 04:15:31  5-MIN KDBQ 221015Z AUTO 00000KT 10SM CLR 13/11 A3005 960 86 1000 000/00 RMK AO2
94908KDBQ DBQ20120622042009806/22/12 04:20:31  5-MIN KDBQ 221020Z AUTO 00000KT 10SM CLR 13/11 A3005 960 86 1000 000/00 RMK AO2
94908KDBQ DBQ20120622042509806/22/12 04:25:31  5-MIN KDBQ 221025Z AUTO 00000KT 10SM CLR 13/11 A3005 960 89 1000 000/00 RMK AO2
94908KDBQ DBQ20120622043009806/22/12 04:30:31  5-MIN KDBQ 221030Z AUTO 00000KT 10SM CLR 13/11 A3005 960 86 1000 000/00 RMK AO2
94908KDBQ DBQ20120622043509706/22/12 04:35:31  5-MIN KDBQ 221035Z AUTO 00000KT 10SM CLR 12/11 A3005 960 89 900 000/00 RMK AO2
94908KDBQ DBQ20120622044009806/22/12 04:40:31  5-MIN KDBQ 221040Z AUTO 20003KT 10SM CLR 13/11 A3005 960 86 1000 200/03 RMK AO2
94908KDBQ DBQ20120622044509806/22/12 04:45:31  5-MIN KDBQ 221045Z AUTO 00000KT 10SM CLR 13/11 A3005 960 86 1000 000/00 RMK AO2
94908KDBQ DBQ20120622045011006/22/12 04:50:31  5-MIN KDBQ 221050Z 22003KT 10SM CLR 13/11 A3005 960 86 1000 220/03 RMK AO2 SLP171 T01280106
94908KDBQ DBQ20120622045509306/22/12 04:55:31  5-MIN KDBQ 221055Z 22003KT 10SM CLR 13/11 A3005 960 86 1000 220/03 RMK AO2
94908KDBQ DBQ20120622050009306/22/12 05:00:31  5-MIN KDBQ 221100Z 21003KT 10SM CLR 13/11 A3005 960 86 1000 200/03 RMK AO2
94908KDBQ DBQ20120622050509306/22/12 05:05:31  5-MIN KDBQ 221105Z 00000KT 10SM CLR 13/11 A3005 960 86 1000 000/00 RMK AO2
94908KDBQ DBQ20120622051009306/22/12 05:10:31  5-MIN KDBQ 221110Z 00000KT 10SM CLR 14/12 A3005 960 86 1100 000/00 RMK AO2
94908KDBQ DBQ20120622051509306/22/12 05:15:31  5-MIN KDBQ 221115Z 00000KT 10SM CLR 14/12 A3005 960 86 1100 000/00 RMK AO2
94908KDBQ DBQ20120622052009306/22/12 05:20:31  5-MIN KDBQ 221120Z 00000KT 10SM CLR 14/12 A3005 960 86 1100 000/00 RMK AO2
94908KDBQ DBQ20120622052509306/22/12 05:25:31  5-MIN KDBQ 221125Z 00000KT 10SM CLR 14/12 A3005 960 83 1200 000/00 RMK AO2
94908KDBQ DBQ20120622053009306/22/12 05:30:31  5-MIN KDBQ 221130Z 00000KT 10SM CLR 14/12 A3005 960 86 1200 000/00 RMK AO2
94908KDBQ DBQ20120622053509306/22/12 05:35:31  5-MIN KDBQ 221135Z 00000KT 10SM CLR 15/12 A3005 960 83 1200 000/00 RMK AO2
94908KDBQ DBQ20120622054009306/22/12 05:40:31  5-MIN KDBQ 221140Z 00000KT 10SM CLR 15/12 A3005 960 83 1200 000/00 RMK AO2
94908KDBQ DBQ20120622054509306/22/12 05:45:31  5-MIN KDBQ 221145Z 00000KT 10SM CLR 15/13 A3005 950 86 1200 000/00 RMK AO2
94908KDBQ DBQ20120622055013406/22/12 05:50:31  5-MIN KDBQ 221150Z 00000KT 10SM CLR 15/13 A3006 950 86 1200 000/00 RMK AO2 SLP174 7//// T01500128 10156 20122 55001
94908KDBQ DBQ20120622055509306/22/12 05:55:31  5-MIN KDBQ 221155Z 00000KT 10SM CLR 15/13 A3005 950 86 1200 000/00 RMK AO2
94908KDBQ DBQ20120622060009306/22/12 06:00:31  5-MIN KDBQ 221200Z 00000KT 10SM CLR 16/13 A3006 950 83 1300 000/00 RMK AO2
94908KDBQ DBQ20120622060509306/22/12 06:05:31  5-MIN KDBQ 221205Z 00000KT 10SM CLR 16/13 A3005 960 80 1300 000/00 RMK AO2
94908KDBQ DBQ20120622061009306/22/12 06:10:31  5-MIN KDBQ 221210Z 00000KT 10SM CLR 17/14 A3006 950 83 1400 000/00 RMK AO2
94908KDBQ DBQ20120622061509306/22/12 06:15:31  5-MIN KDBQ 221215Z 00000KT 10SM CLR 17/14 A3006 950 80 1500 000/00 RMK AO2
94908KDBQ DBQ20120622062009306/22/12 06:20:31  5-MIN KDBQ 221220Z 00000KT 10SM CLR 18/14 A3006 950 78 1500 000/00 RMK AO2
94908KDBQ DBQ20120622062509306/22/12 06:25:31  5-MIN KDBQ 221225Z 00000KT 10SM CLR 18/14 A3006 950 78 1500 000/00 RMK AO2
94908KDBQ DBQ20120622063009306/22/12 06:30:31  5-MIN KDBQ 221230Z 00000KT 10SM CLR 18/14 A3006 950 75 1600 000/00 RMK AO2
94908KDBQ DBQ20120622063509306/22/12 06:35:31  5-MIN KDBQ 221235Z 00000KT 10SM CLR 19/14 A3006 950 72 1700 000/00 RMK AO2
94908KDBQ DBQ20120622064009306/22/12 06:40:31  5-MIN KDBQ 221240Z 26004KT 10SM CLR 20/14 A3006 950 67 1800 260/04 RMK AO2
94908KDBQ DBQ20120622064509306/22/12 06:45:31  5-MIN KDBQ 221245Z 27004KT 10SM CLR 20/14 A3006 950 67 1800 260/04 RMK AO2
94908KDBQ DBQ20120622065011006/22/12 06:50:31  5-MIN KDBQ 221250Z 27005KT 10SM CLR 21/13 A3006 950 63 1900 270/05 RMK AO2 SLP172 T02060133
94908KDBQ DBQ20120622065509306/22/12 06:55:31  5-MIN KDBQ 221255Z 26004KT 10SM CLR 21/13 A3006 950 63 1900 260/04 RMK AO2
94908KDBQ DBQ20120622070009306/22/12 07:00:31  5-MIN KDBQ 221300Z 26005KT 10SM CLR 21/13 A3006 950 63 1900 250/05 RMK AO2
94908KDBQ DBQ20120622070509306/22/12 07:05:31  5-MIN KDBQ 221305Z 26007KT 10SM CLR 21/13 A3006 950 58 1900 260/07 RMK AO2
94908KDBQ DBQ20120622071009306/22/12 07:10:31  5-MIN KDBQ 221310Z 26006KT 10SM CLR 21/13 A3006 950 61 1900 260/06 RMK AO2
94908KDBQ DBQ20120622071509306/22/12 07:15:31  5-MIN KDBQ 221315Z 27008KT 10SM CLR 22/13 A3006 950 58 2000 270/08 RMK AO2
94908KDBQ DBQ20120622072009306/22/12 07:20:31  5-MIN KDBQ 221320Z 27007KT 10SM CLR 21/13 A3006 950 58 1900 270/07 RMK AO2
94908KDBQ DBQ20120622072509306/22/12 07:25:31  5-MIN KDBQ 221325Z 27007KT 10SM CLR 22/13 A3006 950 58 2000 270/07 RMK AO2
94908KDBQ DBQ20120622073009306/22/12 07:30:31  5-MIN KDBQ 221330Z 27006KT 10SM CLR 22/13 A3006 950 58 2000 260/06 RMK AO2
94908KDBQ DBQ20120622073509306/22/12 07:35:31  5-MIN KDBQ 221335Z 26007KT 10SM CLR 22/13 A3007 940 58 2000 260/07 RMK AO2
94908KDBQ DBQ20120622074009306/22/12 07:40:31  5-MIN KDBQ 221340Z 27006KT 10SM CLR 22/13 A3007 940 54 2000 270/06 RMK AO2
94908KDBQ DBQ20120622074509306/22/12 07:45:31  5-MIN KDBQ 221345Z 27007KT 10SM CLR 22/13 A3007 940 54 2000 270/07 RMK AO2
94908KDBQ DBQ20120622075011306/22/12 07:50:31  5-MIN KDBQ 221350Z 27008KT 10SM FEW070 22/13 A3007 940 54 2000 270/08 RMK AO2 SLP177 T02220128
94908KDBQ DBQ20120622075509606/22/12 07:55:31  5-MIN KDBQ 221355Z 27008KT 10SM FEW070 23/13 A3007 940 53 2100 270/08 RMK AO2
94908KDBQ DBQ20120622080009606/22/12 08:00:31  5-MIN KDBQ 221400Z 28009KT 10SM FEW070 22/13 A3007 940 56 2000 280/09 RMK AO2
94908KDBQ DBQ20120622080509606/22/12 08:05:31  5-MIN KDBQ 221405Z 28006KT 10SM SCT070 22/13 A3007 940 54 2000 280/06 RMK AO2
94908KDBQ DBQ20120622081009606/22/12 08:10:31  5-MIN KDBQ 221410Z 28007KT 10SM BKN070 23/13 A3007 940 53 2200 280/07 RMK AO2
94908KDBQ DBQ20120622081509606/22/12 08:15:31  5-MIN KDBQ 221415Z 28009KT 10SM BKN065 23/13 A3007 940 51 2200 280/09 RMK AO2
94908KDBQ DBQ20120622082009606/22/12 08:20:31  5-MIN KDBQ 221420Z 29006KT 10SM BKN065 23/13 A3007 940 53 2100 280/06 RMK AO2
94908KDBQ DBQ20120622082509606/22/12 08:25:31  5-MIN KDBQ 221425Z 28006KT 10SM BKN065 22/13 A3007 940 56 2000 280/06 RMK AO2
94908KDBQ DBQ20120622083009606/22/12 08:30:31  5-MIN KDBQ 221430Z 28006KT 10SM SCT065 23/13 A3007 940 55 2100 280/06 RMK AO2
94908KDBQ DBQ20120622083509606/22/12 08:35:31  5-MIN KDBQ 221435Z 26008KT 10SM SCT065 23/13 A3007 940 55 2100 260/08 RMK AO2
94908KDBQ DBQ20120622084009606/22/12 08:40:31  5-MIN KDBQ 221440Z 27008KT 10SM FEW065 24/13 A3007 940 51 2200 270/08 RMK AO2
94908KDBQ DBQ20120622084509606/22/12 08:45:31  5-MIN KDBQ 221445Z 28010KT 10SM FEW070 24/13 A3007 940 49 2200 280/10 RMK AO2
94908KDBQ DBQ20120622085011906/22/12 08:50:31  5-MIN KDBQ 221450Z 27009KT 10SM FEW065 24/13 A3007 940 49 2200 270/09 RMK AO2 SLP177 T02390128 53004
94908KDBQ DBQ20120622085509606/22/12 08:55:31  5-MIN KDBQ 221455Z 30010KT 10SM FEW065 24/13 A3007 940 47 2300 300/10 RMK AO2
94908KDBQ DBQ20120622090009606/22/12 09:00:31  5-MIN KDBQ 221500Z 28009KT 10SM FEW065 24/13 A3007 940 47 2300 280/09 RMK AO2
94908KDBQ DBQ20120622090509606/22/12 09:05:31  5-MIN KDBQ 221505Z 29009KT 10SM FEW065 24/13 A3007 940 47 2300 290/09 RMK AO2
94908KDBQ DBQ20120622091009606/22/12 09:10:31  5-MIN KDBQ 221510Z 28009KT 10SM FEW070 24/12 A3007 940 46 2300 280/09 RMK AO2
94908KDBQ DBQ20120622091509306/22/12 09:15:31  5-MIN KDBQ 221515Z 27010KT 10SM CLR 24/12 A3007 940 44 2300 270/10 RMK AO2
94908KDBQ DBQ20120622092009606/22/12 09:20:31  5-MIN KDBQ 221520Z 27010KT 10SM FEW065 24/12 A3007 940 44 2300 270/10 RMK AO2
94908KDBQ DBQ20120622092509606/22/12 09:25:31  5-MIN KDBQ 221525Z 27011KT 10SM FEW065 24/12 A3007 940 46 2300 270/11 RMK AO2
94908KDBQ DBQ20120622093009606/22/12 09:30:31  5-MIN KDBQ 221530Z 27010KT 10SM FEW065 24/12 A3007 940 46 2300 270/10 RMK AO2
94908KDBQ DBQ20120622093509606/22/12 09:35:31  5-MIN KDBQ 221535Z 27009KT 10SM FEW065 25/13 A3007 940 46 2400 270/09 RMK AO2
94908KDBQ DBQ20120622094010206/22/12 09:40:31  5-MIN KDBQ 221540Z 29009G16KT 10SM FEW065 25/13 A3007 940 46 2400 290/09G16 RMK AO2
94908KDBQ DBQ20120622094510206/22/12 09:45:31  5-MIN KDBQ 221545Z 27009G16KT 10SM FEW065 25/13 A3007 940 46 2400 270/09G16 RMK AO2
94908KDBQ DBQ20120622095011006/22/12 09:50:31  5-MIN KDBQ 221550Z 27011KT 10SM CLR 25/12 A3007 940 44 2400 270/11 RMK AO2 SLP176 T02500122
94908KDBQ DBQ20120622095509306/22/12 09:55:31  5-MIN KDBQ 221555Z 28008KT 10SM CLR 25/12 A3007 940 44 2400 280/08 RMK AO2
94908KDBQ DBQ20120622100009306/22/12 10:00:31  5-MIN KDBQ 221600Z 28009KT 10SM CLR 25/12 A3006 950 44 2400 280/09 RMK AO2
94908KDBQ DBQ20120622100509906/22/12 10:05:31  5-MIN KDBQ 221605Z 28013G18KT 10SM CLR 26/13 A3006 950 44 2400 280/13G18 RMK AO2
94908KDBQ DBQ20120622101009906/22/12 10:10:31  5-MIN KDBQ 221610Z 28011G18KT 10SM CLR 26/12 A3006 950 41 2400 280/11G18 RMK AO2
94908KDBQ DBQ20120622101509306/22/12 10:15:31  5-MIN KDBQ 221615Z 28011KT 10SM CLR 26/12 A3006 950 43 2400 280/11 RMK AO2
94908KDBQ DBQ20120622102009306/22/12 10:20:31  5-MIN KDBQ 221620Z 28010KT 10SM CLR 26/12 A3006 950 40 2500 280/10 RMK AO2
94908KDBQ DBQ20120622102509306/22/12 10:25:31  5-MIN KDBQ 221625Z 28009KT 10SM CLR 26/12 A3006 950 41 2400 280/09 RMK AO2
94908KDBQ DBQ20120622103009906/22/12 10:30:31  5-MIN KDBQ 221630Z 28011G16KT 10SM CLR 26/12 A3006 950 40 2500 280/11G16 RMK AO2
94908KDBQ DBQ20120622103509306/22/12 10:35:31  5-MIN KDBQ 221635Z 28012KT 10SM CLR 26/12 A3006 950 40 2500 280/12 RMK AO2
94908KDBQ DBQ20120622104009306/22/12 10:40:31  5-MIN KDBQ 221640Z 29010KT 10SM CLR 27/12 A3006 950 38 2600 280/10 RMK AO2
94908KDBQ DBQ20120622104509306/22/12 10:45:31  5-MIN KDBQ 221645Z 30009KT 10SM CLR 27/11 A3006 950 36 2600 300/09 RMK AO2
94908KDBQ DBQ20120622105011906/22/12 10:50:31  5-MIN KDBQ 221650Z 28010G15KT 10SM FEW065 27/10 A3006 950 34 2600 280/10G15 RMK AO2 SLP173 T02670100
94908KDBQ DBQ20120622105509606/22/12 10:55:31  5-MIN KDBQ 221655Z 28011KT 10SM FEW065 27/10 A3006 950 34 2600 280/11 RMK AO2
94908KDBQ DBQ20120622110009606/22/12 11:00:31  5-MIN KDBQ 221700Z 29007KT 10SM FEW070 27/09 A3006 950 33 2600 290/07 RMK AO2
94908KDBQ DBQ20120622110509606/22/12 11:05:31  5-MIN KDBQ 221705Z 28012KT 10SM FEW070 26/09 A3006 950 34 2500 280/12 RMK AO2
94908KDBQ DBQ20120622111009606/22/12 11:10:31  5-MIN KDBQ 221710Z 31015KT 10SM FEW065 27/09 A3006 950 33 2600 310/15 RMK AO2
94908KDBQ DBQ20120622111510206/22/12 11:15:31  5-MIN KDBQ 221715Z 32007G17KT 10SM FEW065 27/09 A3006 950 33 2600 320/07G17 RMK AO2
94908KDBQ DBQ20120622112010206/22/12 11:20:31  5-MIN KDBQ 221720Z 28014G18KT 10SM FEW065 27/10 A3006 950 33 2600 280/14G18 RMK AO2
94908KDBQ DBQ20120622112510206/22/12 11:25:31  5-MIN KDBQ 221725Z 30008G18KT 10SM FEW065 27/10 A3005 950 33 2600 300/08G18 RMK AO2
94908KDBQ DBQ20120622113010206/22/12 11:30:31  5-MIN KDBQ 221730Z 30012G17KT 10SM FEW065 27/10 A3005 950 34 2600 300/12G17 RMK AO2
94908KDBQ DBQ20120622113510206/22/12 11:35:31  5-MIN KDBQ 221735Z 28007G17KT 10SM FEW070 27/11 A3006 950 34 2600 280/07G17 RMK AO2
94908KDBQ DBQ20120622114010206/22/12 11:40:31  5-MIN KDBQ 221740Z 28011G15KT 10SM SCT065 26/10 A3006 950 37 2400 270/11G15 RMK AO2
94908KDBQ DBQ20120622114509606/22/12 11:45:31  5-MIN KDBQ 221745Z 32012KT 10SM SCT065 27/10 A3005 950 34 2600 320/12 RMK AO2
94908KDBQ DBQ20120622115013706/22/12 11:50:31  5-MIN KDBQ 221750Z VRB06G15KT 10SM SCT065 27/10 A3006 950 34 2600 VRB/06G15 RMK AO2 SLP173 T02670100 10272 20150 51004
94908KDBQ DBQ20120622115510206/22/12 11:55:31  5-MIN KDBQ 221755Z 31009G24KT 10SM BKN065 27/11 A3006 950 36 2600 300/09G24 RMK AO2
94908KDBQ DBQ20120622120010206/22/12 12:00:31  5-MIN KDBQ 221800Z 31010G24KT 10SM BKN065 27/10 A3006 950 34 2600 310/10G24 RMK AO2
94908KDBQ DBQ20120622120510206/22/12 12:05:31  5-MIN KDBQ 221805Z 28008G17KT 10SM BKN070 27/09 A3006 950 33 2600 280/08G17 RMK AO2
94908KDBQ DBQ20120622121010206/22/12 12:10:31  5-MIN KDBQ 221810Z 30011G16KT 10SM SCT070 27/09 A3005 960 32 2600 300/11G16 RMK AO2
94908KDBQ DBQ20120622121510206/22/12 12:15:31  5-MIN KDBQ 221815Z 31010G16KT 10SM SCT070 27/09 A3005 960 32 2600 300/10G16 RMK AO2
94908KDBQ DBQ20120622122010206/22/12 12:20:31  5-MIN KDBQ 221820Z 28010G16KT 10SM FEW070 26/09 A3005 960 34 2500 280/10G16 RMK AO2
94908KDBQ DBQ20120622122510206/22/12 12:25:31  5-MIN KDBQ 221825Z 30012G17KT 10SM FEW070 27/10 A3005 960 33 2600 300/12G17 RMK AO2
94908KDBQ DBQ20120622123010206/22/12 12:30:31  5-MIN KDBQ 221830Z 30008G17KT 10SM FEW070 27/09 A3005 960 32 2600 300/08G17 RMK AO2
94908KDBQ DBQ20120622123509606/22/12 12:35:31  5-MIN KDBQ 221835Z 29005KT 10SM SCT065 26/09 A3005 960 34 2500 290/05 RMK AO2
94908KDBQ DBQ20120622124010206/22/12 12:40:31  5-MIN KDBQ 221840Z 31010G15KT 10SM SCT065 28/11 A3005 960 33 2700 300/10G15 RMK AO2
94908KDBQ DBQ20120622124510206/22/12 12:45:31  5-MIN KDBQ 221845Z 31007G15KT 10SM BKN065 27/09 A3005 960 33 2600 310/07G15 RMK AO2
94908KDBQ DBQ20120622125011306/22/12 12:50:31  5-MIN KDBQ 221850Z 32010KT 10SM BKN065 26/09 A3005 960 34 2500 310/10 RMK AO2 SLP171 T02610094
94908KDBQ DBQ20120622125509606/22/12 12:55:31  5-MIN KDBQ 221855Z 32007KT 10SM SCT065 27/09 A3004 960 31 2600 320/07 RMK AO2
94908KDBQ DBQ20120622130009606/22/12 13:00:31  5-MIN KDBQ 221900Z 26008KT 10SM SCT065 27/09 A3004 970 32 2600 260/08 RMK AO2
94908KDBQ DBQ20120622130509606/22/12 13:05:31  5-MIN KDBQ 221905Z 31008KT 10SM SCT070 27/09 A3004 960 32 2600 310/08 RMK AO2
94908KDBQ DBQ20120622131009606/22/12 13:10:31  5-MIN KDBQ 221910Z 32009KT 10SM BKN070 28/09 A3004 970 31 2700 310/09 RMK AO2
94908KDBQ DBQ20120622131509606/22/12 13:15:31  5-MIN KDBQ 221915Z 30010KT 10SM SCT070 28/10 A3004 970 32 2700 300/10 RMK AO2
94908KDBQ DBQ20120622132009606/22/12 13:20:31  5-MIN KDBQ 221920Z 30008KT 10SM BKN070 28/10 A3004 970 32 2700 300/08 RMK AO2
94908KDBQ DBQ20120622132509606/22/12 13:25:31  5-MIN KDBQ 221925Z 29009KT 10SM BKN070 27/11 A3004 970 34 2600 290/09 RMK AO2
94908KDBQ DBQ20120622133009606/22/12 13:30:31  5-MIN KDBQ 221930Z 33008KT 10SM SCT070 27/10 A3004 970 34 2600 330/08 RMK AO2
94908KDBQ DBQ20120622133509606/22/12 13:35:31  5-MIN KDBQ 221935Z 29012KT 10SM SCT070 28/11 A3004 970 33 2700 290/12 RMK AO2
94908KDBQ DBQ20120622134009606/22/12 13:40:31  5-MIN KDBQ 221940Z 28009KT 10SM SCT070 28/10 A3003 970 32 2700 280/09 RMK AO2
94908KDBQ DBQ20120622134509606/22/12 13:45:31  5-MIN KDBQ 221945Z 27011KT 10SM BKN070 28/10 A3003 980 32 2700 270/11 RMK AO2
94908KDBQ DBQ20120622135011906/22/12 13:50:31  5-MIN KDBQ 221950Z 32010G19KT 10SM BKN070 28/11 A3003 980 32 2800 320/10G19 RMK AO2 SLP163 T02830106
94908KDBQ DBQ20120622135510206/22/12 13:55:31  5-MIN KDBQ 221955Z 34007G19KT 10SM SCT070 28/10 A3003 980 32 2700 340/07G19 RMK AO2
94908KDBQ DBQ20120622140010206/22/12 14:00:31  5-MIN KDBQ 222000Z 30009G16KT 10SM SCT070 28/10 A3002 980 32 2700 300/09G16 RMK AO2
94908KDBQ DBQ20120622140510206/22/12 14:05:31  5-MIN KDBQ 222005Z 29007G16KT 10SM SCT070 28/09 A3002 980 31 2700 290/07G16 RMK AO2
94908KDBQ DBQ20120622141009606/22/12 14:10:31  5-MIN KDBQ 222010Z VRB05KT 10SM FEW070 27/09 A3002 990 32 2700 VRB/05 RMK AO2
94908KDBQ DBQ20120622141510206/22/12 14:15:31  5-MIN KDBQ 222015Z 28011G16KT 10SM FEW070 28/10 A3002 990 32 2700 280/11G16 RMK AO2
94908KDBQ DBQ20120622142009906/22/12 14:20:31  5-MIN KDBQ 222020Z 29009G16KT 10SM CLR 27/09 A3002 990 32 2700 290/09G16 RMK AO2
94908KDBQ DBQ20120622142509306/22/12 14:25:31  5-MIN KDBQ 222025Z 27008KT 10SM CLR 28/10 A3001 990 32 2700 270/08 RMK AO2
94908KDBQ DBQ20120622143009606/22/12 14:30:31  5-MIN KDBQ 222030Z 29008KT 10SM FEW070 27/10 A3002 990 33 2700 290/08 RMK AO2
94908KDBQ DBQ20120622143510206/22/12 14:35:31  5-MIN KDBQ 222035Z 30011G15KT 10SM FEW070 28/10 A3001 990 32 2700 300/11G15 RMK AO2
94908KDBQ DBQ20120622144009306/22/12 14:40:31  5-MIN KDBQ 222040Z 30010KT 10SM CLR 28/09 A3001 990 31 2700 300/10 RMK AO2
94908KDBQ DBQ20120622144509406/22/12 14:45:31  5-MIN KDBQ 222045Z 31007KT 10SM CLR 28/09 A3001 1000 31 2700 310/07 RMK AO2
94908KDBQ DBQ20120622145011706/22/12 14:50:31  5-MIN KDBQ 222050Z 29005KT 10SM CLR 28/09 A3001 1000 30 2700 290/05 RMK AO2 SLP157 T02780089 56004
94908KDBQ DBQ20120622145509706/22/12 14:55:31  5-MIN KDBQ 222055Z 28009KT 10SM FEW070 28/09 A3001 1000 31 2700 280/09 RMK AO2
94908KDBQ DBQ20120622150009706/22/12 15:00:31  5-MIN KDBQ 222100Z 32011KT 10SM FEW070 28/10 A3001 1000 32 2700 320/11 RMK AO2
94908KDBQ DBQ20120622150509706/22/12 15:05:31  5-MIN KDBQ 222105Z 29010KT 10SM FEW075 28/10 A3001 1000 32 2700 290/10 RMK AO2
94908KDBQ DBQ20120622151009706/22/12 15:10:31  5-MIN KDBQ 222110Z 30010KT 10SM SCT070 28/10 A3001 1000 32 2700 300/10 RMK AO2
94908KDBQ DBQ20120622151509706/22/12 15:15:31  5-MIN KDBQ 222115Z 32011KT 10SM SCT070 28/09 A3000 1000 31 2700 310/11 RMK AO2
94908KDBQ DBQ20120622152009706/22/12 15:20:31  5-MIN KDBQ 222120Z 34007KT 10SM FEW070 28/08 A3000 1000 29 2700 340/07 RMK AO2
94908KDBQ DBQ20120622152509706/22/12 15:25:31  5-MIN KDBQ 222125Z 29009KT 10SM SCT070 28/09 A3000 1000 30 2800 290/09 RMK AO2
94908KDBQ DBQ20120622153010306/22/12 15:30:31  5-MIN KDBQ 222130Z 28010G14KT 10SM SCT070 28/09 A3000 1000 31 2700 280/10G14 RMK AO2
94908KDBQ DBQ20120622153510306/22/12 15:35:31  5-MIN KDBQ 222135Z 29007G14KT 10SM SCT070 28/09 A3000 1010 31 2700 290/07G14 RMK AO2
94908KDBQ DBQ20120622154011906/22/12 15:40:31  5-MIN KDBQ 222140Z 29012G15KT 260V330 10SM FEW075 28/09 A3000 1010 31 2700 290/12G15 260V330 RMK AO2
94908KDBQ DBQ20120622154509706/22/12 15:45:31  5-MIN KDBQ 222145Z 34011KT 10SM FEW075 28/09 A3000 1010 30 2700 340/11 RMK AO2
94908KDBQ DBQ20120622155011406/22/12 15:50:31  5-MIN KDBQ 222150Z 32006KT 10SM SCT075 27/08 A3000 1010 30 2700 320/06 RMK AO2 SLP153 T02720083
94908KDBQ DBQ20120622155509706/22/12 15:55:31  5-MIN KDBQ 222155Z 33008KT 10SM FEW075 28/09 A3000 1010 30 2700 320/08 RMK AO2
94908KDBQ DBQ20120622160009706/22/12 16:00:31  5-MIN KDBQ 222200Z 31008KT 10SM FEW075 28/09 A3000 1010 31 2700 310/08 RMK AO2
94908KDBQ DBQ20120622160509706/22/12 16:05:31  5-MIN KDBQ 222205Z 30009KT 10SM FEW075 27/09 A3000 1010 31 2700 300/09 RMK AO2
94908KDBQ DBQ20120622161009406/22/12 16:10:31  5-MIN KDBQ 222210Z 30009KT 10SM CLR 28/09 A3000 1010 30 2700 300/09 RMK AO2
94908KDBQ DBQ20120622161509706/22/12 16:15:31  5-MIN KDBQ 222215Z 28006KT 10SM FEW075 27/09 A3000 1010 31 2700 280/06 RMK AO2
94908KDBQ DBQ20120622162009706/22/12 16:20:31  5-MIN KDBQ 222220Z 33008KT 10SM SCT075 28/09 A2999 1010 30 2700 330/08 RMK AO2
94908KDBQ DBQ20120622162509706/22/12 16:25:31  5-MIN KDBQ 222225Z 30007KT 10SM SCT075 28/09 A2999 1010 30 2700 300/07 RMK AO2
94908KDBQ DBQ20120622163009706/22/12 16:30:31  5-MIN KDBQ 222230Z 34006KT 10SM SCT075 27/09 A2999 1010 31 2700 340/06 RMK AO2
94908KDBQ DBQ20120622163510306/22/12 16:35:31  5-MIN KDBQ 222235Z 33010G14KT 10SM SCT075 28/09 A2999 1010 31 2700 330/10G14 RMK AO2
94908KDBQ DBQ20120622164009706/22/12 16:40:31  5-MIN KDBQ 222240Z 32010KT 10SM SCT075 27/09 A2999 1010 31 2700 320/10 RMK AO2
94908KDBQ DBQ20120622164509706/22/12 16:45:31  5-MIN KDBQ 222245Z 33010KT 10SM SCT075 27/09 A2999 1010 32 2600 330/10 RMK AO2
94908KDBQ DBQ20120622165011406/22/12 16:50:31  5-MIN KDBQ 222250Z 32008KT 10SM FEW075 27/09 A3000 1010 33 2600 320/08 RMK AO2 SLP154 T02670094
94908KDBQ DBQ20120622165509706/22/12 16:55:31  5-MIN KDBQ 222255Z 33009KT 10SM FEW070 27/09 A2999 1010 31 2700 330/09 RMK AO2
94908KDBQ DBQ20120622170009406/22/12 17:00:31  5-MIN KDBQ 222300Z 32008KT 10SM CLR 27/09 A2999 1010 32 2700 320/08 RMK AO2
94908KDBQ DBQ20120622170509406/22/12 17:05:31  5-MIN KDBQ 222305Z 35009KT 10SM CLR 27/10 A2999 1010 33 2700 350/09 RMK AO2
94908KDBQ DBQ20120622171009406/22/12 17:10:31  5-MIN KDBQ 222310Z 35009KT 10SM CLR 27/09 A2999 1010 32 2700 350/09 RMK AO2
94908KDBQ DBQ20120622171509406/22/12 17:15:31  5-MIN KDBQ 222315Z 33007KT 10SM CLR 27/09 A2999 1010 32 2700 330/07 RMK AO2
94908KDBQ DBQ20120622172009406/22/12 17:20:31  5-MIN KDBQ 222320Z 36008KT 10SM CLR 27/09 A2999 1020 32 2700 360/08 RMK AO2
94908KDBQ DBQ20120622172510006/22/12 17:25:31  5-MIN KDBQ 222325Z 34008G15KT 10SM CLR 27/09 A2999 1020 33 2600 340/08G15 RMK AO2
94908KDBQ DBQ20120622173009406/22/12 17:30:31  5-MIN KDBQ 222330Z 34008KT 10SM CLR 26/09 A2999 1010 34 2600 340/08 RMK AO2
94908KDBQ DBQ20120622173509406/22/12 17:35:31  5-MIN KDBQ 222335Z 34009KT 10SM CLR 27/09 A2999 1010 33 2600 340/09 RMK AO2
94908KDBQ DBQ20120622174009406/22/12 17:40:31  5-MIN KDBQ 222340Z 33008KT 10SM CLR 27/09 A2999 1010 33 2600 330/08 RMK AO2
94908KDBQ DBQ20120622174509406/22/12 17:45:31  5-MIN KDBQ 222345Z 33007KT 10SM CLR 26/09 A2999 1020 34 2600 330/07 RMK AO2
94908KDBQ DBQ20120622175012906/22/12 17:50:31  5-MIN KDBQ 222350Z 34007KT 10SM CLR 26/10 A2999 1020 36 2600 330/07 RMK AO2 SLP150 T02610100 10283 20256 58016
94908KDBQ DBQ20120622175509406/22/12 17:55:31  5-MIN KDBQ 222355Z 34008KT 10SM CLR 26/10 A2999 1010 36 2600 340/08 RMK AO2
94908KDBQ DBQ20120622180009406/22/12 18:00:31  5-MIN KDBQ 230000Z 35007KT 10SM CLR 26/10 A2999 1010 36 2600 350/07 RMK AO2
94908KDBQ DBQ20120622180509406/22/12 18:05:31  5-MIN KDBQ 230005Z 36006KT 10SM CLR 26/09 A2999 1010 34 2600 360/06 RMK AO2
94908KDBQ DBQ20120622181009406/22/12 18:10:31  5-MIN KDBQ 230010Z 36006KT 10SM CLR 26/10 A2999 1010 36 2600 360/06 RMK AO2
94908KDBQ DBQ20120622181509406/22/12 18:15:31  5-MIN KDBQ 230015Z 35007KT 10SM CLR 26/10 A2999 1010 36 2600 350/07 RMK AO2
94908KDBQ DBQ20120622182009406/22/12 18:20:31  5-MIN KDBQ 230020Z 34005KT 10SM CLR 26/11 A2999 1010 37 2600 330/05 RMK AO2
94908KDBQ DBQ20120622182509406/22/12 18:25:31  5-MIN KDBQ 230025Z 35006KT 10SM CLR 26/11 A2999 1010 38 2500 350/06 RMK AO2
94908KDBQ DBQ20120622183009406/22/12 18:30:31  5-MIN KDBQ 230030Z 34006KT 10SM CLR 26/11 A2999 1010 38 2500 340/06 RMK AO2
94908KDBQ DBQ20120622183509406/22/12 18:35:31  5-MIN KDBQ 230035Z 35005KT 10SM CLR 26/11 A2999 1010 40 2500 350/05 RMK AO2
94908KDBQ DBQ20120622184009406/22/12 18:40:31  5-MIN KDBQ 230040Z 35005KT 10SM CLR 25/11 A2999 1010 41 2400 350/05 RMK AO2
94908KDBQ DBQ20120622184509906/22/12 18:45:31  5-MIN KDBQ 230045Z AUTO 34004KT 10SM CLR 25/11 A3000 1010 41 2400 340/04 RMK AO2
94908KDBQ DBQ20120622185011606/22/12 18:50:31  5-MIN KDBQ 230050Z AUTO 35004KT 10SM CLR 25/11 A3000 1010 41 2400 340/04 RMK AO2 SLP152 T02500111
94908KDBQ DBQ20120622185509906/22/12 18:55:31  5-MIN KDBQ 230055Z AUTO 34003KT 10SM CLR 24/12 A2999 1010 44 2400 340/03 RMK AO2
94908KDBQ DBQ20120622190009906/22/12 19:00:31  5-MIN KDBQ 230100Z AUTO 34003KT 10SM CLR 24/12 A2999 1010 44 2400 340/03 RMK AO2
94908KDBQ DBQ20120622190509906/22/12 19:05:31  5-MIN KDBQ 230105Z AUTO 00000KT 10SM CLR 24/11 A2999 1010 42 2400 000/00 RMK AO2
94908KDBQ DBQ20120622191009906/22/12 19:10:31  5-MIN KDBQ 230110Z AUTO 00000KT 10SM CLR 24/11 A2999 1020 44 2300 000/00 RMK AO2
94908KDBQ DBQ20120622191509906/22/12 19:15:31  5-MIN KDBQ 230115Z AUTO 00000KT 10SM CLR 24/11 A2999 1020 44 2300 000/00 RMK AO2
94908KDBQ DBQ20120622192009906/22/12 19:20:31  5-MIN KDBQ 230120Z AUTO 00000KT 10SM CLR 24/11 A2999 1020 44 2300 000/00 RMK AO2
94908KDBQ DBQ20120622192509906/22/12 19:25:31  5-MIN KDBQ 230125Z AUTO 00000KT 10SM CLR 24/11 A2999 1020 42 2300 000/00 RMK AO2
94908KDBQ DBQ20120622193009906/22/12 19:30:31  5-MIN KDBQ 230130Z AUTO 00000KT 10SM CLR 23/11 A2999 1020 44 2300 000/00 RMK AO2
94908KDBQ DBQ20120622193509906/22/12 19:35:31  5-MIN KDBQ 230135Z AUTO 00000KT 10SM CLR 24/11 A2999 1010 42 2300 000/00 RMK AO2
94908KDBQ DBQ20120622194009906/22/12 19:40:31  5-MIN KDBQ 230140Z AUTO 00000KT 10SM CLR 23/10 A2999 1010 42 2300 000/00 RMK AO2
94908KDBQ DBQ20120622194509906/22/12 19:45:31  5-MIN KDBQ 230145Z AUTO 00000KT 10SM CLR 21/11 A2999 1010 52 2000 000/00 RMK AO2
94908KDBQ DBQ20120622195011606/22/12 19:50:31  5-MIN KDBQ 230150Z AUTO 00000KT 10SM CLR 22/11 A2999 1010 49 2100 000/00 RMK AO2 SLP150 T02220111
94908KDBQ DBQ20120622195509906/22/12 19:55:31  5-MIN KDBQ 230155Z AUTO 00000KT 10SM CLR 23/12 A2999 1010 51 2200 000/00 RMK AO2
94908KDBQ DBQ20120622200009906/22/12 20:00:31  5-MIN KDBQ 230200Z AUTO 00000KT 10SM CLR 22/13 A2999 1010 54 2100 000/00 RMK AO2
94908KDBQ DBQ20120622200509906/22/12 20:05:31  5-MIN KDBQ 230205Z AUTO 00000KT 10SM CLR 22/13 A3000 1010 58 2100 000/00 RMK AO2
94908KDBQ DBQ20120622201009906/22/12 20:10:31  5-MIN KDBQ 230210Z AUTO 00000KT 10SM CLR 21/13 A3000 1010 58 2000 000/00 RMK AO2
94908KDBQ DBQ20120622201509906/22/12 20:15:31  5-MIN KDBQ 230215Z AUTO 00000KT 10SM CLR 20/14 A3000 1010 67 1900 000/00 RMK AO2
94908KDBQ DBQ20120622202009906/22/12 20:20:31  5-MIN KDBQ 230220Z AUTO 00000KT 10SM CLR 19/14 A3000 1010 70 1800 000/00 RMK AO2
94908KDBQ DBQ20120622202509906/22/12 20:25:31  5-MIN KDBQ 230225Z AUTO 00000KT 10SM CLR 19/13 A3000 1000 67 1800 000/00 RMK AO2
94908KDBQ DBQ20120622203009906/22/12 20:30:31  5-MIN KDBQ 230230Z AUTO 00000KT 10SM CLR 19/13 A3000 1000 70 1700 000/00 RMK AO2
94908KDBQ DBQ20120622203509906/22/12 20:35:31  5-MIN KDBQ 230235Z AUTO 00000KT 10SM CLR 19/13 A3000 1000 70 1700 000/00 RMK AO2
94908KDBQ DBQ20120622204009906/22/12 20:40:31  5-MIN KDBQ 230240Z AUTO 00000KT 10SM CLR 18/13 A3000 1000 72 1700 000/00 RMK AO2
94908KDBQ DBQ20120622204509906/22/12 20:45:31  5-MIN KDBQ 230245Z AUTO 00000KT 10SM CLR 19/13 A3001 1000 70 1700 000/00 RMK AO2
94908KDBQ DBQ20120622205012206/22/12 20:50:31  5-MIN KDBQ 230250Z AUTO 00000KT 10SM CLR 19/13 A3001 1000 70 1700 000/00 RMK AO2 SLP155 T01890133 56006
94908KDBQ DBQ20120622205509906/22/12 20:55:31  5-MIN KDBQ 230255Z AUTO 00000KT 10SM CLR 18/14 A3001 1000 75 1700 000/00 RMK AO2
94908KDBQ DBQ20120622210009806/22/12 21:00:31  5-MIN KDBQ 230300Z AUTO 00000KT 10SM CLR 18/14 A3001 990 78 1600 000/00 RMK AO2
94908KDBQ DBQ20120622210509906/22/12 21:05:31  5-MIN KDBQ 230305Z AUTO 00000KT 10SM CLR 18/14 A3001 1000 78 1600 000/00 RMK AO2
94908KDBQ DBQ20120622211009806/22/12 21:10:31  5-MIN KDBQ 230310Z AUTO 00000KT 10SM CLR 18/14 A3001 990 75 1700 000/00 RMK AO2
94908KDBQ DBQ20120622211509806/22/12 21:15:31  5-MIN KDBQ 230315Z AUTO 00000KT 10SM CLR 18/14 A3001 990 78 1600 000/00 RMK AO2
94908KDBQ DBQ20120622212009806/22/12 21:20:31  5-MIN KDBQ 230320Z AUTO 00000KT 10SM CLR 17/14 A3001 990 80 1500 000/00 RMK AO2
94908KDBQ DBQ20120622212509806/22/12 21:25:31  5-MIN KDBQ 230325Z AUTO 00000KT 10SM CLR 18/14 A3001 990 78 1600 000/00 RMK AO2
94908KDBQ DBQ20120622213009806/22/12 21:30:31  5-MIN KDBQ 230330Z AUTO 00000KT 10SM CLR 18/14 A3001 990 78 1600 000/00 RMK AO2
94908KDBQ DBQ20120622213509806/22/12 21:35:31  5-MIN KDBQ 230335Z AUTO 00000KT 10SM CLR 18/14 A3001 990 78 1600 000/00 RMK AO2
94908KDBQ DBQ20120622214009806/22/12 21:40:31  5-MIN KDBQ 230340Z AUTO 00000KT 10SM CLR 18/14 A3001 990 75 1700 000/00 RMK AO2
94908KDBQ DBQ20120622214509906/22/12 21:45:31  5-MIN KDBQ 230345Z AUTO 00000KT 10SM CLR 18/13 A3001 1000 72 1700 000/00 RMK AO2
94908KDBQ DBQ20120622215011606/22/12 21:50:31  5-MIN KDBQ 230350Z AUTO 00000KT 10SM CLR 18/14 A3001 1000 78 1600 000/00 RMK AO2 SLP156 T01780139
94908KDBQ DBQ20120622215509906/22/12 21:55:31  5-MIN KDBQ 230355Z AUTO 00000KT 10SM CLR 17/14 A3001 1000 80 1500 000/00 RMK AO2
94908KDBQ DBQ20120622220009906/22/12 22:00:31  5-MIN KDBQ 230400Z AUTO 00000KT 10SM CLR 17/14 A3001 1000 80 1500 000/00 RMK AO2
94908KDBQ DBQ20120622220509906/22/12 22:05:31  5-MIN KDBQ 230405Z AUTO 00000KT 10SM CLR 18/13 A3001 1000 75 1600 000/00 RMK AO2
94908KDBQ DBQ20120622221009906/22/12 22:10:31  5-MIN KDBQ 230410Z AUTO 00000KT 10SM CLR 18/13 A3001 1000 72 1600 000/00 RMK AO2
94908KDBQ DBQ20120622221509906/22/12 22:15:31  5-MIN KDBQ 230415Z AUTO 00000KT 10SM CLR 18/13 A3001 1000 70 1700 000/00 RMK AO2
94908KDBQ DBQ20120622222009906/22/12 22:20:31  5-MIN KDBQ 230420Z AUTO 00000KT 10SM CLR 18/12 A3001 1000 67 1700 000/00 RMK AO2
94908KDBQ DBQ20120622222509906/22/12 22:25:31  5-MIN KDBQ 230425Z AUTO 00000KT 10SM CLR 18/12 A3001 1000 69 1600 000/00 RMK AO2
94908KDBQ DBQ20120622223009906/22/12 22:30:31  5-MIN KDBQ 230430Z AUTO 00000KT 10SM CLR 17/12 A3001 1000 72 1500 000/00 RMK AO2
94908KDBQ DBQ20120622223509906/22/12 22:35:31  5-MIN KDBQ 230435Z AUTO 00000KT 10SM CLR 17/12 A3001 1000 72 1500 000/00 RMK AO2
94908KDBQ DBQ20120622224009906/22/12 22:40:31  5-MIN KDBQ 230440Z AUTO 00000KT 10SM CLR 18/13 A3001 1000 72 1600 000/00 RMK AO2
94908KDBQ DBQ20120622224509906/22/12 22:45:31  5-MIN KDBQ 230445Z AUTO 00000KT 10SM CLR 17/13 A3001 1000 75 1500 000/00 RMK AO2
94908KDBQ DBQ20120622225011606/22/12 22:50:31  5-MIN KDBQ 230450Z AUTO 00000KT 10SM CLR 16/13 A3000 1000 80 1400 000/00 RMK AO2 SLP155 T01610128
94908KDBQ DBQ20120622225509906/22/12 22:55:31  5-MIN KDBQ 230455Z AUTO 00000KT 10SM CLR 16/13 A3001 1000 80 1400 000/00 RMK AO2
94908KDBQ DBQ20120622230009906/22/12 23:00:31  5-MIN KDBQ 230500Z AUTO 00000KT 10SM CLR 16/13 A3001 1000 83 1300 000/00 RMK AO2
94908KDBQ DBQ20120622230509906/22/12 23:05:31  5-MIN KDBQ 230505Z AUTO 00000KT 10SM CLR 16/13 A3000 1000 83 1300 000/00 RMK AO2
94908KDBQ DBQ20120622231009906/22/12 23:10:31  5-MIN KDBQ 230510Z AUTO 00000KT 10SM CLR 16/13 A3000 1000 83 1300 000/00 RMK AO2
94908KDBQ DBQ20120622231509906/22/12 23:15:31  5-MIN KDBQ 230515Z AUTO 00000KT 10SM CLR 16/12 A3000 1000 77 1400 000/00 RMK AO2
94908KDBQ DBQ20120622232009906/22/12 23:20:31  5-MIN KDBQ 230520Z AUTO 00000KT 10SM CLR 17/12 A3000 1000 75 1500 000/00 RMK AO2
94908KDBQ DBQ20120622232509906/22/12 23:25:31  5-MIN KDBQ 230525Z AUTO 00000KT 10SM CLR 17/12 A3000 1000 75 1500 000/00 RMK AO2
94908KDBQ DBQ20120622233009906/22/12 23:30:31  5-MIN KDBQ 230530Z AUTO 00000KT 10SM CLR 15/12 A3000 1000 83 1300 000/00 RMK AO2
94908KDBQ DBQ20120622233509906/22/12 23:35:31  5-MIN KDBQ 230535Z AUTO 00000KT 10SM CLR 16/13 A3000 1000 83 1300 000/00 RMK AO2
94908KDBQ DBQ20120622234009906/22/12 23:40:31  5-MIN KDBQ 230540Z AUTO 00000KT 10SM CLR 16/13 A3000 1000 83 1300 000/00 RMK AO2
94908KDBQ DBQ20120622234509906/22/12 23:45:31  5-MIN KDBQ 230545Z AUTO 00000KT 10SM CLR 16/13 A3000 1000 80 1400 000/00 RMK AO2
94908KDBQ DBQ20120622235014406/22/12 23:50:31  5-MIN KDBQ 230550Z AUTO 00000KT 10SM CLR 16/13 A3000 1000 80 1400 000/00 RMK AO2 SLP154 T01610128 10267 20150 402830122 53006
94908KDBQ DBQ20120622235509906/22/12 23:55:31  5-MIN KDBQ 230555Z AUTO 00000KT 10SM CLR 16/13 A3001 1000 80 1400 000/00 RMK AO2
94908KDBQ DBQ20120623000009906/23/12 00:00:38  5-MIN KDBQ 230600Z AUTO 00000KT 10SM CLR 16/12 A3001 1000 77 1400 000/00 RMK AO2
94908KDBQ DBQ20120623000509906/23/12 00:05:31  5-MIN KDBQ 230605Z AUTO 00000KT 10SM CLR 16/12 A3001 1000 77 1400 000/00 RMK AO2
94908KDBQ DBQ20120623001009906/23/12 00:10:31  5-MIN KDBQ 230610Z AUTO 00000KT 10SM CLR 16/12 A3001 1000 77 1400 000/00 RMK AO2
94908KDBQ DBQ20120623001509806/23/12 00:15:33  5-MIN KDBQ 230615Z AUTO 00000KT 10SM CLR 16/13 A3001 990 80 1400 000/00 RMK AO2
94908KDBQ DBQ20120623002009806/23/12 00:20:31  5-MIN KDBQ 230620Z AUTO 00000KT 10SM CLR 16/13 A3002 990 80 1400 000/00 RMK AO2
94908KDBQ DBQ20120623002509806/23/12 00:25:31  5-MIN KDBQ 230625Z AUTO 00000KT 10SM CLR 16/13 A3002 990 80 1400 000/00 RMK AO2
94908KDBQ DBQ20120623003009806/23/12 00:30:31  5-MIN KDBQ 230630Z AUTO 00000KT 10SM CLR 16/13 A3002 990 80 1400 000/00 RMK AO2
94908KDBQ DBQ20120623003509806/23/12 00:35:31  5-MIN KDBQ 230635Z AUTO 00000KT 10SM CLR 16/13 A3002 980 80 1400 000/00 RMK AO2
94908KDBQ DBQ20120623004009806/23/12 00:40:31  5-MIN KDBQ 230640Z AUTO 00000KT 10SM CLR 16/12 A3002 990 80 1300 000/00 RMK AO2
94908KDBQ DBQ20120623004509806/23/12 00:45:31  5-MIN KDBQ 230645Z AUTO 00000KT 10SM CLR 16/12 A3002 990 77 1400 000/00 RMK AO2
94908KDBQ DBQ20120623005011506/23/12 00:50:31  5-MIN KDBQ 230650Z AUTO 00000KT 10SM CLR 17/13 A3002 990 77 1500 000/00 RMK AO2 SLP160 T01670128
94908KDBQ DBQ20120623005509806/23/12 00:55:31  5-MIN KDBQ 230655Z AUTO 00000KT 10SM CLR 16/13 A3002 990 80 1400 000/00 RMK AO2
94908KDBQ DBQ20120623010009806/23/12 01:00:31  5-MIN KDBQ 230700Z AUTO 00000KT 10SM CLR 16/12 A3002 990 77 1400 000/00 RMK AO2
94908KDBQ DBQ20120623010509806/23/12 01:05:31  5-MIN KDBQ 230705Z AUTO 00000KT 10SM CLR 16/13 A3002 990 80 1400 000/00 RMK AO2
94908KDBQ DBQ20120623011009806/23/12 01:10:31  5-MIN KDBQ 230710Z AUTO 00000KT 10SM CLR 17/12 A3002 990 75 1500 000/00 RMK AO2
94908KDBQ DBQ20120623011509806/23/12 01:15:31  5-MIN KDBQ 230715Z AUTO 00000KT 10SM CLR 17/12 A3001 990 75 1500 000/00 RMK AO2
94908KDBQ DBQ20120623012009806/23/12 01:20:31  5-MIN KDBQ 230720Z AUTO 00000KT 10SM CLR 17/12 A3001 990 75 1500 000/00 RMK AO2
94908KDBQ DBQ20120623012509806/23/12 01:25:31  5-MIN KDBQ 230725Z AUTO 00000KT 10SM CLR 16/12 A3001 990 77 1400 000/00 RMK AO2
94908KDBQ DBQ20120623013009906/23/12 01:30:31  5-MIN KDBQ 230730Z AUTO 00000KT 10SM CLR 16/12 A3001 1000 80 1300 000/00 RMK AO2
94908KDBQ DBQ20120623013509906/23/12 01:35:31  5-MIN KDBQ 230735Z AUTO 00000KT 10SM CLR 16/12 A3001 1000 77 1400 000/00 RMK AO2
94908KDBQ DBQ20120623014009906/23/12 01:40:31  5-MIN KDBQ 230740Z AUTO 00000KT 10SM CLR 16/12 A3000 1000 75 1400 000/00 RMK AO2
94908KDBQ DBQ20120623014509906/23/12 01:45:31  5-MIN KDBQ 230745Z AUTO 00000KT 10SM CLR 16/12 A3000 1010 75 1400 000/00 RMK AO2
94908KDBQ DBQ20120623015011606/23/12 01:50:31  5-MIN KDBQ 230750Z AUTO 00000KT 10SM CLR 16/12 A3001 1000 77 1300 000/00 RMK AO2 SLP156 T01560117
94908KDBQ DBQ20120623015509806/23/12 01:55:31  5-MIN KDBQ 230755Z AUTO 00000KT 10SM CLR 16/12 A3002 990 77 1300 000/00 RMK AO2
94908KDBQ DBQ20120623020009806/23/12 02:00:31  5-MIN KDBQ 230800Z AUTO 00000KT 10SM CLR 16/12 A3001 990 77 1300 000/00 RMK AO2
94908KDBQ DBQ20120623020509806/23/12 02:05:31  5-MIN KDBQ 230805Z AUTO 00000KT 10SM CLR 15/12 A3001 990 80 1300 000/00 RMK AO2
94908KDBQ DBQ20120623021009906/23/12 02:10:31  5-MIN KDBQ 230810Z AUTO 00000KT 10SM CLR 16/12 A3001 1000 80 1300 000/00 RMK AO2
94908KDBQ DBQ20120623021509906/23/12 02:15:31  5-MIN KDBQ 230815Z AUTO 00000KT 10SM CLR 16/12 A3001 1000 80 1300 000/00 RMK AO2
94908KDBQ DBQ20120623022009906/23/12 02:20:31  5-MIN KDBQ 230820Z AUTO 00000KT 10SM CLR 16/12 A3000 1000 80 1300 000/00 RMK AO2
94908KDBQ DBQ20120623022509906/23/12 02:25:31  5-MIN KDBQ 230825Z AUTO 00000KT 10SM CLR 16/12 A3000 1000 77 1400 000/00 RMK AO2
94908KDBQ DBQ20120623023009906/23/12 02:30:31  5-MIN KDBQ 230830Z AUTO 00000KT 10SM CLR 16/12 A3000 1000 80 1300 000/00 RMK AO2
94908KDBQ DBQ20120623023509906/23/12 02:35:31  5-MIN KDBQ 230835Z AUTO 00000KT 10SM CLR 16/12 A3000 1000 80 1300 000/00 RMK AO2
94908KDBQ DBQ20120623024009906/23/12 02:40:31  5-MIN KDBQ 230840Z AUTO 00000KT 10SM CLR 16/12 A3000 1000 80 1300 000/00 RMK AO2
94908KDBQ DBQ20120623024509906/23/12 02:45:31  5-MIN KDBQ 230845Z AUTO 00000KT 10SM CLR 16/12 A3000 1000 75 1400 000/00 RMK AO2
94908KDBQ DBQ20120623025012206/23/12 02:50:31  5-MIN KDBQ 230850Z AUTO 00000KT 10SM CLR 17/11 A3000 1000 67 1500 000/00 RMK AO2 SLP154 T01720111 55001
94908KDBQ DBQ20120623025509906/23/12 02:55:31  5-MIN KDBQ 230855Z AUTO 00000KT 10SM CLR 17/11 A3000 1000 69 1500 000/00 RMK AO2
94908KDBQ DBQ20120623030009906/23/12 03:00:31  5-MIN KDBQ 230900Z AUTO 00000KT 10SM CLR 16/12 A3000 1010 77 1400 000/00 RMK AO2
94908KDBQ DBQ20120623030509906/23/12 03:05:31  5-MIN KDBQ 230905Z AUTO 09003KT 10SM CLR 16/12 A2999 1010 75 1400 090/03 RMK AO2
94908KDBQ DBQ20120623031009906/23/12 03:10:31  5-MIN KDBQ 230910Z AUTO 00000KT 10SM CLR 16/12 A2999 1010 75 1400 000/00 RMK AO2
94908KDBQ DBQ20120623031509906/23/12 03:15:31  5-MIN KDBQ 230915Z AUTO 00000KT 10SM CLR 16/12 A2999 1010 75 1400 000/00 RMK AO2
94908KDBQ DBQ20120623032009906/23/12 03:20:31  5-MIN KDBQ 230920Z AUTO 00000KT 10SM CLR 16/12 A2999 1020 77 1400 000/00 RMK AO2
94908KDBQ DBQ20120623032509906/23/12 03:25:31  5-MIN KDBQ 230925Z AUTO 00000KT 10SM CLR 16/12 A2999 1010 77 1400 000/00 RMK AO2
94908KDBQ DBQ20120623033009906/23/12 03:30:31  5-MIN KDBQ 230930Z AUTO 00000KT 10SM CLR 15/11 A2999 1020 77 1300 000/00 RMK AO2
94908KDBQ DBQ20120623033509906/23/12 03:35:31  5-MIN KDBQ 230935Z AUTO 00000KT 10SM CLR 15/11 A2999 1010 77 1300 000/00 RMK AO2
94908KDBQ DBQ20120623034009906/23/12 03:40:31  5-MIN KDBQ 230940Z AUTO 00000KT 10SM CLR 15/11 A2999 1010 77 1300 000/00 RMK AO2
94908KDBQ DBQ20120623034509906/23/12 03:45:31  5-MIN KDBQ 230945Z AUTO 00000KT 10SM CLR 16/11 A3000 1010 74 1300 000/00 RMK AO2
94908KDBQ DBQ20120623035011606/23/12 03:50:31  5-MIN KDBQ 230950Z AUTO 00000KT 10SM CLR 16/12 A3000 1010 77 1300 000/00 RMK AO2 SLP153 T01560117
94908KDBQ DBQ20120623035509906/23/12 03:55:31  5-MIN KDBQ 230955Z AUTO 00000KT 10SM CLR 16/11 A3000 1010 74 1300 000/00 RMK AO2
94908KDBQ DBQ20120623040009906/23/12 04:00:31  5-MIN KDBQ 231000Z AUTO 00000KT 10SM CLR 16/12 A3001 1000 77 1300 000/00 RMK AO2
94908KDBQ DBQ20120623040509906/23/12 04:05:31  5-MIN KDBQ 231005Z AUTO 00000KT 10SM CLR 16/12 A3000 1000 77 1300 000/00 RMK AO2
94908KDBQ DBQ20120623041009906/23/12 04:10:31  5-MIN KDBQ 231010Z AUTO 00000KT 10SM CLR 14/12 A3001 1000 83 1200 000/00 RMK AO2
94908KDBQ DBQ20120623041509906/23/12 04:15:31  5-MIN KDBQ 231015Z AUTO 00000KT 10SM CLR 15/12 A3001 1000 80 1300 000/00 RMK AO2
94908KDBQ DBQ20120623042009806/23/12 04:20:31  5-MIN KDBQ 231020Z AUTO 00000KT 10SM CLR 15/12 A3001 990 80 1300 000/00 RMK AO2
94908KDBQ DBQ20120623042509806/23/12 04:25:31  5-MIN KDBQ 231025Z AUTO 00000KT 10SM CLR 15/12 A3002 990 80 1300 000/00 RMK AO2
94908KDBQ DBQ20120623043009806/23/12 04:30:31  5-MIN KDBQ 231030Z AUTO 00000KT 10SM CLR 15/12 A3002 990 80 1300 000/00 RMK AO2
94908KDBQ DBQ20120623043509806/23/12 04:35:31  5-MIN KDBQ 231035Z AUTO 00000KT 10SM CLR 14/12 A3002 990 83 1200 000/00 RMK AO2
94908KDBQ DBQ20120623044009806/23/12 04:40:31  5-MIN KDBQ 231040Z AUTO 00000KT 10SM CLR 14/12 A3002 990 83 1200 000/00 RMK AO2
94908KDBQ DBQ20120623044509806/23/12 04:45:31  5-MIN KDBQ 231045Z AUTO 00000KT 10SM CLR 14/12 A3002 990 83 1200 000/00 RMK AO2
94908KDBQ DBQ20120623045011506/23/12 04:50:31  5-MIN KDBQ 231050Z AUTO 00000KT 10SM CLR 15/12 A3001 990 80 1300 000/00 RMK AO2 SLP159 T01500117
94908KDBQ DBQ20120623045509306/23/12 04:55:31  5-MIN KDBQ 231055Z 14003KT 10SM CLR 16/12 A3002 990 77 1300 130/03 RMK AO2
94908KDBQ DBQ20120623050009306/23/12 05:00:31  5-MIN KDBQ 231100Z 13003KT 10SM CLR 16/12 A3002 990 77 1300 130/03 RMK AO2
94908KDBQ DBQ20120623050509306/23/12 05:05:31  5-MIN KDBQ 231105Z 14003KT 10SM CLR 16/12 A3002 990 75 1400 140/03 RMK AO2
94908KDBQ DBQ20120623051009306/23/12 05:10:31  5-MIN KDBQ 231110Z 13004KT 10SM CLR 17/12 A3002 980 72 1400 130/04 RMK AO2
94908KDBQ DBQ20120623051509306/23/12 05:15:31  5-MIN KDBQ 231115Z 00000KT 10SM CLR 17/12 A3002 990 69 1500 000/00 RMK AO2
94908KDBQ DBQ20120623052009306/23/12 05:20:31  5-MIN KDBQ 231120Z 13003KT 10SM CLR 17/12 A3002 980 69 1500 130/03 RMK AO2
94908KDBQ DBQ20120623052509306/23/12 05:25:31  5-MIN KDBQ 231125Z 14004KT 10SM CLR 17/12 A3002 980 69 1500 140/04 RMK AO2
94908KDBQ DBQ20120623053009306/23/12 05:30:31  5-MIN KDBQ 231130Z 15005KT 10SM CLR 17/12 A3003 980 69 1500 150/05 RMK AO2
94908KDBQ DBQ20120623053509306/23/12 05:35:31  5-MIN KDBQ 231135Z 14005KT 10SM CLR 17/12 A3003 980 69 1500 140/05 RMK AO2
94908KDBQ DBQ20120623054009306/23/12 05:40:31  5-MIN KDBQ 231140Z 15005KT 10SM CLR 18/12 A3003 980 67 1600 140/05 RMK AO2
94908KDBQ DBQ20120623054509306/23/12 05:45:31  5-MIN KDBQ 231145Z 14004KT 10SM CLR 18/12 A3003 980 67 1600 140/04 RMK AO2
94908KDBQ DBQ20120623055012806/23/12 05:50:31  5-MIN KDBQ 231150Z 14005KT 10SM CLR 18/12 A3003 980 69 1600 140/05 RMK AO2 SLP164 T01780122 10178 20144 58001
94908KDBQ DBQ20120623055509306/23/12 05:55:31  5-MIN KDBQ 231155Z 16003KT 10SM CLR 18/12 A3003 970 67 1600 150/03 RMK AO2
94908KDBQ DBQ20120623060009306/23/12 06:00:31  5-MIN KDBQ 231200Z 00000KT 10SM CLR 19/12 A3003 970 65 1700 000/00 RMK AO2
94908KDBQ DBQ20120623060509306/23/12 06:05:31  5-MIN KDBQ 231205Z 15003KT 10SM CLR 19/12 A3003 970 62 1700 150/03 RMK AO2
94908KDBQ DBQ20120623061009306/23/12 06:10:31  5-MIN KDBQ 231210Z 15004KT 10SM CLR 19/12 A3003 970 62 1800 150/04 RMK AO2
94908KDBQ DBQ20120623061509306/23/12 06:15:31  5-MIN KDBQ 231215Z 15005KT 10SM CLR 19/12 A3003 970 62 1800 150/05 RMK AO2
94908KDBQ DBQ20120623062009306/23/12 06:20:31  5-MIN KDBQ 231220Z 15004KT 10SM CLR 20/12 A3003 980 58 1800 150/04 RMK AO2
94908KDBQ DBQ20120623062509306/23/12 06:25:31  5-MIN KDBQ 231225Z 16004KT 10SM CLR 20/12 A3003 970 60 1800 150/04 RMK AO2
94908KDBQ DBQ20120623063009306/23/12 06:30:31  5-MIN KDBQ 231230Z 15005KT 10SM CLR 20/13 A3003 970 63 1800 150/05 RMK AO2
94908KDBQ DBQ20120623063509306/23/12 06:35:31  5-MIN KDBQ 231235Z 16005KT 10SM CLR 20/13 A3003 970 63 1800 150/05 RMK AO2
94908KDBQ DBQ20120623064009306/23/12 06:40:31  5-MIN KDBQ 231240Z 16005KT 10SM CLR 20/13 A3004 970 63 1800 150/05 RMK AO2
94908KDBQ DBQ20120623064509306/23/12 06:45:31  5-MIN KDBQ 231245Z 15005KT 10SM CLR 21/13 A3004 970 60 1900 150/05 RMK AO2
94908KDBQ DBQ20120623065011006/23/12 06:50:31  5-MIN KDBQ 231250Z 15006KT 10SM CLR 21/13 A3004 970 60 1900 150/06 RMK AO2 SLP166 T02060128
94908KDBQ DBQ20120623065509306/23/12 06:55:31  5-MIN KDBQ 231255Z 16005KT 10SM CLR 21/13 A3004 970 60 1900 150/05 RMK AO2
94908KDBQ DBQ20120623070009306/23/12 07:00:31  5-MIN KDBQ 231300Z 15006KT 10SM CLR 21/13 A3004 970 58 1900 150/06 RMK AO2
94908KDBQ DBQ20120623070509306/23/12 07:05:31  5-MIN KDBQ 231305Z 16005KT 10SM CLR 21/13 A3004 970 58 1900 160/05 RMK AO2
94908KDBQ DBQ20120623071009306/23/12 07:10:31  5-MIN KDBQ 231310Z 17006KT 10SM CLR 22/13 A3004 970 56 2000 170/06 RMK AO2
94908KDBQ DBQ20120623071509306/23/12 07:15:31  5-MIN KDBQ 231315Z 17008KT 10SM CLR 22/13 A3004 960 56 2000 170/08 RMK AO2
94908KDBQ DBQ20120623072009306/23/12 07:20:31  5-MIN KDBQ 231320Z 17007KT 10SM CLR 22/13 A3004 960 56 2000 170/07 RMK AO2
94908KDBQ DBQ20120623072509306/23/12 07:25:31  5-MIN KDBQ 231325Z 17006KT 10SM CLR 22/13 A3005 960 56 2000 170/06 RMK AO2
94908KDBQ DBQ20120623073009306/23/12 07:30:31  5-MIN KDBQ 231330Z 17005KT 10SM CLR 22/13 A3005 960 56 2000 170/05 RMK AO2
94908KDBQ DBQ20120623073509306/23/12 07:35:31  5-MIN KDBQ 231335Z 17006KT 10SM CLR 21/12 A3005 960 56 1900 170/06 RMK AO2
94908KDBQ DBQ20120623074009306/23/12 07:40:31  5-MIN KDBQ 231340Z 17006KT 10SM CLR 21/13 A3005 960 58 1900 170/06 RMK AO2
94908KDBQ DBQ20120623074509306/23/12 07:45:31  5-MIN KDBQ 231345Z 17005KT 10SM CLR 21/13 A3005 960 58 1900 170/05 RMK AO2
94908KDBQ DBQ20120623075011006/23/12 07:50:31  5-MIN KDBQ 231350Z 17006KT 10SM CLR 21/13 A3005 960 58 1900 170/06 RMK AO2 SLP169 T02110128
94908KDBQ DBQ20120623075509306/23/12 07:55:31  5-MIN KDBQ 231355Z 16006KT 10SM CLR 22/13 A3004 960 56 2000 160/06 RMK AO2
94908KDBQ DBQ20120623080009306/23/12 08:00:31  5-MIN KDBQ 231400Z 16004KT 10SM CLR 22/13 A3004 960 56 2000 160/04 RMK AO2
94908KDBQ DBQ20120623094009306/23/12 09:40:31  5-MIN KDBQ 231540Z 22007KT 10SM CLR 24/14 A3004 970 53 2300 220/07 RMK AO2
94908KDBQ DBQ20120623094509306/23/12 09:45:31  5-MIN KDBQ 231545Z 20005KT 10SM CLR 24/14 A3004 970 53 2300 200/05 RMK AO2
94908KDBQ DBQ20120623095011006/23/12 09:50:31  5-MIN KDBQ 231550Z 20008KT 10SM CLR 24/14 A3004 970 55 2300 200/08 RMK AO2 SLP168 T02390144
94908KDBQ DBQ20120623095509306/23/12 09:55:31  5-MIN KDBQ 231555Z 20007KT 10SM CLR 24/14 A3004 970 53 2300 200/07 RMK AO2
94908KDBQ DBQ20120623100009306/23/12 10:00:31  5-MIN KDBQ 231600Z 20006KT 10SM CLR 24/14 A3004 970 51 2300 200/06 RMK AO2
94908KDBQ DBQ20120623100509306/23/12 10:05:31  5-MIN KDBQ 231605Z 20005KT 10SM CLR 24/14 A3004 970 53 2300 200/05 RMK AO2
94908KDBQ DBQ20120623101009306/23/12 10:10:31  5-MIN KDBQ 231610Z 19008KT 10SM CLR 24/14 A3003 970 53 2300 190/08 RMK AO2
94908KDBQ DBQ20120623101509306/23/12 10:15:31  5-MIN KDBQ 231615Z 21008KT 10SM CLR 25/14 A3003 980 51 2400 210/08 RMK AO2
94908KDBQ DBQ20120623102009306/23/12 10:20:31  5-MIN KDBQ 231620Z 20008KT 10SM CLR 25/14 A3003 980 51 2400 200/08 RMK AO2
94908KDBQ DBQ20120623102509306/23/12 10:25:31  5-MIN KDBQ 231625Z 20006KT 10SM CLR 25/14 A3003 980 49 2400 200/06 RMK AO2
94908KDBQ DBQ20120623103009306/23/12 10:30:31  5-MIN KDBQ 231630Z 21009KT 10SM CLR 26/14 A3003 980 49 2500 210/09 RMK AO2
94908KDBQ DBQ20120623103509306/23/12 10:35:31  5-MIN KDBQ 231635Z 20007KT 10SM CLR 26/14 A3003 980 49 2500 200/07 RMK AO2
94908KDBQ DBQ20120623104009306/23/12 10:40:31  5-MIN KDBQ 231640Z 20007KT 10SM CLR 26/14 A3003 980 49 2500 200/07 RMK AO2
94908KDBQ DBQ20120623104509306/23/12 10:45:31  5-MIN KDBQ 231645Z 19007KT 10SM CLR 26/14 A3003 980 49 2500 190/07 RMK AO2
94908KDBQ DBQ20120623105011006/23/12 10:50:31  5-MIN KDBQ 231650Z 17007KT 10SM CLR 26/14 A3003 980 49 2500 170/07 RMK AO2 SLP164 T02560144
94908KDBQ DBQ20120623105509306/23/12 10:55:31  5-MIN KDBQ 231655Z 20009KT 10SM CLR 26/14 A3003 980 48 2500 200/09 RMK AO2
94908KDBQ DBQ20120623110009306/23/12 11:00:31  5-MIN KDBQ 231700Z 17008KT 10SM CLR 26/14 A3003 980 48 2500 170/08 RMK AO2
94908KDBQ DBQ20120623110509306/23/12 11:05:31  5-MIN KDBQ 231705Z 19007KT 10SM CLR 25/14 A3003 980 51 2400 180/07 RMK AO2
94908KDBQ DBQ20120623111009306/23/12 11:10:31  5-MIN KDBQ 231710Z 17007KT 10SM CLR 25/14 A3002 980 51 2400 170/07 RMK AO2
94908KDBQ DBQ20120623111509306/23/12 11:15:31  5-MIN KDBQ 231715Z 19008KT 10SM CLR 25/14 A3002 980 49 2400 190/08 RMK AO2
94908KDBQ DBQ20120623112009306/23/12 11:20:31  5-MIN KDBQ 231720Z 18007KT 10SM CLR 25/14 A3002 980 49 2400 180/07 RMK AO2
94908KDBQ DBQ20120623112509306/23/12 11:25:31  5-MIN KDBQ 231725Z 17008KT 10SM CLR 25/14 A3002 980 51 2400 170/08 RMK AO2
94908KDBQ DBQ20120623113009306/23/12 11:30:31  5-MIN KDBQ 231730Z 16010KT 10SM CLR 25/14 A3002 990 49 2400 160/10 RMK AO2
94908KDBQ DBQ20120623113509306/23/12 11:35:31  5-MIN KDBQ 231735Z 17008KT 10SM CLR 25/14 A3002 990 49 2400 170/08 RMK AO2
94908KDBQ DBQ20120623114009306/23/12 11:40:31  5-MIN KDBQ 231740Z 15010KT 10SM CLR 26/14 A3002 990 49 2500 150/10 RMK AO2
94908KDBQ DBQ20120623114509306/23/12 11:45:31  5-MIN KDBQ 231745Z 15010KT 10SM CLR 26/14 A3002 990 49 2500 150/10 RMK AO2
94908KDBQ DBQ20120623115012806/23/12 11:50:31  5-MIN KDBQ 231750Z 17010KT 10SM CLR 25/14 A3002 990 49 2400 170/10 RMK AO2 SLP160 T02500139 10261 20183 51004
94908KDBQ DBQ20120623115509306/23/12 11:55:31  5-MIN KDBQ 231755Z 16011KT 10SM CLR 25/14 A3002 990 49 2400 160/11 RMK AO2
94908KDBQ DBQ20120623120009306/23/12 12:00:31  5-MIN KDBQ 231800Z 17008KT 10SM CLR 25/14 A3002 990 49 2400 170/08 RMK AO2
94908KDBQ DBQ20120623120509906/23/12 12:05:31  5-MIN KDBQ 231805Z 15010G15KT 10SM CLR 25/14 A3002 990 49 2400 150/10G15 RMK AO2
94908KDBQ DBQ20120623121009906/23/12 12:10:31  5-MIN KDBQ 231810Z 16010G15KT 10SM CLR 25/14 A3001 990 49 2400 150/10G15 RMK AO2
94908KDBQ DBQ20120623121509306/23/12 12:15:31  5-MIN KDBQ 231815Z 15008KT 10SM CLR 25/14 A3001 990 49 2400 150/08 RMK AO2
94908KDBQ DBQ20120623122009406/23/12 12:20:31  5-MIN KDBQ 231820Z 15008KT 10SM CLR 26/14 A3001 1000 49 2500 150/08 RMK AO2
94908KDBQ DBQ20120623122509406/23/12 12:25:31  5-MIN KDBQ 231825Z 16008KT 10SM CLR 26/14 A3001 1000 48 2500 160/08 RMK AO2
94908KDBQ DBQ20120623123009406/23/12 12:30:31  5-MIN KDBQ 231830Z 15010KT 10SM CLR 26/14 A3001 1000 48 2500 150/10 RMK AO2
94908KDBQ DBQ20120623123509406/23/12 12:35:31  5-MIN KDBQ 231835Z 16008KT 10SM CLR 26/13 A3001 1000 46 2500 160/08 RMK AO2
94908KDBQ DBQ20120623124009406/23/12 12:40:31  5-MIN KDBQ 231840Z 16007KT 10SM CLR 26/14 A3001 1000 48 2500 160/07 RMK AO2
94908KDBQ DBQ20120623124509406/23/12 12:45:31  5-MIN KDBQ 231845Z 14008KT 10SM CLR 26/14 A3001 1000 49 2500 140/08 RMK AO2
94908KDBQ DBQ20120623125011106/23/12 12:50:31  5-MIN KDBQ 231850Z 15010KT 10SM CLR 26/14 A3001 1000 48 2500 150/10 RMK AO2 SLP157 T02560139
94908KDBQ DBQ20120623125509306/23/12 12:55:31  5-MIN KDBQ 231855Z 18009KT 10SM CLR 26/14 A3001 990 48 2500 180/09 RMK AO2
94908KDBQ DBQ20120623130009906/23/12 13:00:31  5-MIN KDBQ 231900Z 17011G14KT 10SM CLR 26/14 A3001 990 49 2500 170/11G14 RMK AO2
94908KDBQ DBQ20120623130510006/23/12 13:05:31  5-MIN KDBQ 231905Z 17011G14KT 10SM CLR 26/14 A3001 1000 48 2500 170/11G14 RMK AO2
94908KDBQ DBQ20120623131009406/23/12 13:10:31  5-MIN KDBQ 231910Z 17009KT 10SM CLR 26/14 A3001 1000 48 2500 170/09 RMK AO2
94908KDBQ DBQ20120623131509906/23/12 13:15:31  5-MIN KDBQ 231915Z 17009G15KT 10SM CLR 26/14 A3001 990 49 2500 170/09G15 RMK AO2
94908KDBQ DBQ20120623132010006/23/12 13:20:31  5-MIN KDBQ 231920Z 17011G16KT 10SM CLR 26/14 A3001 1000 48 2500 170/11G16 RMK AO2
94908KDBQ DBQ20120623132509306/23/12 13:25:31  5-MIN KDBQ 231925Z 18009KT 10SM CLR 26/14 A3001 990 49 2500 170/09 RMK AO2
94908KDBQ DBQ20120623133009406/23/12 13:30:31  5-MIN KDBQ 231930Z 16008KT 10SM CLR 25/14 A3001 1000 49 2400 160/08 RMK AO2
94908KDBQ DBQ20120623133509406/23/12 13:35:31  5-MIN KDBQ 231935Z 15012KT 10SM CLR 25/14 A3001 1000 49 2400 150/12 RMK AO2
94908KDBQ DBQ20120623134009406/23/12 13:40:31  5-MIN KDBQ 231940Z 17011KT 10SM CLR 25/13 A3000 1000 48 2400 170/11 RMK AO2
94908KDBQ DBQ20120623134509406/23/12 13:45:31  5-MIN KDBQ 231945Z 17009KT 10SM CLR 25/14 A3001 1000 49 2400 170/09 RMK AO2
94908KDBQ DBQ20120623135011106/23/12 13:50:31  5-MIN KDBQ 231950Z 17012KT 10SM CLR 25/14 A3001 1000 49 2400 170/12 RMK AO2 SLP158 T02500139
94908KDBQ DBQ20120623135510406/23/12 13:55:31  5-MIN KDBQ 231955Z AUTO 17012KT 10SM CLR 25/14 A3001 1000 49 2400 170/12 RMK AO2 TSNO
94908KDBQ DBQ20120623140009406/23/12 14:00:31  5-MIN KDBQ 232000Z 17011KT 10SM CLR 25/14 A3001 1000 49 2400 170/11 RMK AO2
94908KDBQ DBQ20120623140509406/23/12 14:05:31  5-MIN KDBQ 232005Z 18009KT 10SM CLR 25/14 A3001 1000 49 2400 180/09 RMK AO2
94908KDBQ DBQ20120623141009406/23/12 14:10:31  5-MIN KDBQ 232010Z 19011KT 10SM CLR 25/14 A3001 1000 49 2400 190/11 RMK AO2
94908KDBQ DBQ20120623141509406/23/12 14:15:31  5-MIN KDBQ 232015Z 18009KT 10SM CLR 25/14 A3001 1000 49 2400 180/09 RMK AO2
94908KDBQ DBQ20120623142009406/23/12 14:20:31  5-MIN KDBQ 232020Z 16012KT 10SM CLR 25/14 A3001 1000 49 2400 160/12 RMK AO2
94908KDBQ DBQ20120623142509406/23/12 14:25:31  5-MIN KDBQ 232025Z 16011KT 10SM CLR 25/14 A3000 1000 49 2400 160/11 RMK AO2
94908KDBQ DBQ20120623143009706/23/12 14:30:31  5-MIN KDBQ 232030Z 17012KT 10SM FEW110 25/14 A3001 1000 49 2400 170/12 RMK AO2
94908KDBQ DBQ20120623143509706/23/12 14:35:31  5-MIN KDBQ 232035Z 18010KT 10SM FEW110 26/14 A3001 1000 49 2500 180/10 RMK AO2
94908KDBQ DBQ20120623144009406/23/12 14:40:31  5-MIN KDBQ 232040Z 18010KT 10SM CLR 26/14 A3000 1000 48 2500 180/10 RMK AO2
94908KDBQ DBQ20120623144509406/23/12 14:45:31  5-MIN KDBQ 232045Z 18011KT 10SM CLR 26/14 A3000 1000 49 2500 170/11 RMK AO2
94908KDBQ DBQ20120623145011706/23/12 14:50:31  5-MIN KDBQ 232050Z 16011KT 10SM CLR 26/14 A3000 1010 49 2500 150/11 RMK AO2 SLP153 T02560144 58009
94908KDBQ DBQ20120623145509406/23/12 14:55:31  5-MIN KDBQ 232055Z 17011KT 10SM CLR 26/14 A3000 1010 48 2500 170/11 RMK AO2
94908KDBQ DBQ20120623150009406/23/12 15:00:31  5-MIN KDBQ 232100Z 16010KT 10SM CLR 25/14 A2999 1010 49 2400 160/10 RMK AO2
94908KDBQ DBQ20120623150509406/23/12 15:05:31  5-MIN KDBQ 232105Z 16009KT 10SM CLR 26/14 A2999 1020 49 2500 160/09 RMK AO2
94908KDBQ DBQ20120623151010406/23/12 15:10:31  5-MIN KDBQ 232110Z 14009KT 10SM FEW120 26/14 A2998 1030 48 2500 140/09 RMK AO2 PRESFR
94908KDBQ DBQ20120623151509706/23/12 15:15:31  5-MIN KDBQ 232115Z 14009KT 10SM SCT120 25/14 A2998 1020 51 2400 140/09 RMK AO2
94908KDBQ DBQ20120623152009706/23/12 15:20:31  5-MIN KDBQ 232120Z 15009KT 10SM SCT120 25/14 A2999 1020 51 2400 150/09 RMK AO2
94908KDBQ DBQ20120623152509706/23/12 15:25:31  5-MIN KDBQ 232125Z 18009KT 10SM FEW120 25/14 A2999 1010 51 2400 180/09 RMK AO2
94908KDBQ DBQ20120623153009706/23/12 15:30:31  5-MIN KDBQ 232130Z 17009KT 10SM FEW120 25/14 A3000 1010 51 2400 170/09 RMK AO2
94908KDBQ DBQ20120623153509706/23/12 15:35:31  5-MIN KDBQ 232135Z 17011KT 10SM FEW120 25/14 A3000 1010 51 2400 170/11 RMK AO2
94908KDBQ DBQ20120623154009706/23/12 15:40:31  5-MIN KDBQ 232140Z 18010KT 10SM SCT120 25/14 A3000 1010 49 2400 180/10 RMK AO2
94908KDBQ DBQ20120623154509706/23/12 15:45:31  5-MIN KDBQ 232145Z 18009KT 10SM BKN110 25/14 A3000 1010 49 2400 180/09 RMK AO2
94908KDBQ DBQ20120623155011406/23/12 15:50:31  5-MIN KDBQ 232150Z 19008KT 10SM BKN110 25/14 A3000 1010 51 2400 190/08 RMK AO2 SLP154 T02500144
94908KDBQ DBQ20120623155509706/23/12 15:55:31  5-MIN KDBQ 232155Z 19008KT 10SM BKN110 25/14 A3000 1000 51 2400 180/08 RMK AO2
94908KDBQ DBQ20120623160009706/23/12 16:00:31  5-MIN KDBQ 232200Z 18008KT 10SM OVC110 24/14 A3000 1010 53 2400 180/08 RMK AO2
94908KDBQ DBQ20120623160509706/23/12 16:05:31  5-MIN KDBQ 232205Z 18007KT 10SM OVC110 24/15 A3000 1010 55 2400 180/07 RMK AO2
94908KDBQ DBQ20120623161009706/23/12 16:10:31  5-MIN KDBQ 232210Z 18007KT 10SM OVC110 24/14 A3000 1010 53 2400 180/07 RMK AO2
94908KDBQ DBQ20120623161509706/23/12 16:15:31  5-MIN KDBQ 232215Z 18007KT 10SM OVC110 24/15 A3000 1000 55 2400 180/07 RMK AO2
94908KDBQ DBQ20120623162009706/23/12 16:20:31  5-MIN KDBQ 232220Z 18008KT 10SM OVC110 24/15 A3000 1010 55 2400 180/08 RMK AO2
94908KDBQ DBQ20120623162509706/23/12 16:25:31  5-MIN KDBQ 232225Z 18006KT 10SM OVC110 24/15 A3000 1000 55 2400 180/06 RMK AO2
94908KDBQ DBQ20120623163009706/23/12 16:30:31  5-MIN KDBQ 232230Z 18006KT 10SM OVC110 24/15 A3000 1010 57 2300 180/06 RMK AO2
94908KDBQ DBQ20120623163509706/23/12 16:35:31  5-MIN KDBQ 232235Z 18006KT 10SM OVC110 24/15 A3000 1010 57 2300 180/06 RMK AO2
94908KDBQ DBQ20120623164009706/23/12 16:40:31  5-MIN KDBQ 232240Z 17007KT 10SM OVC100 24/15 A3000 1010 57 2300 170/07 RMK AO2
94908KDBQ DBQ20120623164509706/23/12 16:45:31  5-MIN KDBQ 232245Z 17006KT 10SM OVC100 24/15 A3000 1010 57 2300 170/06 RMK AO2
94908KDBQ DBQ20120623165011406/23/12 16:50:31  5-MIN KDBQ 232250Z 17007KT 10SM OVC100 24/15 A3000 1010 57 2300 170/07 RMK AO2 SLP154 T02390150
94908KDBQ DBQ20120623165509706/23/12 16:55:31  5-MIN KDBQ 232255Z 17005KT 10SM OVC100 24/15 A3000 1010 57 2300 170/05 RMK AO2
94908KDBQ DBQ20120623170009706/23/12 17:00:31  5-MIN KDBQ 232300Z 18005KT 10SM OVC100 24/16 A3000 1010 59 2300 180/05 RMK AO2
94908KDBQ DBQ20120623170509706/23/12 17:05:31  5-MIN KDBQ 232305Z 18004KT 10SM OVC100 24/16 A3000 1010 59 2300 180/04 RMK AO2
94908KDBQ DBQ20120623171009706/23/12 17:10:31  5-MIN KDBQ 232310Z 19005KT 10SM OVC100 23/16 A3000 1000 61 2200 190/05 RMK AO2
94908KDBQ DBQ20120623171509706/23/12 17:15:31  5-MIN KDBQ 232315Z 19005KT 10SM OVC100 23/16 A3000 1000 63 2200 190/05 RMK AO2
94908KDBQ DBQ20120623172009706/23/12 17:20:31  5-MIN KDBQ 232320Z 18004KT 10SM OVC100 23/16 A3000 1000 63 2200 180/04 RMK AO2
94908KDBQ DBQ20120623172509706/23/12 17:25:31  5-MIN KDBQ 232325Z 18004KT 10SM OVC100 23/16 A3000 1000 63 2200 180/04 RMK AO2
94908KDBQ DBQ20120623173009706/23/12 17:30:31  5-MIN KDBQ 232330Z 17004KT 10SM OVC095 23/16 A3000 1010 63 2200 170/04 RMK AO2
94908KDBQ DBQ20120623173509706/23/12 17:35:31  5-MIN KDBQ 232335Z 16004KT 10SM OVC095 23/16 A3000 1010 63 2200 160/04 RMK AO2
94908KDBQ DBQ20120623174009706/23/12 17:40:31  5-MIN KDBQ 232340Z 15003KT 10SM OVC095 23/16 A3000 1010 63 2200 150/03 RMK AO2
94908KDBQ DBQ20120623174509706/23/12 17:45:31  5-MIN KDBQ 232345Z 16003KT 10SM OVC090 23/16 A3000 1010 61 2200 150/03 RMK AO2
94908KDBQ DBQ20120623175013206/23/12 17:50:31  5-MIN KDBQ 232350Z 16003KT 10SM OVC090 23/16 A3000 1010 61 2200 160/03 RMK AO2 SLP153 T02330156 10261 20233 58007
94908KDBQ DBQ20120623175509706/23/12 17:55:31  5-MIN KDBQ 232355Z 15003KT 10SM OVC090 23/16 A3000 1010 61 2200 150/03 RMK AO2
94908KDBQ DBQ20120623180009706/23/12 18:00:31  5-MIN KDBQ 240000Z 16003KT 10SM OVC085 23/16 A3000 1010 63 2200 160/03 RMK AO2
94908KDBQ DBQ20120623180509906/23/12 18:05:31  5-MIN KDBQ 240005Z 17004KT 10SM OVC085 23/16 A3000 1010 65 2200 170/04 RMK AO2 $
94908KDBQ DBQ20120623181009906/23/12 18:10:31  5-MIN KDBQ 240010Z 17004KT 10SM OVC085 22/17 A3000 1000 70 2100 170/04 RMK AO2 $
94908KDBQ DBQ20120623181509906/23/12 18:15:31  5-MIN KDBQ 240015Z 18004KT 10SM OVC080 22/17 A3000 1000 70 2100 180/04 RMK AO2 $
94908KDBQ DBQ20120623182009306/23/12 18:20:31  5-MIN KDBQ 240020Z 10SM OVC080 22/17 A3000 1000 70 2100 M /M RMK AO2 PNO $
94908KDBQ DBQ20120623182509906/23/12 18:25:31  5-MIN KDBQ 240025Z 16005KT 10SM OVC080 23/16 A3000 1000 65 2200 160/05 RMK AO2 $
94908KDBQ DBQ20120623183009906/23/12 18:30:31  5-MIN KDBQ 240030Z 17005KT 10SM OVC080 23/16 A3000 1000 63 2200 170/05 RMK AO2 $
94908KDBQ DBQ20120623183509906/23/12 18:35:31  5-MIN KDBQ 240035Z 19003KT 10SM OVC080 22/16 A3000 1000 65 2100 190/03 RMK AO2 $
94908KDBQ DBQ20120623184009906/23/12 18:40:31  5-MIN KDBQ 240040Z 17004KT 10SM OVC080 22/16 A3000 1000 70 2000 170/04 RMK AO2 $
94908KDBQ DBQ20120623184509906/23/12 18:45:31  5-MIN KDBQ 240045Z 17005KT 10SM OVC080 22/16 A3000 1000 68 2100 170/05 RMK AO2 $
94908KDBQ DBQ20120623185012106/23/12 18:50:31  5-MIN KDBQ 240050Z AUTO 17006KT 10SM OVC080 22/16 A3000 1000 65 2100 170/06 RMK AO2 SLP154 T02220156 $
94908KDBQ DBQ20120623185510406/23/12 18:55:31  5-MIN KDBQ 240055Z AUTO 16005KT 10SM OVC080 22/16 A3000 1000 65 2100 160/05 RMK AO2 $
94908KDBQ DBQ20120623190010406/23/12 19:00:31  5-MIN KDBQ 240100Z AUTO 16005KT 10SM OVC075 22/16 A3000 1000 65 2100 160/05 RMK AO2 $
94908KDBQ DBQ20120623190510406/23/12 19:05:31  5-MIN KDBQ 240105Z AUTO 16005KT 10SM OVC075 22/16 A3000 1000 65 2100 160/05 RMK AO2 $
94908KDBQ DBQ20120623191010406/23/12 19:10:31  5-MIN KDBQ 240110Z AUTO 16005KT 10SM OVC075 22/16 A3000 1010 65 2100 160/05 RMK AO2 $
94908KDBQ DBQ20120623191510406/23/12 19:15:31  5-MIN KDBQ 240115Z AUTO 16006KT 10SM OVC075 22/16 A3000 1000 65 2100 160/06 RMK AO2 $
94908KDBQ DBQ20120623192010406/23/12 19:20:31  5-MIN KDBQ 240120Z AUTO 16006KT 10SM OVC080 22/15 A3000 1000 63 2100 160/06 RMK AO2 $
94908KDBQ DBQ20120623192510406/23/12 19:25:31  5-MIN KDBQ 240125Z AUTO 16006KT 10SM OVC080 22/15 A3000 1010 63 2100 160/06 RMK AO2 $
94908KDBQ DBQ20120623193010406/23/12 19:30:31  5-MIN KDBQ 240130Z AUTO 16005KT 10SM OVC080 22/15 A3000 1000 63 2100 160/05 RMK AO2 $
94908KDBQ DBQ20120623193510406/23/12 19:35:31  5-MIN KDBQ 240135Z AUTO 16005KT 10SM OVC080 22/15 A3000 1000 63 2100 160/05 RMK AO2 $
94908KDBQ DBQ20120623194011106/23/12 19:40:31  5-MIN KDBQ 240140Z AUTO 16005KT 10SM BKN070 OVC085 22/15 A3000 1000 63 2100 160/05 RMK AO2 $
94908KDBQ DBQ20120623194511106/23/12 19:45:31  5-MIN KDBQ 240145Z AUTO 16005KT 10SM BKN070 OVC085 22/15 A3000 1000 63 2100 160/05 RMK AO2 $
94908KDBQ DBQ20120623195012806/23/12 19:50:31  5-MIN KDBQ 240150Z AUTO 16005KT 10SM BKN070 OVC085 22/15 A3001 1000 63 2100 160/05 RMK AO2 SLP155 T02220150 $
94908KDBQ DBQ20120623195510406/23/12 19:55:31  5-MIN KDBQ 240155Z AUTO 16005KT 10SM OVC070 22/15 A3000 1000 65 2000 160/05 RMK AO2 $
94908KDBQ DBQ20120623200010406/23/12 20:00:31  5-MIN KDBQ 240200Z AUTO 17005KT 10SM OVC070 22/15 A3000 1000 65 2000 160/05 RMK AO2 $
94908KDBQ DBQ20120623200511106/23/12 20:05:31  5-MIN KDBQ 240205Z AUTO 16005KT 10SM BKN070 OVC095 22/15 A3000 1000 65 2000 160/05 RMK AO2 $
94908KDBQ DBQ20120623201011106/23/12 20:10:31  5-MIN KDBQ 240210Z AUTO 16006KT 10SM BKN070 OVC095 21/15 A3000 1000 68 2000 160/06 RMK AO2 $
94908KDBQ DBQ20120623201511106/23/12 20:15:31  5-MIN KDBQ 240215Z AUTO 16007KT 10SM SCT070 OVC095 21/15 A3000 1000 68 2000 160/07 RMK AO2 $
94908KDBQ DBQ20120623202011106/23/12 20:20:31  5-MIN KDBQ 240220Z AUTO 16006KT 10SM SCT070 OVC095 21/15 A3000 1000 68 2000 160/06 RMK AO2 $
94908KDBQ DBQ20120623202511106/23/12 20:25:31  5-MIN KDBQ 240225Z AUTO 16007KT 10SM FEW070 OVC095 21/15 A3000 1000 68 2000 160/07 RMK AO2 $
94908KDBQ DBQ20120623203011106/23/12 20:30:31  5-MIN KDBQ 240230Z AUTO 16007KT 10SM FEW070 OVC095 21/15 A3001 1000 68 2000 160/07 RMK AO2 $
94908KDBQ DBQ20120623203510406/23/12 20:35:31  5-MIN KDBQ 240235Z AUTO 16007KT 10SM OVC095 21/15 A3001 1000 68 2000 160/07 RMK AO2 $
94908KDBQ DBQ20120623204011106/23/12 20:40:31  5-MIN KDBQ 240240Z AUTO 16006KT 10SM FEW065 OVC095 21/15 A3001 1000 68 2000 160/06 RMK AO2 $
94908KDBQ DBQ20120623204511106/23/12 20:45:31  5-MIN KDBQ 240245Z AUTO 16006KT 10SM SCT070 OVC095 21/15 A3001 1000 68 2000 160/06 RMK AO2 $
94908KDBQ DBQ20120623205013406/23/12 20:50:31  5-MIN KDBQ 240250Z AUTO 16006KT 10SM BKN065 OVC095 21/15 A3001 1000 68 2000 160/06 RMK AO2 SLP157 T02110150 50000 $
94908KDBQ DBQ20120623205511106/23/12 20:55:31  5-MIN KDBQ 240255Z AUTO 16007KT 10SM BKN065 OVC095 21/15 A3001 1000 68 2000 160/07 RMK AO2 $
94908KDBQ DBQ20120623210011106/23/12 21:00:31  5-MIN KDBQ 240300Z AUTO 16007KT 10SM BKN065 OVC090 21/15 A3001 1000 68 2000 160/07 RMK AO2 $
94908KDBQ DBQ20120623210511106/23/12 21:05:31  5-MIN KDBQ 240305Z AUTO 16008KT 10SM BKN060 BKN090 21/15 A3001 1000 68 2000 160/08 RMK AO2 $
94908KDBQ DBQ20120623211010406/23/12 21:10:31  5-MIN KDBQ 240310Z AUTO 16008KT 10SM BKN060 21/15 A3001 1000 68 2000 160/08 RMK AO2 $
94908KDBQ DBQ20120623211510406/23/12 21:15:31  5-MIN KDBQ 240315Z AUTO 16007KT 10SM SCT060 21/14 A3001 1000 67 1900 160/07 RMK AO2 $
94908KDBQ DBQ20120623212010406/23/12 21:20:31  5-MIN KDBQ 240320Z AUTO 16008KT 10SM SCT060 21/14 A3001 1000 67 1900 160/08 RMK AO2 $
94908KDBQ DBQ20120623212510406/23/12 21:25:31  5-MIN KDBQ 240325Z AUTO 16007KT 10SM FEW060 21/14 A3001 1000 67 1900 160/07 RMK AO2 $
94908KDBQ DBQ20120623213010406/23/12 21:30:31  5-MIN KDBQ 240330Z AUTO 16007KT 10SM FEW060 20/14 A3001 1000 70 1900 160/07 RMK AO2 $
94908KDBQ DBQ20120623213510106/23/12 21:35:31  5-MIN KDBQ 240335Z AUTO 16008KT 10SM CLR 20/14 A3000 1000 70 1900 160/08 RMK AO2 $
94908KDBQ DBQ20120623214010106/23/12 21:40:31  5-MIN KDBQ 240340Z AUTO 16008KT 10SM CLR 20/14 A3000 1000 70 1900 160/08 RMK AO2 $
94908KDBQ DBQ20120623214510106/23/12 21:45:31  5-MIN KDBQ 240345Z AUTO 16008KT 10SM CLR 20/14 A3000 1000 70 1900 160/08 RMK AO2 $
94908KDBQ DBQ20120623215011806/23/12 21:50:31  5-MIN KDBQ 240350Z AUTO 16008KT 10SM CLR 19/14 A3000 1000 72 1800 160/08 RMK AO2 SLP153 T01940144 $
94908KDBQ DBQ20120623215510106/23/12 21:55:31  5-MIN KDBQ 240355Z AUTO 16009KT 10SM CLR 20/14 A3000 1010 70 1900 160/09 RMK AO2 $
94908KDBQ DBQ20120623220010106/23/12 22:00:31  5-MIN KDBQ 240400Z AUTO 16009KT 10SM CLR 20/14 A2999 1010 70 1900 160/09 RMK AO2 $
94908KDBQ DBQ20120623220510106/23/12 22:05:31  5-MIN KDBQ 240405Z AUTO 16008KT 10SM CLR 20/14 A2999 1010 70 1900 150/08 RMK AO2 $
94908KDBQ DBQ20120623221010106/23/12 22:10:31  5-MIN KDBQ 240410Z AUTO 15008KT 10SM CLR 20/14 A2999 1010 70 1900 150/08 RMK AO2 $
94908KDBQ DBQ20120623221510106/23/12 22:15:31  5-MIN KDBQ 240415Z AUTO 16007KT 10SM CLR 21/14 A2999 1010 67 1900 160/07 RMK AO2 $
94908KDBQ DBQ20120623222010106/23/12 22:20:31  5-MIN KDBQ 240420Z AUTO 17006KT 10SM CLR 20/14 A2999 1010 70 1900 160/06 RMK AO2 $
94908KDBQ DBQ20120623222510106/23/12 22:25:31  5-MIN KDBQ 240425Z AUTO 16006KT 10SM CLR 19/14 A2999 1010 72 1800 160/06 RMK AO2 $
94908KDBQ DBQ20120623223010106/23/12 22:30:31  5-MIN KDBQ 240430Z AUTO 16005KT 10SM CLR 19/14 A2999 1010 72 1800 160/05 RMK AO2 $
94908KDBQ DBQ20120623223510106/23/12 22:35:31  5-MIN KDBQ 240435Z AUTO 16006KT 10SM CLR 19/14 A2999 1020 72 1800 150/06 RMK AO2 $
94908KDBQ DBQ20120623224010106/23/12 22:40:31  5-MIN KDBQ 240440Z AUTO 15007KT 10SM CLR 19/14 A2999 1020 72 1800 150/07 RMK AO2 $
94908KDBQ DBQ20120623224510106/23/12 22:45:31  5-MIN KDBQ 240445Z AUTO 15005KT 10SM CLR 19/14 A2999 1020 72 1800 140/05 RMK AO2 $
94908KDBQ DBQ20120623225011806/23/12 22:50:31  5-MIN KDBQ 240450Z AUTO 14007KT 10SM CLR 19/14 A2998 1020 72 1800 140/07 RMK AO2 SLP147 T01940144 $
94908KDBQ DBQ20120623225510106/23/12 22:55:31  5-MIN KDBQ 240455Z AUTO 15007KT 10SM CLR 19/14 A2998 1020 72 1800 150/07 RMK AO2 $
94908KDBQ DBQ20120623230010106/23/12 23:00:31  5-MIN KDBQ 240500Z AUTO 15006KT 10SM CLR 19/14 A2998 1020 72 1800 150/06 RMK AO2 $
94908KDBQ DBQ20120623230510106/23/12 23:05:31  5-MIN KDBQ 240505Z AUTO 15006KT 10SM CLR 19/14 A2998 1020 72 1800 150/06 RMK AO2 $
94908KDBQ DBQ20120623231010106/23/12 23:10:31  5-MIN KDBQ 240510Z AUTO 16006KT 10SM CLR 19/14 A2998 1020 72 1800 160/06 RMK AO2 $
94908KDBQ DBQ20120623231510106/23/12 23:15:31  5-MIN KDBQ 240515Z AUTO 15007KT 10SM CLR 19/14 A2998 1020 72 1800 150/07 RMK AO2 $
94908KDBQ DBQ20120623232010106/23/12 23:20:31  5-MIN KDBQ 240520Z AUTO 16007KT 10SM CLR 19/14 A2999 1020 72 1800 160/07 RMK AO2 $
94908KDBQ DBQ20120623232510106/23/12 23:25:31  5-MIN KDBQ 240525Z AUTO 16006KT 10SM CLR 19/14 A2999 1020 72 1800 160/06 RMK AO2 $
94908KDBQ DBQ20120623233010106/23/12 23:30:31  5-MIN KDBQ 240530Z AUTO 17006KT 10SM CLR 19/14 A2999 1020 75 1700 170/06 RMK AO2 $
94908KDBQ DBQ20120623233510106/23/12 23:35:31  5-MIN KDBQ 240535Z AUTO 17006KT 10SM CLR 18/14 A2999 1020 78 1700 170/06 RMK AO2 $
94908KDBQ DBQ20120623234010106/23/12 23:40:31  5-MIN KDBQ 240540Z AUTO 19005KT 10SM CLR 18/14 A2999 1020 78 1700 190/05 RMK AO2 $
94908KDBQ DBQ20120623234510106/23/12 23:45:31  5-MIN KDBQ 240545Z AUTO 21004KT 10SM CLR 17/14 A2999 1020 83 1600 200/04 RMK AO2 $
94908KDBQ DBQ20120623235014606/23/12 23:50:31  5-MIN KDBQ 240550Z AUTO 21004KT 10SM CLR 17/14 A2999 1020 83 1600 210/04 RMK AO2 SLP150 T01720144 10233 20172 402610144 53004 $
94908KDBQ DBQ20120623235510106/23/12 23:55:31  5-MIN KDBQ 240555Z AUTO 20004KT 10SM CLR 18/14 A2999 1020 81 1600 200/04 RMK AO2 $
94908KDBQ DBQ20120624000010106/24/12 00:00:38  5-MIN KDBQ 240600Z AUTO 21005KT 10SM CLR 18/14 A2999 1020 81 1600 210/05 RMK AO2 $
94908KDBQ DBQ20120624000510106/24/12 00:05:31  5-MIN KDBQ 240605Z AUTO 20005KT 10SM CLR 17/14 A2999 1020 83 1600 200/05 RMK AO2 $
94908KDBQ DBQ20120624001010106/24/12 00:10:31  5-MIN KDBQ 240610Z AUTO 19004KT 10SM CLR 17/14 A2999 1020 83 1600 190/04 RMK AO2 $
94908KDBQ DBQ20120624001510106/24/12 00:15:33  5-MIN KDBQ 240615Z AUTO 20005KT 10SM CLR 18/14 A2999 1010 81 1600 200/05 RMK AO2 $
94908KDBQ DBQ20120624002010106/24/12 00:20:31  5-MIN KDBQ 240620Z AUTO 20005KT 10SM CLR 17/14 A2999 1010 83 1500 200/05 RMK AO2 $
94908KDBQ DBQ20120624002510106/24/12 00:25:31  5-MIN KDBQ 240625Z AUTO 21005KT 10SM CLR 17/14 A2999 1010 83 1500 210/05 RMK AO2 $
94908KDBQ DBQ20120624003010106/24/12 00:30:31  5-MIN KDBQ 240630Z AUTO 21006KT 10SM CLR 17/14 A2999 1010 83 1500 200/06 RMK AO2 $
94908KDBQ DBQ20120624003510106/24/12 00:35:31  5-MIN KDBQ 240635Z AUTO 20006KT 10SM CLR 17/14 A3000 1010 86 1500 200/06 RMK AO2 $
94908KDBQ DBQ20120624004010106/24/12 00:40:31  5-MIN KDBQ 240640Z AUTO 20007KT 10SM CLR 17/14 A2999 1010 83 1500 190/07 RMK AO2 $
94908KDBQ DBQ20120624004510106/24/12 00:45:31  5-MIN KDBQ 240645Z AUTO 20006KT 10SM CLR 17/14 A2999 1010 83 1500 200/06 RMK AO2 $
94908KDBQ DBQ20120624005012106/24/12 00:50:31  5-MIN KDBQ 240650Z AUTO 20006KT 10SM FEW085 16/14 A2999 1010 86 1400 200/06 RMK AO2 SLP152 T01610139 $
94908KDBQ DBQ20120624005510406/24/12 00:55:31  5-MIN KDBQ 240655Z AUTO 20005KT 10SM FEW085 17/14 A2999 1010 86 1500 200/05 RMK AO2 $
94908KDBQ DBQ20120624010010406/24/12 01:00:31  5-MIN KDBQ 240700Z AUTO 20005KT 10SM SCT085 17/14 A2999 1010 86 1500 200/05 RMK AO2 $
94908KDBQ DBQ20120624010510406/24/12 01:05:31  5-MIN KDBQ 240705Z AUTO 19005KT 10SM SCT085 16/14 A2999 1010 90 1400 190/05 RMK AO2 $
94908KDBQ DBQ20120624011010406/24/12 01:10:31  5-MIN KDBQ 240710Z AUTO 19005KT 10SM SCT085 17/14 A2999 1010 86 1500 190/05 RMK AO2 $
94908KDBQ DBQ20120624011510406/24/12 01:15:31  5-MIN KDBQ 240715Z AUTO 18005KT 10SM FEW085 17/14 A2999 1010 86 1500 180/05 RMK AO2 $
94908KDBQ DBQ20120624012010406/24/12 01:20:31  5-MIN KDBQ 240720Z AUTO 18005KT 10SM FEW085 17/14 A2999 1010 86 1500 180/05 RMK AO2 $
94908KDBQ DBQ20120624012510406/24/12 01:25:31  5-MIN KDBQ 240725Z AUTO 18006KT 10SM FEW085 17/14 A2999 1010 83 1500 180/06 RMK AO2 $
94908KDBQ DBQ20120624013010106/24/12 01:30:31  5-MIN KDBQ 240730Z AUTO 19004KT 10SM CLR 17/14 A2999 1010 86 1500 190/04 RMK AO2 $
94908KDBQ DBQ20120624013510106/24/12 01:35:31  5-MIN KDBQ 240735Z AUTO 20003KT 10SM CLR 17/14 A2999 1010 86 1500 200/03 RMK AO2 $
94908KDBQ DBQ20120624014010406/24/12 01:40:31  5-MIN KDBQ 240740Z AUTO 20004KT 10SM SCT080 17/14 A2999 1010 83 1500 200/04 RMK AO2 $
94908KDBQ DBQ20120624014510406/24/12 01:45:31  5-MIN KDBQ 240745Z AUTO 20004KT 10SM BKN080 18/14 A2999 1010 81 1600 200/04 RMK AO2 $
94908KDBQ DBQ20120624015012106/24/12 01:50:31  5-MIN KDBQ 240750Z AUTO 20004KT 10SM BKN080 18/15 A2999 1010 83 1600 200/04 RMK AO2 SLP151 T01780150 $
94908KDBQ DBQ20120624015510406/24/12 01:55:31  5-MIN KDBQ 240755Z AUTO 21003KT 10SM BKN080 17/15 A2999 1010 87 1500 200/03 RMK AO2 $
94908KDBQ DBQ20120624020010406/24/12 02:00:31  5-MIN KDBQ 240800Z AUTO 21003KT 10SM OVC080 17/15 A2999 1010 87 1500 210/03 RMK AO2 $
94908KDBQ DBQ20120624020510406/24/12 02:05:31  5-MIN KDBQ 240805Z AUTO 21003KT 10SM OVC080 17/14 A2999 1010 83 1500 210/03 RMK AO2 $
94908KDBQ DBQ20120624021010406/24/12 02:10:31  5-MIN KDBQ 240810Z AUTO 21004KT 10SM BKN080 17/14 A2999 1010 86 1500 200/04 RMK AO2 $
94908KDBQ DBQ20120624021510406/24/12 02:15:31  5-MIN KDBQ 240815Z AUTO 20003KT 10SM BKN080 17/14 A2999 1010 86 1500 200/03 RMK AO2 $
94908KDBQ DBQ20120624022010406/24/12 02:20:31  5-MIN KDBQ 240820Z AUTO 00000KT 10SM OVC085 18/15 A2999 1010 83 1600 000/00 RMK AO2 $
94908KDBQ DBQ20120624022511106/24/12 02:25:31  5-MIN KDBQ 240825Z AUTO 18003KT 10SM FEW060 BKN085 18/15 A2999 1010 83 1600 180/03 RMK AO2 $
94908KDBQ DBQ20120624023011106/24/12 02:30:31  5-MIN KDBQ 240830Z AUTO 18004KT 10SM SCT065 BKN085 18/15 A2999 1020 83 1600 180/04 RMK AO2 $
94908KDBQ DBQ20120624023511106/24/12 02:35:31  5-MIN KDBQ 240835Z AUTO 19004KT 10SM FEW060 BKN080 18/15 A2999 1010 83 1600 190/04 RMK AO2 $
94908KDBQ DBQ20120624024011806/24/12 02:40:31  5-MIN KDBQ 240840Z AUTO 20003KT 10SM SCT060 BKN075 OVC090 18/15 A2999 1010 83 1600 190/03 RMK AO2 $
94908KDBQ DBQ20120624024511806/24/12 02:45:31  5-MIN KDBQ 240845Z AUTO 21003KT 10SM BKN060 BKN075 OVC090 18/15 A2999 1010 81 1700 210/03 RMK AO2 $
94908KDBQ DBQ20120624025013406/24/12 02:50:31  5-MIN KDBQ 240850Z AUTO 00000KT 10SM BKN060 OVC070 18/15 A2999 1010 83 1600 000/00 RMK AO2 SLP150 T01780150 55007 $
94908KDBQ DBQ20120624025511106/24/12 02:55:31  5-MIN KDBQ 240855Z AUTO 00000KT 10SM BKN060 OVC070 18/15 A2999 1020 83 1600 000/00 RMK AO2 $
94908KDBQ DBQ20120624030011106/24/12 03:00:31  5-MIN KDBQ 240900Z AUTO 00000KT 10SM BKN060 OVC070 18/15 A2998 1020 83 1600 000/00 RMK AO2 $
94908KDBQ DBQ20120624030511106/24/12 03:05:31  5-MIN KDBQ 240905Z AUTO 18003KT 10SM BKN060 OVC070 18/15 A2998 1020 81 1700 180/03 RMK AO2 $
94908KDBQ DBQ20120624031011106/24/12 03:10:31  5-MIN KDBQ 240910Z AUTO 00000KT 10SM BKN060 OVC070 18/15 A2998 1030 81 1700 000/00 RMK AO2 $
94908KDBQ DBQ20120624031511106/24/12 03:15:31  5-MIN KDBQ 240915Z AUTO 19003KT 10SM BKN060 BKN070 18/15 A2998 1030 81 1700 180/03 RMK AO2 $
94908KDBQ DBQ20120624032011106/24/12 03:20:31  5-MIN KDBQ 240920Z AUTO 19003KT 10SM BKN060 BKN070 18/15 A2998 1030 81 1700 190/03 RMK AO2 $
94908KDBQ DBQ20120624032510406/24/12 03:25:31  5-MIN KDBQ 240925Z AUTO 19003KT 10SM BKN060 18/15 A2997 1030 83 1600 190/03 RMK AO2 $
94908KDBQ DBQ20120624033010406/24/12 03:30:31  5-MIN KDBQ 240930Z AUTO 18005KT 10SM BKN055 18/15 A2997 1030 83 1600 180/05 RMK AO2 $
94908KDBQ DBQ20120624033510406/24/12 03:35:31  5-MIN KDBQ 240935Z AUTO 00000KT 10SM SCT055 18/15 A2997 1030 83 1600 000/00 RMK AO2 $
94908KDBQ DBQ20120624034010406/24/12 03:40:31  5-MIN KDBQ 240940Z AUTO 19003KT 10SM SCT060 17/15 A2997 1030 87 1600 190/03 RMK AO2 $
94908KDBQ DBQ20120624034510406/24/12 03:45:31  5-MIN KDBQ 240945Z AUTO 18003KT 10SM BKN060 18/15 A2997 1030 83 1600 180/03 RMK AO2 $
94908KDBQ DBQ20120624035012106/24/12 03:50:31  5-MIN KDBQ 240950Z AUTO 19004KT 10SM BKN055 18/15 A2997 1030 83 1600 190/04 RMK AO2 SLP143 T01780150 $
94908KDBQ DBQ20120624035510406/24/12 03:55:31  5-MIN KDBQ 240955Z AUTO 20003KT 10SM SCT060 18/15 A2997 1030 83 1600 190/03 RMK AO2 $
94908KDBQ DBQ20120624040010406/24/12 04:00:31  5-MIN KDBQ 241000Z AUTO 00000KT 10SM SCT060 17/15 A2997 1030 87 1600 000/00 RMK AO2 $
94908KDBQ DBQ20120624040510406/24/12 04:05:31  5-MIN KDBQ 241005Z AUTO 18003KT 10SM SCT060 17/15 A2997 1030 87 1600 180/03 RMK AO2 $
94908KDBQ DBQ20120624041010406/24/12 04:10:31  5-MIN KDBQ 241010Z AUTO 17003KT 10SM SCT055 17/15 A2997 1030 87 1600 170/03 RMK AO2 $
94908KDBQ DBQ20120624041510406/24/12 04:15:31  5-MIN KDBQ 241015Z AUTO 17004KT 10SM FEW055 17/15 A2997 1040 87 1600 170/04 RMK AO2 $
94908KDBQ DBQ20120624042010406/24/12 04:20:31  5-MIN KDBQ 241020Z AUTO 17005KT 10SM FEW055 17/15 A2997 1030 87 1600 170/05 RMK AO2 $
94908KDBQ DBQ20120624042510406/24/12 04:25:31  5-MIN KDBQ 241025Z AUTO 18004KT 10SM FEW060 17/15 A2997 1030 87 1600 180/04 RMK AO2 $
94908KDBQ DBQ20120624043010406/24/12 04:30:31  5-MIN KDBQ 241030Z AUTO 00000KT 10SM SCT060 17/15 A2998 1030 87 1600 000/00 RMK AO2 $
94908KDBQ DBQ20120624043510406/24/12 04:35:31  5-MIN KDBQ 241035Z AUTO 00000KT 10SM BKN060 18/15 A2998 1020 83 1600 000/00 RMK AO2 $
94908KDBQ DBQ20120624044010406/24/12 04:40:31  5-MIN KDBQ 241040Z AUTO 00000KT 10SM BKN060 18/15 A2998 1020 83 1600 000/00 RMK AO2 $
94908KDBQ DBQ20120624044510406/24/12 04:45:31  5-MIN KDBQ 241045Z AUTO 00000KT 10SM BKN055 18/15 A2998 1020 83 1600 000/00 RMK AO2 $
94908KDBQ DBQ20120624045011606/24/12 04:50:31  5-MIN KDBQ 241050Z 15003KT 10SM OVC060 18/15 A2998 1020 81 1700 150/03 RMK AO2 SLP147 T01830150 $
94908KDBQ DBQ20120624045509906/24/12 04:55:31  5-MIN KDBQ 241055Z 00000KT 10SM OVC060 18/15 A2998 1020 81 1700 000/00 RMK AO2 $
94908KDBQ DBQ20120624050009906/24/12 05:00:31  5-MIN KDBQ 241100Z 00000KT 10SM OVC060 19/15 A2998 1020 78 1800 000/00 RMK AO2 $
94908KDBQ DBQ20120624050509906/24/12 05:05:31  5-MIN KDBQ 241105Z 15004KT 10SM OVC060 19/15 A2998 1030 78 1800 150/04 RMK AO2 $
94908KDBQ DBQ20120624051009906/24/12 05:10:31  5-MIN KDBQ 241110Z 16003KT 10SM OVC060 19/15 A2998 1020 78 1700 160/03 RMK AO2 $
94908KDBQ DBQ20120624051510606/24/12 05:15:31  5-MIN KDBQ 241115Z 18003KT 10SM BKN060 OVC090 18/15 A2999 1020 81 1700 180/03 RMK AO2 $
94908KDBQ DBQ20120624052010606/24/12 05:20:31  5-MIN KDBQ 241120Z 00000KT 10SM BKN060 OVC085 19/15 A2999 1020 78 1700 000/00 RMK AO2 $
94908KDBQ DBQ20120624052510606/24/12 05:25:31  5-MIN KDBQ 241125Z 00000KT 10SM BKN060 BKN085 19/16 A2999 1020 81 1700 000/00 RMK AO2 $
94908KDBQ DBQ20120624053010606/24/12 05:30:31  5-MIN KDBQ 241130Z 14003KT 10SM BKN060 BKN085 19/15 A2998 1020 75 1800 140/03 RMK AO2 $
94908KDBQ DBQ20120624053510606/24/12 05:35:31  5-MIN KDBQ 241135Z 17003KT 10SM BKN060 BKN085 19/15 A2998 1020 75 1800 170/03 RMK AO2 $
94908KDBQ DBQ20120624054010606/24/12 05:40:31  5-MIN KDBQ 241140Z 15005KT 10SM BKN060 BKN085 19/15 A2998 1020 75 1800 150/05 RMK AO2 $
94908KDBQ DBQ20120624054511306/24/12 05:45:31  5-MIN KDBQ 241145Z 15004KT 10SM BKN060 BKN075 BKN090 20/15 A2998 1020 72 1900 150/04 RMK AO2 $
94908KDBQ DBQ20120624055013406/24/12 05:50:31  5-MIN KDBQ 241150Z 16004KT 10SM BKN060 20/15 A2999 1020 72 1900 160/04 RMK AO2 SLP149 T02000150 10200 20161 50000 $
94908KDBQ DBQ20120624055509806/24/12 05:55:31  5-MIN KDBQ 241155Z 13006KT 9SM BKN060 20/15 A2997 1030 72 1900 130/06 RMK AO2 $
94908KDBQ DBQ20120624060010506/24/12 06:00:31  5-MIN KDBQ 241200Z 13005KT 9SM BKN060 BKN075 21/15 A2997 1030 70 2000 130/05 RMK AO2 $
94908KDBQ DBQ20120624060510606/24/12 06:05:31  5-MIN KDBQ 241205Z 17004KT 10SM BKN060 BKN075 21/16 A2998 1020 70 2000 170/04 RMK AO2 $
94908KDBQ DBQ20120624061009906/24/12 06:10:31  5-MIN KDBQ 241210Z 19005KT 10SM BKN060 21/16 A2999 1020 70 2000 190/05 RMK AO2 $
94908KDBQ DBQ20120624061509906/24/12 06:15:31  5-MIN KDBQ 241215Z 20006KT 10SM BKN060 21/16 A2999 1010 70 2000 200/06 RMK AO2 $
94908KDBQ DBQ20120624062011206/24/12 06:20:31  5-MIN KDBQ 241220Z 23005KT 9SM BKN055 OVC070 21/16 A3001 1000 73 1900 230/05 RMK AO2 PRESRR $
94908KDBQ DBQ20120624062511906/24/12 06:25:31  5-MIN KDBQ 241225Z 30003KT 5SM RA OVC055 20/16 A3002 990 78 1800 300/03 RMK AO2 RAB21 PRESRR P0001 $
94908KDBQ DBQ20120624063012006/24/12 06:30:31  5-MIN KDBQ 241230Z 26008KT 4SM -RA OVC055 19/17 A3003 970 84 1800 260/08 RMK AO2 RAB21 PRESRR P0001 $
94908KDBQ DBQ20120624063513706/24/12 06:35:31  5-MIN KDBQ 241235Z 23010KT 3SM R36/5500VP6000FT +RA FEW040 OVC055 19/17 A3002 990 84 1800 230/10 RMK AO2 RAB21 P0005 $
94908KDBQ DBQ20120624064013806/24/12 06:40:31  5-MIN KDBQ 241240Z 21011KT 4SM R36/5500VP6000FT -RA SCT038 OVC055 19/17 A3001 1000 84 1800 210/11 RMK AO2 RAB21 P0007 $
94908KDBQ DBQ20120624064513506/24/12 06:45:31  5-MIN KDBQ 241245Z 19009KT 8SM -RA SCT035 BKN055 BKN090 19/17 A3000 1010 87 1700 190/09 RMK AO2 RAB21 PRESFR P0010 $
94908KDBQ DBQ20120624065014506/24/12 06:50:31  5-MIN KDBQ 241250Z 19008KT 10SM SCT035 BKN055 OVC090 19/16 A3000 1010 84 1700 190/08 RMK AO2 RAB21E50 SLP153 P0010 T01890161 $
94908KDBQ DBQ20120624065511306/24/12 06:55:31  5-MIN KDBQ 241255Z 19006KT 10SM FEW035 BKN055 OVC075 19/16 A3000 1010 84 1700 190/06 RMK AO2 $
94908KDBQ DBQ20120624070011306/24/12 07:00:31  5-MIN KDBQ 241300Z 18005KT 10SM FEW035 BKN060 OVC090 19/16 A3000 1000 84 1700 180/05 RMK AO2 $
94908KDBQ DBQ20120624070512706/24/12 07:05:31  5-MIN KDBQ 241305Z 20005KT 9SM -RA FEW030 BKN060 OVC090 19/16 A3002 990 84 1700 200/05 RMK AO2 RAB01 P0000 $
94908KDBQ DBQ20120624071015006/24/12 07:10:31  5-MIN KDBQ 241310Z 26005KT 5SM R36/6000VP6000FT RA FEW039 SCT055 OVC090 19/16 A3003 980 84 1700 260/05 RMK AO2 RAB01 PRESRR P0001 $
94908KDBQ DBQ20120624071514706/24/12 07:15:31  5-MIN KDBQ 241315Z 00000KT 1SM R36/5000VP6000FT +RA BR FEW034 SCT055 OVC090 18/17 A3001 990 93 1600 000/00 RMK AO2 RAB01 P0006 $
94908KDBQ DBQ20120624072014606/24/12 07:20:31  5-MIN KDBQ 241320Z 00000KT 3SM R36/5000VP6000FT RA BR SCT039 SCT060 OVC090 18/17 A3001 990 90 1700 000/00 RMK AO2 RAB01 P0012 $
94908KDBQ DBQ20120624072513006/24/12 07:25:31  5-MIN KDBQ 241325Z 00000KT 3SM -RA BR FEW042 SCT060 OVC090 18/17 A3001 990 90 1700 000/00 RMK AO2 RAB01 P0013 $
94908KDBQ DBQ20120624073013106/24/12 07:30:31  5-MIN KDBQ 241330Z 19004KT 3SM -RA BR FEW042 BKN060 OVC090 19/17 A3001 1000 87 1700 190/04 RMK AO2 RAB01 P0013 $
94908KDBQ DBQ20120624073513006/24/12 07:35:31  5-MIN KDBQ 241335Z 19006KT 3SM BR FEW040 BKN060 OVC095 19/17 A3001 1000 87 1700 190/06 RMK AO2 RAB01E33 P0013 $
94908KDBQ DBQ20120624074013006/24/12 07:40:31  5-MIN KDBQ 241340Z 19007KT 3SM BR FEW040 BKN060 OVC095 19/17 A3000 1000 90 1700 190/07 RMK AO2 RAB01E33 P0014 $
94908KDBQ DBQ20120624074511606/24/12 07:45:31  5-MIN KDBQ 241345Z 22008KT 3SM BR OVC060 19/17 A3001 1000 90 1700 220/08 RMK AO2 RAB01E33 P0014 $
94908KDBQ DBQ20120624075014006/24/12 07:50:31  5-MIN KDBQ 241350Z 22007KT 3SM BR FEW050 OVC060 19/17 A3001 1000 87 1700 220/07 RMK AO2 RAB01E33 SLP156 P0014 T01890167 $
94908KDBQ DBQ20120624075509906/24/12 07:55:31  5-MIN KDBQ 241355Z 21008KT 10SM OVC060 19/17 A3000 1000 87 1800 210/08 RMK AO2 $
94908KDBQ DBQ20120624080009906/24/12 08:00:31  5-MIN KDBQ 241400Z 22007KT 10SM BKN060 19/17 A3001 1000 84 1800 210/07 RMK AO2 $
94908KDBQ DBQ20120624080509906/24/12 08:05:31  5-MIN KDBQ 241405Z 22007KT 10SM BKN060 19/17 A3001 1000 87 1800 220/07 RMK AO2 $
94908KDBQ DBQ20120624081009906/24/12 08:10:31  5-MIN KDBQ 241410Z 20005KT 10SM SCT060 20/17 A3001 1000 84 1900 200/05 RMK AO2 $
94908KDBQ DBQ20120624081509906/24/12 08:15:31  5-MIN KDBQ 241415Z 20009KT 10SM FEW060 20/17 A3000 1000 84 1900 200/09 RMK AO2 $
94908KDBQ DBQ20120624082010606/24/12 08:20:31  5-MIN KDBQ 241420Z 20007KT 10SM FEW060 SCT110 21/17 A3000 1010 81 1900 200/07 RMK AO2 $
94908KDBQ DBQ20120624082509906/24/12 08:25:31  5-MIN KDBQ 241425Z 21006KT 10SM SCT110 21/18 A2999 1010 84 1900 210/06 RMK AO2 $
94908KDBQ DBQ20120624083009906/24/12 08:30:31  5-MIN KDBQ 241430Z 18005KT 10SM SCT110 21/18 A2999 1020 81 2000 180/05 RMK AO2 $
94908KDBQ DBQ20120624083510606/24/12 08:35:31  5-MIN KDBQ 241435Z 21006KT 10SM FEW075 SCT110 21/18 A2998 1020 81 2000 210/06 RMK AO2 $
94908KDBQ DBQ20120624084010606/24/12 08:40:31  5-MIN KDBQ 241440Z 20008KT 10SM FEW080 SCT110 22/18 A2999 1020 78 2100 190/08 RMK AO2 $
94908KDBQ DBQ20120624084510606/24/12 08:45:31  5-MIN KDBQ 241445Z 20006KT 10SM SCT075 BKN110 22/18 A2998 1020 75 2100 200/06 RMK AO2 $
94908KDBQ DBQ20120624085014206/24/12 08:50:31  5-MIN KDBQ 241450Z 21007KT 10SM SCT070 BKN090 BKN110 22/18 A2999 1020 81 2100 210/07 RMK AO2 SLP148 60024 T02170183 56004 $
94908KDBQ DBQ20120624085510606/24/12 08:55:31  5-MIN KDBQ 241455Z 21007KT 10SM SCT075 BKN090 22/18 A2999 1020 78 2100 210/07 RMK AO2 $
94908KDBQ DBQ20120624090010606/24/12 09:00:31  5-MIN KDBQ 241500Z 22009KT 10SM BKN075 BKN090 22/18 A2999 1010 78 2100 210/09 RMK AO2 $
94908KDBQ DBQ20120624090510606/24/12 09:05:31  5-MIN KDBQ 241505Z 20006KT 10SM BKN075 BKN090 22/18 A2999 1010 78 2100 200/06 RMK AO2 $
94908KDBQ DBQ20120624091010606/24/12 09:10:31  5-MIN KDBQ 241510Z 20007KT 10SM BKN070 BKN090 22/18 A3000 1010 81 2100 200/07 RMK AO2 $
94908KDBQ DBQ20120624091510606/24/12 09:15:31  5-MIN KDBQ 241515Z 20007KT 10SM BKN070 BKN090 22/18 A3000 1010 81 2100 200/07 RMK AO2 $
94908KDBQ DBQ20120624092010606/24/12 09:20:31  5-MIN KDBQ 241520Z 21006KT 10SM BKN075 BKN100 22/18 A3000 1010 81 2100 210/06 RMK AO2 $
94908KDBQ DBQ20120624092510606/24/12 09:25:31  5-MIN KDBQ 241525Z 17005KT 10SM SCT075 BKN095 22/18 A3000 1010 78 2100 160/05 RMK AO2 $
94908KDBQ DBQ20120624093010606/24/12 09:30:31  5-MIN KDBQ 241530Z 16004KT 10SM SCT070 BKN095 22/18 A3000 1010 78 2100 160/04 RMK AO2 $
94908KDBQ DBQ20120624093510606/24/12 09:35:31  5-MIN KDBQ 241535Z 00000KT 10SM BKN075 BKN090 22/18 A3000 1010 75 2100 000/00 RMK AO2 $
94908KDBQ DBQ20120624094010606/24/12 09:40:31  5-MIN KDBQ 241540Z 00000KT 10SM BKN075 BKN090 22/18 A3000 1010 75 2100 000/00 RMK AO2 $
94908KDBQ DBQ20120624094510606/24/12 09:45:31  5-MIN KDBQ 241545Z 00000KT 10SM SCT075 BKN090 22/17 A3000 1000 73 2100 000/00 RMK AO2 $
94908KDBQ DBQ20120624095012306/24/12 09:50:31  5-MIN KDBQ 241550Z 13005KT 10SM BKN075 BKN090 22/18 A3000 1010 75 2100 130/05 RMK AO2 SLP153 T02220178 $
94908KDBQ DBQ20120624095510606/24/12 09:55:31  5-MIN KDBQ 241555Z 00000KT 10SM BKN070 OVC090 22/18 A3000 1000 75 2100 000/00 RMK AO2 $
94908KDBQ DBQ20120624100010606/24/12 10:00:31  5-MIN KDBQ 241600Z VRB03KT 10SM BKN070 OVC090 23/18 A3000 1000 73 2200 VRB/03 RMK AO2 $
94908KDBQ DBQ20120624100510606/24/12 10:05:31  5-MIN KDBQ 241605Z 23003KT 10SM BKN070 OVC090 23/18 A3000 1000 73 2200 230/03 RMK AO2 $
94908KDBQ DBQ20120624101010606/24/12 10:10:31  5-MIN KDBQ 241610Z 00000KT 10SM BKN070 BKN090 22/18 A3000 1000 75 2100 000/00 RMK AO2 $
94908KDBQ DBQ20120624101509906/24/12 10:15:31  5-MIN KDBQ 241615Z 00000KT 10SM BKN070 23/18 A3000 1000 73 2200 000/00 RMK AO2 $
94908KDBQ DBQ20120624102009906/24/12 10:20:31  5-MIN KDBQ 241620Z 00000KT 10SM BKN070 23/18 A3000 1000 70 2200 000/00 RMK AO2 $
94908KDBQ DBQ20120624102509906/24/12 10:25:31  5-MIN KDBQ 241625Z 00000KT 10SM BKN070 24/18 A3000 1000 68 2300 000/00 RMK AO2 $
94908KDBQ DBQ20120624103009906/24/12 10:30:31  5-MIN KDBQ 241630Z 00000KT 10SM BKN065 23/18 A3000 1010 70 2200 000/00 RMK AO2 $
94908KDBQ DBQ20120624103509906/24/12 10:35:31  5-MIN KDBQ 241635Z 00000KT 10SM BKN060 24/18 A3000 1010 68 2300 000/00 RMK AO2 $
94908KDBQ DBQ20120624104010606/24/12 10:40:31  5-MIN KDBQ 241640Z 00000KT 10SM BKN060 BKN070 24/18 A3000 1010 68 2300 000/00 RMK AO2 $
94908KDBQ DBQ20120624104509906/24/12 10:45:31  5-MIN KDBQ 241645Z 00000KT 10SM BKN060 24/18 A3000 1010 71 2300 000/00 RMK AO2 $
94908KDBQ DBQ20120624105011606/24/12 10:50:31  5-MIN KDBQ 241650Z 00000KT 10SM OVC060 24/18 A3000 1010 71 2300 000/00 RMK AO2 SLP152 T02390183 $
94908KDBQ DBQ20120624105509906/24/12 10:55:31  5-MIN KDBQ 241655Z VRB03KT 10SM BKN060 24/18 A3000 1010 68 2400 VRB/03 RMK AO2 $
94908KDBQ DBQ20120624110009906/24/12 11:00:31  5-MIN KDBQ 241700Z 10005KT 10SM BKN060 24/18 A2999 1010 68 2400 100/05 RMK AO2 $
94908KDBQ DBQ20120624110509906/24/12 11:05:31  5-MIN KDBQ 241705Z 07003KT 10SM BKN060 24/18 A2999 1010 68 2400 060/03 RMK AO2 $
94908KDBQ DBQ20120624111009906/24/12 11:10:31  5-MIN KDBQ 241710Z VRB03KT 10SM OVC060 25/19 A2999 1010 68 2400 VRB/03 RMK AO2 $
94908KDBQ DBQ20120624111509906/24/12 11:15:31  5-MIN KDBQ 241715Z VRB03KT 10SM OVC060 24/18 A2999 1020 68 2400 VRB/03 RMK AO2 $
94908KDBQ DBQ20120624112009906/24/12 11:20:31  5-MIN KDBQ 241720Z 05004KT 10SM BKN060 26/19 A2999 1020 66 2500 050/04 RMK AO2 $
94908KDBQ DBQ20120624112509906/24/12 11:25:31  5-MIN KDBQ 241725Z 04004KT 10SM BKN060 26/19 A2999 1020 66 2500 040/04 RMK AO2 $
94908KDBQ DBQ20120624113009906/24/12 11:30:31  5-MIN KDBQ 241730Z 04004KT 10SM SCT060 26/19 A2999 1020 66 2600 040/04 RMK AO2 $
94908KDBQ DBQ20120624113509906/24/12 11:35:31  5-MIN KDBQ 241735Z 03005KT 10SM BKN055 26/19 A2999 1020 66 2600 030/05 RMK AO2 $
94908KDBQ DBQ20120624114009906/24/12 11:40:31  5-MIN KDBQ 241740Z 00000KT 10SM BKN055 26/19 A2999 1020 66 2600 000/00 RMK AO2 $
94908KDBQ DBQ20120624114509906/24/12 11:45:31  5-MIN KDBQ 241745Z VRB03KT 10SM BKN055 27/19 A2999 1020 64 2600 VRB/03 RMK AO2 $
94908KDBQ DBQ20120624115014006/24/12 11:50:31  5-MIN KDBQ 241750Z VRB03KT 10SM SCT055 27/19 A2998 1020 64 2600 VRB/03 RMK AO2 SLP148 60024 T02670194 10272 20178 50002 $
94908KDBQ DBQ20120624115509906/24/12 11:55:31  5-MIN KDBQ 241755Z 01005KT 10SM SCT055 27/19 A2999 1020 64 2600 010/05 RMK AO2 $
94908KDBQ DBQ20120624120009906/24/12 12:00:31  5-MIN KDBQ 241800Z 01004KT 10SM SCT055 27/19 A2999 1020 64 2600 010/04 RMK AO2 $
94908KDBQ DBQ20120624120509906/24/12 12:05:31  5-MIN KDBQ 241805Z VRB03KT 10SM FEW055 27/19 A2999 1020 64 2600 VRB/03 RMK AO2 $
94908KDBQ DBQ20120624121009606/24/12 12:10:31  5-MIN KDBQ 241810Z 36004KT 10SM CLR 27/19 A2999 1020 62 2700 350/04 RMK AO2 $
94908KDBQ DBQ20120624121509606/24/12 12:15:31  5-MIN KDBQ 241815Z 00000KT 10SM CLR 27/19 A2999 1020 64 2600 000/00 RMK AO2 $
94908KDBQ DBQ20120624143510606/24/12 14:35:31  5-MIN KDBQ 242035Z 31007KT 10SM FEW055 SCT090 30/19 A2998 1020 52 3000 310/07 RMK AO2 $
94908KDBQ DBQ20120624144010506/24/12 14:40:31  5-MIN KDBQ 242040Z 32007KT 9SM FEW055 SCT085 30/19 A2998 1030 51 3000 320/07 RMK AO2 $
94908KDBQ DBQ20120624144510506/24/12 14:45:31  5-MIN KDBQ 242045Z 30005KT 9SM FEW055 SCT085 29/19 A2997 1030 52 3000 300/05 RMK AO2 $
94908KDBQ DBQ20120624145012206/24/12 14:50:31  5-MIN KDBQ 242050Z 36007KT 10SM FEW055 30/19 A2997 1030 51 3000 360/07 RMK AO2 SLP141 T03000189 50001 $
94908KDBQ DBQ20120624145510606/24/12 14:55:31  5-MIN KDBQ 242055Z 36007KT 10SM FEW055 SCT090 31/19 A2997 1030 49 3100 360/07 RMK AO2 $
94908KDBQ DBQ20120624150010606/24/12 15:00:31  5-MIN KDBQ 242100Z 32007KT 10SM FEW055 SCT090 30/19 A2997 1030 51 3000 320/07 RMK AO2 $
94908KDBQ DBQ20120624150509906/24/12 15:05:31  5-MIN KDBQ 242105Z 31005KT 10SM SCT090 29/18 A2997 1030 50 3000 310/05 RMK AO2 $
94908KDBQ DBQ20120624151009906/24/12 15:10:31  5-MIN KDBQ 242110Z 35007KT 10SM BKN090 29/18 A2997 1030 50 3000 350/07 RMK AO2 $
94908KDBQ DBQ20120624151509906/24/12 15:15:31  5-MIN KDBQ 242115Z 33007KT 10SM BKN090 29/18 A2997 1030 50 3000 330/07 RMK AO2 $
94908KDBQ DBQ20120624152009906/24/12 15:20:31  5-MIN KDBQ 242120Z 34006KT 10SM BKN090 29/18 A2997 1030 50 3000 340/06 RMK AO2 $
94908KDBQ DBQ20120624152509906/24/12 15:25:31  5-MIN KDBQ 242125Z 32006KT 10SM SCT085 29/18 A2997 1040 50 3000 320/06 RMK AO2 $
94908KDBQ DBQ20120624153009906/24/12 15:30:31  5-MIN KDBQ 242130Z 36006KT 10SM SCT085 29/19 A2997 1040 52 3000 360/06 RMK AO2 $
94908KDBQ DBQ20120624153509906/24/12 15:35:31  5-MIN KDBQ 242135Z 34008KT 10SM FEW085 30/19 A2996 1040 51 3000 340/08 RMK AO2 $
94908KDBQ DBQ20120624154009906/24/12 15:40:31  5-MIN KDBQ 242140Z 33008KT 10SM FEW090 30/19 A2997 1040 51 3000 330/08 RMK AO2 $
94908KDBQ DBQ20120624154509906/24/12 15:45:31  5-MIN KDBQ 242145Z 32007KT 10SM FEW085 30/19 A2997 1040 51 3000 320/07 RMK AO2 $
94908KDBQ DBQ20120624155011606/24/12 15:50:31  5-MIN KDBQ 242150Z 35006KT 10SM FEW090 30/19 A2997 1040 51 3000 340/06 RMK AO2 SLP141 T03000189 $
94908KDBQ DBQ20120624155509906/24/12 15:55:31  5-MIN KDBQ 242155Z 36005KT 10SM FEW090 29/19 A2996 1040 52 3000 360/05 RMK AO2 $
94908KDBQ DBQ20120624160009906/24/12 16:00:31  5-MIN KDBQ 242200Z 36005KT 10SM SCT085 29/18 A2997 1040 50 3000 360/05 RMK AO2 $
94908KDBQ DBQ20120624160509906/24/12 16:05:31  5-MIN KDBQ 242205Z 34007KT 10SM SCT085 30/19 A2997 1040 51 3000 340/07 RMK AO2 $
94908KDBQ DBQ20120624161009906/24/12 16:10:31  5-MIN KDBQ 242210Z 35004KT 10SM SCT085 29/18 A2997 1040 50 3000 350/04 RMK AO2 $
94908KDBQ DBQ20120624161509906/24/12 16:15:31  5-MIN KDBQ 242215Z 33006KT 10SM FEW085 29/18 A2996 1040 50 3000 330/06 RMK AO2 $
94908KDBQ DBQ20120624162009906/24/12 16:20:31  5-MIN KDBQ 242220Z 35007KT 10SM FEW042 30/19 A2997 1040 51 3000 350/07 RMK AO2 $
94908KDBQ DBQ20120624162510606/24/12 16:25:31  5-MIN KDBQ 242225Z 03006KT 10SM SCT042 SCT085 30/19 A2996 1040 51 3000 030/06 RMK AO2 $
94908KDBQ DBQ20120624163009906/24/12 16:30:31  5-MIN KDBQ 242230Z 01007KT 10SM SCT042 29/19 A2996 1040 52 3000 010/07 RMK AO2 $
94908KDBQ DBQ20120624163509906/24/12 16:35:31  5-MIN KDBQ 242235Z 02009KT 10SM FEW042 29/19 A2996 1040 54 3000 020/09 RMK AO2 $
94908KDBQ DBQ20120624164009906/24/12 16:40:31  5-MIN KDBQ 242240Z 01007KT 10SM FEW042 30/19 A2996 1040 52 3000 010/07 RMK AO2 $
94908KDBQ DBQ20120624164509906/24/12 16:45:31  5-MIN KDBQ 242245Z 01007KT 10SM FEW042 29/19 A2996 1040 54 2900 010/07 RMK AO2 $
94908KDBQ DBQ20120624165011606/24/12 16:50:31  5-MIN KDBQ 242250Z 01006KT 10SM FEW042 29/19 A2996 1040 54 2900 010/06 RMK AO2 SLP138 T02890189 $
94908KDBQ DBQ20120624165509606/24/12 16:55:31  5-MIN KDBQ 242255Z 01006KT 10SM CLR 29/19 A2996 1050 54 2900 010/06 RMK AO2 $
94908KDBQ DBQ20120624170009606/24/12 17:00:31  5-MIN KDBQ 242300Z 01006KT 10SM CLR 29/19 A2996 1050 52 3000 010/06 RMK AO2 $
94908KDBQ DBQ20120624170509606/24/12 17:05:31  5-MIN KDBQ 242305Z 36007KT 10SM CLR 29/19 A2996 1050 52 3000 360/07 RMK AO2 $
94908KDBQ DBQ20120624171009606/24/12 17:10:31  5-MIN KDBQ 242310Z 02006KT 10SM CLR 29/19 A2996 1050 52 3000 010/06 RMK AO2 $
94908KDBQ DBQ20120624171509606/24/12 17:15:31  5-MIN KDBQ 242315Z 36005KT 10SM CLR 29/19 A2995 1050 52 3000 360/05 RMK AO2 $
94908KDBQ DBQ20120624172009606/24/12 17:20:31  5-MIN KDBQ 242320Z 01007KT 10SM CLR 29/19 A2995 1050 52 3000 010/07 RMK AO2 $
94908KDBQ DBQ20120624172509606/24/12 17:25:31  5-MIN KDBQ 242325Z 01006KT 10SM CLR 29/19 A2995 1050 52 3000 010/06 RMK AO2 $
94908KDBQ DBQ20120624173009606/24/12 17:30:31  5-MIN KDBQ 242330Z 36006KT 10SM CLR 29/19 A2995 1050 52 3000 360/06 RMK AO2 $
94908KDBQ DBQ20120624173509906/24/12 17:35:31  5-MIN KDBQ 242335Z 01006KT 10SM FEW041 29/19 A2995 1050 52 3000 360/06 RMK AO2 $
94908KDBQ DBQ20120624174009906/24/12 17:40:31  5-MIN KDBQ 242340Z 36006KT 10SM FEW041 29/19 A2995 1050 54 2900 360/06 RMK AO2 $
94908KDBQ DBQ20120624174509906/24/12 17:45:31  5-MIN KDBQ 242345Z 36006KT 10SM FEW041 29/19 A2996 1050 56 2900 360/06 RMK AO2 $
94908KDBQ DBQ20120624175013106/24/12 17:50:31  5-MIN KDBQ 242350Z 36005KT 10SM CLR 29/19 A2996 1050 56 2900 360/05 RMK AO2 SLP136 T02890194 10306 20267 58006 $
94908KDBQ DBQ20120624175509606/24/12 17:55:31  5-MIN KDBQ 242355Z 36005KT 10SM CLR 29/19 A2996 1050 56 2900 360/05 RMK AO2 $
94908KDBQ DBQ20120624180009606/24/12 18:00:31  5-MIN KDBQ 250000Z 03004KT 10SM CLR 29/19 A2996 1050 56 2900 020/04 RMK AO2 $
94908KDBQ DBQ20120624180509606/24/12 18:05:31  5-MIN KDBQ 250005Z 01006KT 10SM CLR 29/19 A2996 1050 56 2900 010/06 RMK AO2 $
94908KDBQ DBQ20120624181009606/24/12 18:10:31  5-MIN KDBQ 250010Z 01004KT 10SM CLR 28/19 A2996 1050 58 2900 010/04 RMK AO2 $
94908KDBQ DBQ20120624181509606/24/12 18:15:31  5-MIN KDBQ 250015Z 01004KT 10SM CLR 28/19 A2996 1050 58 2900 010/04 RMK AO2 $
94908KDBQ DBQ20120624182009606/24/12 18:20:31  5-MIN KDBQ 250020Z 01004KT 10SM CLR 28/19 A2996 1040 58 2800 010/04 RMK AO2 $
94908KDBQ DBQ20120624182509606/24/12 18:25:31  5-MIN KDBQ 250025Z 01004KT 10SM CLR 28/19 A2996 1040 58 2800 010/04 RMK AO2 $
94908KDBQ DBQ20120624183009906/24/12 18:30:31  5-MIN KDBQ 250030Z 01004KT 10SM FEW046 28/19 A2996 1040 60 2800 360/04 RMK AO2 $
94908KDBQ DBQ20120624183509906/24/12 18:35:31  5-MIN KDBQ 250035Z 36003KT 10SM SCT046 28/20 A2997 1040 62 2800 360/03 RMK AO2 $
94908KDBQ DBQ20120624184009906/24/12 18:40:31  5-MIN KDBQ 250040Z 36005KT 10SM SCT046 28/19 A2997 1030 58 2800 360/05 RMK AO2 $
94908KDBQ DBQ20120624184509906/24/12 18:45:31  5-MIN KDBQ 250045Z 36005KT 10SM BKN046 28/19 A2997 1030 58 2800 360/05 RMK AO2 $
94908KDBQ DBQ20120624185011606/24/12 18:50:31  5-MIN KDBQ 250050Z 36005KT 10SM BKN046 28/19 A2997 1030 60 2800 360/05 RMK AO2 SLP142 T02780194 $
94908KDBQ DBQ20120624185509906/24/12 18:55:31  5-MIN KDBQ 250055Z 36004KT 10SM BKN046 28/19 A2997 1030 60 2800 360/04 RMK AO2 $
94908KDBQ DBQ20120624190009906/24/12 19:00:31  5-MIN KDBQ 250100Z 36004KT 10SM BKN046 28/19 A2997 1030 60 2800 360/04 RMK AO2 $
94908KDBQ DBQ20120624190509906/24/12 19:05:31  5-MIN KDBQ 250105Z 36004KT 10SM BKN046 27/19 A2997 1040 62 2700 360/04 RMK AO2 $
94908KDBQ DBQ20120624191009906/24/12 19:10:31  5-MIN KDBQ 250110Z 36005KT 10SM SCT046 27/19 A2997 1030 64 2600 350/05 RMK AO2 $
94908KDBQ DBQ20120624191509906/24/12 19:15:31  5-MIN KDBQ 250115Z 35005KT 10SM SCT048 27/19 A2997 1030 62 2600 350/05 RMK AO2 $
94908KDBQ DBQ20120624192009906/24/12 19:20:31  5-MIN KDBQ 250120Z 35004KT 10SM FEW048 26/19 A2997 1030 66 2600 350/04 RMK AO2 $
94908KDBQ DBQ20120624192509906/24/12 19:25:31  5-MIN KDBQ 250125Z 36004KT 10SM SCT048 26/19 A2997 1040 66 2600 360/04 RMK AO2 $
94908KDBQ DBQ20120624193009906/24/12 19:30:31  5-MIN KDBQ 250130Z 01004KT 10SM SCT048 26/19 A2997 1030 64 2600 010/04 RMK AO2 $
94908KDBQ DBQ20120624193509906/24/12 19:35:31  5-MIN KDBQ 250135Z 01003KT 10SM SCT048 26/19 A2997 1030 66 2500 010/03 RMK AO2 $
94908KDBQ DBQ20120624194009906/24/12 19:40:31  5-MIN KDBQ 250140Z 01003KT 10SM SCT048 26/19 A2997 1030 64 2600 010/03 RMK AO2 $
94908KDBQ DBQ20120624194509906/24/12 19:45:31  5-MIN KDBQ 250145Z 01003KT 10SM SCT048 26/19 A2997 1030 64 2600 360/03 RMK AO2 $
94908KDBQ DBQ20120624195011606/24/12 19:50:31  5-MIN KDBQ 250150Z 36004KT 10SM BKN050 26/18 A2997 1030 62 2600 350/04 RMK AO2 SLP144 T02610183 $
94908KDBQ DBQ20120624195509906/24/12 19:55:31  5-MIN KDBQ 250155Z 00000KT 10SM BKN050 25/19 A2997 1030 68 2500 000/00 RMK AO2 $
94908KDBQ DBQ20120624200009906/24/12 20:00:31  5-MIN KDBQ 250200Z 01003KT 10SM SCT050 26/18 A2997 1030 64 2500 010/03 RMK AO2 $
94908KDBQ DBQ20120624200509906/24/12 20:05:31  5-MIN KDBQ 250205Z 01003KT 10SM SCT050 26/18 A2997 1030 64 2500 010/03 RMK AO2 $
94908KDBQ DBQ20120624201009906/24/12 20:10:31  5-MIN KDBQ 250210Z 00000KT 10SM BKN050 26/18 A2997 1030 62 2600 000/00 RMK AO2 $
94908KDBQ DBQ20120624201509906/24/12 20:15:31  5-MIN KDBQ 250215Z 01003KT 10SM BKN050 26/18 A2998 1030 62 2600 010/03 RMK AO2 $
94908KDBQ DBQ20120624202009906/24/12 20:20:31  5-MIN KDBQ 250220Z 01003KT 10SM BKN050 26/18 A2998 1030 62 2600 010/03 RMK AO2 $
94908KDBQ DBQ20120624202509906/24/12 20:25:31  5-MIN KDBQ 250225Z 36003KT 10SM BKN050 26/19 A2998 1030 64 2600 360/03 RMK AO2 $
94908KDBQ DBQ20120624203009906/24/12 20:30:31  5-MIN KDBQ 250230Z 36004KT 10SM OVC050 26/19 A2998 1020 66 2500 360/04 RMK AO2 $
94908KDBQ DBQ20120624203509906/24/12 20:35:31  5-MIN KDBQ 250235Z 36004KT 10SM OVC050 26/19 A2998 1020 66 2500 360/04 RMK AO2 $
94908KDBQ DBQ20120624204009906/24/12 20:40:31  5-MIN KDBQ 250240Z 36005KT 10SM OVC055 26/19 A2998 1020 68 2500 360/05 RMK AO2 $
94908KDBQ DBQ20120624204509906/24/12 20:45:31  5-MIN KDBQ 250245Z 36005KT 10SM OVC055 26/19 A2999 1020 66 2500 360/05 RMK AO2 $
94908KDBQ DBQ20120624205012206/24/12 20:50:31  5-MIN KDBQ 250250Z 01005KT 10SM OVC055 26/19 A2999 1020 66 2500 010/05 RMK AO2 SLP147 T02560189 56004 $
94908KDBQ DBQ20120624205509906/24/12 20:55:31  5-MIN KDBQ 250255Z 01006KT 10SM OVC055 26/19 A2999 1020 66 2500 010/06 RMK AO2 $
94908KDBQ DBQ20120624210009906/24/12 21:00:31  5-MIN KDBQ 250300Z 01006KT 10SM OVC055 26/19 A2999 1010 66 2500 010/06 RMK AO2 $
94908KDBQ DBQ20120624210509906/24/12 21:05:31  5-MIN KDBQ 250305Z 01006KT 10SM OVC060 26/19 A3000 1010 66 2500 010/06 RMK AO2 $
94908KDBQ DBQ20120624211009906/24/12 21:10:31  5-MIN KDBQ 250310Z 02006KT 10SM OVC060 26/19 A3000 1010 66 2500 020/06 RMK AO2 $
94908KDBQ DBQ20120624211510406/24/12 21:15:31  5-MIN KDBQ 250315Z AUTO 02006KT 10SM OVC060 25/19 A2999 1010 68 2400 020/06 RMK AO2 $
94908KDBQ DBQ20120624212010406/24/12 21:20:31  5-MIN KDBQ 250320Z AUTO 03006KT 10SM BKN060 25/19 A2999 1010 68 2400 030/06 RMK AO2 $
94908KDBQ DBQ20120624212510406/24/12 21:25:31  5-MIN KDBQ 250325Z AUTO 03005KT 10SM SCT060 25/19 A2999 1010 68 2400 030/05 RMK AO2 $
94908KDBQ DBQ20120624213010406/24/12 21:30:31  5-MIN KDBQ 250330Z AUTO 03006KT 10SM SCT060 25/19 A2999 1010 68 2400 030/06 RMK AO2 $
94908KDBQ DBQ20120624213510406/24/12 21:35:31  5-MIN KDBQ 250335Z AUTO 03006KT 10SM SCT065 24/19 A2999 1010 71 2400 030/06 RMK AO2 $
94908KDBQ DBQ20120624214010406/24/12 21:40:31  5-MIN KDBQ 250340Z AUTO 04006KT 10SM SCT065 24/19 A2999 1010 71 2400 040/06 RMK AO2 $
94908KDBQ DBQ20120624214510406/24/12 21:45:31  5-MIN KDBQ 250345Z AUTO 03007KT 10SM SCT065 24/19 A3000 1010 71 2400 030/07 RMK AO2 $
94908KDBQ DBQ20120624215012106/24/12 21:50:31  5-MIN KDBQ 250350Z AUTO 03007KT 10SM FEW065 24/19 A3000 1010 71 2400 030/07 RMK AO2 SLP151 T02440189 $
94908KDBQ DBQ20120624215510406/24/12 21:55:31  5-MIN KDBQ 250355Z AUTO 04007KT 10SM FEW065 24/18 A2999 1010 68 2400 040/07 RMK AO2 $
94908KDBQ DBQ20120624220010406/24/12 22:00:31  5-MIN KDBQ 250400Z AUTO 05007KT 10SM SCT065 24/18 A2998 1020 68 2400 050/07 RMK AO2 $
94908KDBQ DBQ20120624220510406/24/12 22:05:31  5-MIN KDBQ 250405Z AUTO 05008KT 10SM FEW065 24/18 A2999 1020 68 2400 040/08 RMK AO2 $
94908KDBQ DBQ20120624221010406/24/12 22:10:31  5-MIN KDBQ 250410Z AUTO 04008KT 10SM FEW060 24/18 A3000 1010 68 2400 040/08 RMK AO2 $
94908KDBQ DBQ20120624221510406/24/12 22:15:31  5-MIN KDBQ 250415Z AUTO 04006KT 10SM FEW065 24/18 A3000 1010 71 2300 040/06 RMK AO2 $
94908KDBQ DBQ20120624222010406/24/12 22:20:31  5-MIN KDBQ 250420Z AUTO 04005KT 10SM FEW065 24/18 A3000 1010 71 2300 040/05 RMK AO2 $
94908KDBQ DBQ20120624222510406/24/12 22:25:31  5-MIN KDBQ 250425Z AUTO 03006KT 10SM FEW065 23/18 A3000 1010 73 2200 030/06 RMK AO2 $
94908KDBQ DBQ20120624223010406/24/12 22:30:31  5-MIN KDBQ 250430Z AUTO 04007KT 10SM FEW065 23/18 A3000 1010 73 2200 040/07 RMK AO2 $
94908KDBQ DBQ20120624223510406/24/12 22:35:31  5-MIN KDBQ 250435Z AUTO 03006KT 10SM FEW065 23/18 A3000 1000 73 2200 030/06 RMK AO2 $
94908KDBQ DBQ20120624224010406/24/12 22:40:31  5-MIN KDBQ 250440Z AUTO 03007KT 10SM SCT065 23/18 A3000 1000 73 2200 030/07 RMK AO2 $
94908KDBQ DBQ20120624224510406/24/12 22:45:31  5-MIN KDBQ 250445Z AUTO 04006KT 10SM SCT060 23/18 A3000 1010 73 2200 040/06 RMK AO2 $
94908KDBQ DBQ20120624225012106/24/12 22:50:31  5-MIN KDBQ 250450Z AUTO 03006KT 10SM BKN060 23/18 A3000 1000 73 2200 030/06 RMK AO2 SLP153 T02330183 $
94908KDBQ DBQ20120624225510406/24/12 22:55:31  5-MIN KDBQ 250455Z AUTO 03006KT 10SM BKN060 23/18 A3001 1000 73 2200 030/06 RMK AO2 $
94908KDBQ DBQ20120624230010406/24/12 23:00:31  5-MIN KDBQ 250500Z AUTO 03006KT 10SM BKN060 23/18 A3001 1000 73 2200 030/06 RMK AO2 $
94908KDBQ DBQ20120624230510406/24/12 23:05:31  5-MIN KDBQ 250505Z AUTO 04006KT 10SM OVC060 23/18 A3000 1000 73 2200 040/06 RMK AO2 $
94908KDBQ DBQ20120624231010406/24/12 23:10:31  5-MIN KDBQ 250510Z AUTO 04006KT 10SM OVC060 23/18 A3000 1000 73 2200 040/06 RMK AO2 $
94908KDBQ DBQ20120624231510406/24/12 23:15:31  5-MIN KDBQ 250515Z AUTO 04008KT 10SM OVC060 23/18 A3001 1000 76 2200 040/08 RMK AO2 $
94908KDBQ DBQ20120624232010406/24/12 23:20:31  5-MIN KDBQ 250520Z AUTO 04007KT 10SM OVC060 23/18 A3001 1000 70 2200 040/07 RMK AO2 $
94908KDBQ DBQ20120624232510406/24/12 23:25:31  5-MIN KDBQ 250525Z AUTO 04006KT 10SM OVC065 23/18 A3001 1000 70 2200 040/06 RMK AO2 $
94908KDBQ DBQ20120624233010406/24/12 23:30:31  5-MIN KDBQ 250530Z AUTO 04008KT 10SM OVC065 23/18 A3001 1000 70 2200 040/08 RMK AO2 $
94908KDBQ DBQ20120624233510406/24/12 23:35:31  5-MIN KDBQ 250535Z AUTO 05007KT 10SM OVC065 23/18 A3001 1000 70 2200 050/07 RMK AO2 $
94908KDBQ DBQ20120624234010406/24/12 23:40:31  5-MIN KDBQ 250540Z AUTO 05008KT 10SM OVC065 23/18 A3001 1000 70 2200 050/08 RMK AO2 $
94908KDBQ DBQ20120624234510406/24/12 23:45:31  5-MIN KDBQ 250545Z AUTO 05009KT 10SM BKN065 23/18 A3001 1000 70 2200 050/09 RMK AO2 $
94908KDBQ DBQ20120624235014906/24/12 23:50:31  5-MIN KDBQ 250550Z AUTO 05008KT 10SM BKN065 23/18 A3001 1000 73 2200 050/08 RMK AO2 SLP154 T02280178 10289 20228 403060161 53010 $
94908KDBQ DBQ20120624235510306/24/12 23:55:31  5-MIN KDBQ 250555Z AUTO 05009KT 10SM BKN065 23/18 A3001 990 73 2200 050/09 RMK AO2 $
94908KDBQ DBQ20120625000010306/25/12 00:00:38  5-MIN KDBQ 250600Z AUTO 05009KT 10SM BKN065 23/18 A3001 990 73 2200 050/09 RMK AO2 $
94908KDBQ DBQ20120625000510306/25/12 00:05:31  5-MIN KDBQ 250605Z AUTO 06010KT 10SM BKN065 23/18 A3001 990 73 2200 060/10 RMK AO2 $
94908KDBQ DBQ20120625001010306/25/12 00:10:31  5-MIN KDBQ 250610Z AUTO 06009KT 10SM BKN065 23/18 A3002 990 73 2200 060/09 RMK AO2 $
94908KDBQ DBQ20120625001510306/25/12 00:15:33  5-MIN KDBQ 250615Z AUTO 06008KT 10SM BKN065 22/18 A3002 990 75 2100 060/08 RMK AO2 $
94908KDBQ DBQ20120625002010306/25/12 00:20:31  5-MIN KDBQ 250620Z AUTO 07009KT 10SM BKN065 22/18 A3002 990 75 2100 070/09 RMK AO2 $
94908KDBQ DBQ20120625002510306/25/12 00:25:31  5-MIN KDBQ 250625Z AUTO 07011KT 10SM OVC065 22/18 A3002 990 75 2100 070/11 RMK AO2 $
94908KDBQ DBQ20120625003010306/25/12 00:30:31  5-MIN KDBQ 250630Z AUTO 07011KT 10SM OVC065 22/18 A3002 990 75 2100 070/11 RMK AO2 $
94908KDBQ DBQ20120625003510906/25/12 00:35:31  5-MIN KDBQ 250635Z AUTO 06012G18KT 10SM OVC060 22/17 A3002 980 75 2000 060/12G18 RMK AO2 $
94908KDBQ DBQ20120625004010306/25/12 00:40:31  5-MIN KDBQ 250640Z AUTO 06012KT 10SM BKN060 22/17 A3003 980 73 2000 060/12 RMK AO2 $
94908KDBQ DBQ20120625004510906/25/12 00:45:31  5-MIN KDBQ 250645Z AUTO 06015G20KT 10SM OVC065 21/17 A3003 980 75 2000 060/15G20 RMK AO2 $
94908KDBQ DBQ20120625005012606/25/12 00:50:31  5-MIN KDBQ 250650Z AUTO 07010G20KT 10SM OVC060 21/16 A3003 980 73 2000 070/10G20 RMK AO2 SLP162 T02110161 $
94908KDBQ DBQ20120625005510306/25/12 00:55:31  5-MIN KDBQ 250655Z AUTO 07011KT 10SM BKN060 21/16 A3003 970 75 1900 070/11 RMK AO2 $
94908KDBQ DBQ20120625010010906/25/12 01:00:31  5-MIN KDBQ 250700Z AUTO 07014G21KT 10SM BKN060 21/16 A3003 970 75 1900 070/14G21 RMK AO2 $
94908KDBQ DBQ20120625010510906/25/12 01:05:31  5-MIN KDBQ 250705Z AUTO 07014G21KT 10SM SCT065 20/16 A3004 970 75 1800 070/14G21 RMK AO2 $
94908KDBQ DBQ20120625011010306/25/12 01:10:31  5-MIN KDBQ 250710Z AUTO 07013KT 10SM SCT065 20/16 A3004 970 75 1800 070/13 RMK AO2 $
94908KDBQ DBQ20120625011510306/25/12 01:15:31  5-MIN KDBQ 250715Z AUTO 06011KT 10SM SCT060 20/16 A3004 970 75 1800 060/11 RMK AO2 $
94908KDBQ DBQ20120625012010306/25/12 01:20:31  5-MIN KDBQ 250720Z AUTO 06010KT 10SM BKN060 20/16 A3005 960 78 1800 060/10 RMK AO2 $
94908KDBQ DBQ20120625012510306/25/12 01:25:31  5-MIN KDBQ 250725Z AUTO 07009KT 10SM BKN060 19/16 A3005 960 81 1700 070/09 RMK AO2 $
94908KDBQ DBQ20120625013010306/25/12 01:30:31  5-MIN KDBQ 250730Z AUTO 06008KT 10SM SCT060 19/16 A3005 960 81 1700 060/08 RMK AO2 $
94908KDBQ DBQ20120625013510306/25/12 01:35:31  5-MIN KDBQ 250735Z AUTO 07009KT 10SM SCT060 19/16 A3005 960 78 1700 060/09 RMK AO2 $
94908KDBQ DBQ20120625014010306/25/12 01:40:31  5-MIN KDBQ 250740Z AUTO 06010KT 10SM SCT060 19/16 A3005 960 78 1700 060/10 RMK AO2 $
94908KDBQ DBQ20120625014510906/25/12 01:45:31  5-MIN KDBQ 250745Z AUTO 06012G17KT 10SM SCT060 19/15 A3005 960 75 1700 060/12G17 RMK AO2 $
94908KDBQ DBQ20120625015012006/25/12 01:50:31  5-MIN KDBQ 250750Z AUTO 07013KT 10SM SCT060 19/14 A3005 960 72 1700 070/13 RMK AO2 SLP169 T01940144 $
94908KDBQ DBQ20120625015510306/25/12 01:55:31  5-MIN KDBQ 250755Z AUTO 07011KT 10SM BKN060 19/14 A3005 950 75 1700 070/11 RMK AO2 $
94908KDBQ DBQ20120625020010306/25/12 02:00:31  5-MIN KDBQ 250800Z AUTO 06009KT 10SM SCT060 19/14 A3005 950 75 1700 060/09 RMK AO2 $
94908KDBQ DBQ20120625020510306/25/12 02:05:31  5-MIN KDBQ 250805Z AUTO 07008KT 10SM SCT060 19/14 A3006 950 75 1700 070/08 RMK AO2 $
94908KDBQ DBQ20120625021010306/25/12 02:10:31  5-MIN KDBQ 250810Z AUTO 08010KT 10SM FEW060 19/14 A3006 950 72 1700 080/10 RMK AO2 $
94908KDBQ DBQ20120625021510306/25/12 02:15:31  5-MIN KDBQ 250815Z AUTO 07011KT 10SM FEW060 19/13 A3006 950 70 1700 070/11 RMK AO2 $
94908KDBQ DBQ20120625022010306/25/12 02:20:31  5-MIN KDBQ 250820Z AUTO 06012KT 10SM FEW060 18/13 A3006 950 70 1600 060/12 RMK AO2 $
94908KDBQ DBQ20120625022510006/25/12 02:25:31  5-MIN KDBQ 250825Z AUTO 07010KT 10SM CLR 18/12 A3006 950 65 1600 070/10 RMK AO2 $
94908KDBQ DBQ20120625023010006/25/12 02:30:31  5-MIN KDBQ 250830Z AUTO 07009KT 10SM CLR 18/11 A3006 950 62 1600 070/09 RMK AO2 $
94908KDBQ DBQ20120625023510006/25/12 02:35:31  5-MIN KDBQ 250835Z AUTO 06012KT 10SM CLR 18/11 A3006 950 60 1600 060/12 RMK AO2 $
94908KDBQ DBQ20120625024010006/25/12 02:40:31  5-MIN KDBQ 250840Z AUTO 07010KT 10SM CLR 18/10 A3006 950 58 1600 070/10 RMK AO2 $
94908KDBQ DBQ20120625024510306/25/12 02:45:31  5-MIN KDBQ 250845Z AUTO 07010KT 10SM FEW030 18/10 A3007 940 60 1500 070/10 RMK AO2 $
94908KDBQ DBQ20120625025012606/25/12 02:50:31  5-MIN KDBQ 250850Z AUTO 07009KT 10SM SCT030 18/10 A3007 940 60 1500 070/09 RMK AO2 SLP176 T01780100 51007 $
94908KDBQ DBQ20120625025510306/25/12 02:55:31  5-MIN KDBQ 250855Z AUTO 06008KT 10SM BKN030 18/10 A3007 940 58 1600 060/08 RMK AO2 $
94908KDBQ DBQ20120625030010306/25/12 03:00:31  5-MIN KDBQ 250900Z AUTO 07009KT 10SM BKN030 18/10 A3007 940 58 1600 070/09 RMK AO2 $
94908KDBQ DBQ20120625030510306/25/12 03:05:31  5-MIN KDBQ 250905Z AUTO 07010KT 10SM BKN030 18/10 A3008 930 58 1600 070/10 RMK AO2 $
94908KDBQ DBQ20120625031010306/25/12 03:10:31  5-MIN KDBQ 250910Z AUTO 07012KT 10SM OVC030 18/10 A3008 930 60 1500 070/12 RMK AO2 $
94908KDBQ DBQ20120625031510306/25/12 03:15:31  5-MIN KDBQ 250915Z AUTO 07010KT 10SM OVC030 18/11 A3008 930 62 1500 070/10 RMK AO2 $
94908KDBQ DBQ20120625032010306/25/12 03:20:31  5-MIN KDBQ 250920Z AUTO 07010KT 10SM OVC030 18/11 A3008 930 62 1500 070/10 RMK AO2 $
94908KDBQ DBQ20120625032510306/25/12 03:25:31  5-MIN KDBQ 250925Z AUTO 07008KT 10SM BKN030 18/11 A3008 930 62 1500 060/08 RMK AO2 $
94908KDBQ DBQ20120625033010306/25/12 03:30:31  5-MIN KDBQ 250930Z AUTO 07008KT 10SM BKN030 17/11 A3009 920 64 1400 070/08 RMK AO2 $
94908KDBQ DBQ20120625033510306/25/12 03:35:31  5-MIN KDBQ 250935Z AUTO 06007KT 10SM SCT030 17/11 A3009 920 67 1400 060/07 RMK AO2 $
94908KDBQ DBQ20120625034010306/25/12 03:40:31  5-MIN KDBQ 250940Z AUTO 05006KT 10SM SCT030 17/11 A3009 920 69 1400 050/06 RMK AO2 $
94908KDBQ DBQ20120625034510306/25/12 03:45:31  5-MIN KDBQ 250945Z AUTO 06008KT 10SM FEW030 17/11 A3009 920 69 1400 060/08 RMK AO2 $
94908KDBQ DBQ20120625035011706/25/12 03:50:31  5-MIN KDBQ 250950Z AUTO 06010KT 10SM CLR 17/11 A3009 920 69 1400 060/10 RMK AO2 SLP184 T01670111 $
94908KDBQ DBQ20120625035510606/25/12 03:55:31  5-MIN KDBQ 250955Z AUTO 06009G16KT 10SM CLR 17/11 A3010 910 69 1400 060/09G16 RMK AO2 $
94908KDBQ DBQ20120625040010606/25/12 04:00:31  5-MIN KDBQ 251000Z AUTO 06010G16KT 10SM CLR 17/11 A3010 910 67 1400 060/10G16 RMK AO2 $
94908KDBQ DBQ20120625040510006/25/12 04:05:31  5-MIN KDBQ 251005Z AUTO 05010KT 10SM CLR 17/11 A3010 910 67 1400 050/10 RMK AO2 $
94908KDBQ DBQ20120625041010006/25/12 04:10:31  5-MIN KDBQ 251010Z AUTO 06010KT 10SM CLR 17/11 A3010 910 67 1400 060/10 RMK AO2 $
94908KDBQ DBQ20120625041510006/25/12 04:15:31  5-MIN KDBQ 251015Z AUTO 06010KT 10SM CLR 17/10 A3010 910 64 1400 060/10 RMK AO2 $
94908KDBQ DBQ20120625042010006/25/12 04:20:31  5-MIN KDBQ 251020Z AUTO 06013KT 10SM CLR 16/09 A3011 900 64 1300 060/13 RMK AO2 $
94908KDBQ DBQ20120625042510006/25/12 04:25:31  5-MIN KDBQ 251025Z AUTO 06010KT 10SM CLR 17/09 A3011 900 60 1400 060/10 RMK AO2 $
94908KDBQ DBQ20120625043010606/25/12 04:30:31  5-MIN KDBQ 251030Z AUTO 07010G18KT 10SM CLR 16/09 A3011 900 62 1300 070/10G18 RMK AO2 $
94908KDBQ DBQ20120625043510606/25/12 04:35:31  5-MIN KDBQ 251035Z AUTO 06012G18KT 10SM CLR 16/08 A3011 900 59 1300 060/12G18 RMK AO2 $
94908KDBQ DBQ20120625044010006/25/12 04:40:31  5-MIN KDBQ 251040Z AUTO 06012KT 10SM CLR 16/08 A3012 900 59 1300 060/12 RMK AO2 $
94908KDBQ DBQ20120625044510006/25/12 04:45:31  5-MIN KDBQ 251045Z AUTO 07010KT 10SM CLR 16/08 A3012 900 59 1300 070/10 RMK AO2 $
94908KDBQ DBQ20120625045011706/25/12 04:50:31  5-MIN KDBQ 251050Z AUTO 06010KT 10SM CLR 16/08 A3012 900 59 1300 060/10 RMK AO2 SLP193 T01610083 $
94908KDBQ DBQ20120625045509506/25/12 04:55:31  5-MIN KDBQ 251055Z 06007KT 10SM CLR 16/08 A3012 900 59 1300 060/07 RMK AO2 $
94908KDBQ DBQ20120625050011706/25/12 05:00:31  5-MIN KDBQ 251100Z 03011G22KT 350V080 10SM CLR 16/08 A3012 890 62 1200 030/11G22 350V080 RMK AO2 $
94908KDBQ DBQ20120625050511706/25/12 05:05:31  5-MIN KDBQ 251105Z 02016G23KT 350V080 10SM CLR 16/08 A3012 890 62 1200 020/16G23 350V080 RMK AO2 $
94908KDBQ DBQ20120625051009506/25/12 05:10:31  5-MIN KDBQ 251110Z 35021KT 10SM CLR 16/08 A3012 890 62 1200 350/21 RMK AO2 $
94908KDBQ DBQ20120625051510106/25/12 05:15:31  5-MIN KDBQ 251115Z 06012G23KT 10SM CLR 16/07 A3013 890 55 1200 060/12G23 RMK AO2 $
94908KDBQ DBQ20120625052010106/25/12 05:20:31  5-MIN KDBQ 251120Z 06010G22KT 10SM CLR 16/06 A3013 880 49 1300 060/10G22 RMK AO2 $
94908KDBQ DBQ20120625052510106/25/12 05:25:31  5-MIN KDBQ 251125Z 06010G18KT 10SM CLR 16/06 A3013 880 51 1200 050/10G18 RMK AO2 $
94908KDBQ DBQ20120625053009506/25/12 05:30:31  5-MIN KDBQ 251130Z 06008KT 10SM CLR 16/06 A3014 880 53 1200 050/08 RMK AO2 $
94908KDBQ DBQ20120625053509506/25/12 05:35:31  5-MIN KDBQ 251135Z 05008KT 10SM CLR 16/07 A3014 880 55 1200 050/08 RMK AO2 $
94908KDBQ DBQ20120625054009506/25/12 05:40:31  5-MIN KDBQ 251140Z 05008KT 10SM CLR 16/07 A3014 880 57 1200 040/08 RMK AO2 $
94908KDBQ DBQ20120625054509506/25/12 05:45:31  5-MIN KDBQ 251145Z 05007KT 10SM CLR 16/07 A3014 880 57 1200 050/07 RMK AO2 $
94908KDBQ DBQ20120625055013406/25/12 05:50:31  5-MIN KDBQ 251150Z 05008KT 10SM CLR 16/07 A3014 880 55 1300 050/08 RMK AO2 SLP200 70024 T01610072 10228 20156 51020
94908KDBQ DBQ20120625055509306/25/12 05:55:31  5-MIN KDBQ 251155Z 05007KT 10SM CLR 16/07 A3014 880 55 1300 050/07 RMK AO2
94908KDBQ DBQ20120625060009306/25/12 06:00:31  5-MIN KDBQ 251200Z 05009KT 10SM CLR 16/07 A3014 880 53 1300 050/09 RMK AO2
94908KDBQ DBQ20120625060509306/25/12 06:05:31  5-MIN KDBQ 251205Z 05009KT 10SM CLR 16/07 A3014 880 53 1300 050/09 RMK AO2
94908KDBQ DBQ20120625061009306/25/12 06:10:31  5-MIN KDBQ 251210Z 06011KT 10SM CLR 16/06 A3014 880 49 1300 060/11 RMK AO2
94908KDBQ DBQ20120625061509306/25/12 06:15:31  5-MIN KDBQ 251215Z 05011KT 10SM CLR 16/06 A3014 880 49 1300 050/11 RMK AO2
94908KDBQ DBQ20120625062009306/25/12 06:20:31  5-MIN KDBQ 251220Z 06012KT 10SM CLR 16/06 A3013 880 49 1300 060/12 RMK AO2
94908KDBQ DBQ20120625062509906/25/12 06:25:31  5-MIN KDBQ 251225Z 05010G20KT 10SM CLR 16/05 A3013 880 47 1300 050/10G20 RMK AO2
94908KDBQ DBQ20120625063009906/25/12 06:30:31  5-MIN KDBQ 251230Z 05015G20KT 10SM CLR 16/04 A3014 880 45 1300 050/15G20 RMK AO2
94908KDBQ DBQ20120625063509906/25/12 06:35:31  5-MIN KDBQ 251235Z 05013G19KT 10SM CLR 16/05 A3014 880 47 1300 050/13G19 RMK AO2
94908KDBQ DBQ20120625064009306/25/12 06:40:31  5-MIN KDBQ 251240Z 05011KT 10SM CLR 16/05 A3014 870 47 1200 050/11 RMK AO2
94908KDBQ DBQ20120625064509306/25/12 06:45:31  5-MIN KDBQ 251245Z 06011KT 10SM CLR 17/06 A3014 870 47 1300 060/11 RMK AO2
94908KDBQ DBQ20120625065011606/25/12 06:50:31  5-MIN KDBQ 251250Z 05013G18KT 10SM CLR 17/06 A3014 870 47 1300 050/13G18 RMK AO2 SLP202 T01670056
94908KDBQ DBQ20120625065509906/25/12 06:55:31  5-MIN KDBQ 251255Z 05011G18KT 10SM CLR 17/06 A3014 880 47 1300 050/11G18 RMK AO2
94908KDBQ DBQ20120625070009306/25/12 07:00:31  5-MIN KDBQ 251300Z 05010KT 10SM CLR 17/06 A3014 880 47 1300 050/10 RMK AO2
94908KDBQ DBQ20120625070509306/25/12 07:05:31  5-MIN KDBQ 251305Z 06010KT 10SM CLR 17/06 A3014 880 47 1300 050/10 RMK AO2
94908KDBQ DBQ20120625071009306/25/12 07:10:31  5-MIN KDBQ 251310Z 06010KT 10SM CLR 17/06 A3014 870 46 1400 060/10 RMK AO2
94908KDBQ DBQ20120625071509306/25/12 07:15:31  5-MIN KDBQ 251315Z 05010KT 10SM CLR 17/06 A3014 870 46 1400 040/10 RMK AO2
94908KDBQ DBQ20120625072009306/25/12 07:20:31  5-MIN KDBQ 251320Z 05009KT 10SM CLR 17/06 A3014 870 46 1400 050/09 RMK AO2
94908KDBQ DBQ20120625072509306/25/12 07:25:31  5-MIN KDBQ 251325Z 04013KT 10SM CLR 17/06 A3014 870 46 1400 040/13 RMK AO2
94908KDBQ DBQ20120625073009306/25/12 07:30:31  5-MIN KDBQ 251330Z 06012KT 10SM CLR 18/05 A3014 870 42 1400 060/12 RMK AO2
94908KDBQ DBQ20120625073509306/25/12 07:35:31  5-MIN KDBQ 251335Z 06013KT 10SM CLR 17/05 A3015 870 44 1400 060/13 RMK AO2
94908KDBQ DBQ20120625074009306/25/12 07:40:31  5-MIN KDBQ 251340Z 06010KT 10SM CLR 18/05 A3015 870 42 1400 060/10 RMK AO2
94908KDBQ DBQ20120625074509306/25/12 07:45:31  5-MIN KDBQ 251345Z 05009KT 10SM CLR 18/06 A3015 870 44 1400 050/09 RMK AO2
94908KDBQ DBQ20120625075011006/25/12 07:50:31  5-MIN KDBQ 251350Z 05011KT 10SM CLR 18/05 A3015 870 42 1400 050/11 RMK AO2 SLP204 T01780050
94908KDBQ DBQ20120625075509306/25/12 07:55:31  5-MIN KDBQ 251355Z 07012KT 10SM CLR 18/05 A3015 870 42 1400 070/12 RMK AO2
94908KDBQ DBQ20120625080009306/25/12 08:00:31  5-MIN KDBQ 251400Z 06008KT 10SM CLR 18/06 A3015 870 42 1500 060/08 RMK AO2
94908KDBQ DBQ20120625080509306/25/12 08:05:31  5-MIN KDBQ 251405Z 04010KT 10SM CLR 18/06 A3015 870 42 1500 040/10 RMK AO2
94908KDBQ DBQ20120625081009306/25/12 08:10:31  5-MIN KDBQ 251410Z 04010KT 10SM CLR 19/06 A3015 870 41 1600 040/10 RMK AO2
94908KDBQ DBQ20120625081509906/25/12 08:15:31  5-MIN KDBQ 251415Z 07013G17KT 10SM CLR 19/06 A3015 870 41 1600 070/13G17 RMK AO2
94908KDBQ DBQ20120625082009906/25/12 08:20:31  5-MIN KDBQ 251420Z 04010G17KT 10SM CLR 19/06 A3014 870 43 1600 040/10G17 RMK AO2
94908KDBQ DBQ20120625082509306/25/12 08:25:31  5-MIN KDBQ 251425Z 05010KT 10SM CLR 19/06 A3014 870 41 1600 050/10 RMK AO2
94908KDBQ DBQ20120625083009906/25/12 08:30:31  5-MIN KDBQ 251430Z 04012G17KT 10SM CLR 19/05 A3014 870 39 1600 040/12G17 RMK AO2
94908KDBQ DBQ20120625083509906/25/12 08:35:31  5-MIN KDBQ 251435Z 05014G19KT 10SM CLR 19/05 A3014 870 39 1600 050/14G19 RMK AO2
94908KDBQ DBQ20120625084009306/25/12 08:40:31  5-MIN KDBQ 251440Z 06012KT 10SM CLR 19/06 A3014 880 41 1600 050/12 RMK AO2
94908KDBQ DBQ20120625084509906/25/12 08:45:31  5-MIN KDBQ 251445Z 04012G19KT 10SM CLR 19/06 A3014 870 41 1600 040/12G19 RMK AO2
94908KDBQ DBQ20120625085011606/25/12 08:50:31  5-MIN KDBQ 251450Z 04012KT 10SM CLR 19/06 A3014 880 41 1600 040/12 RMK AO2 SLP201 T01940061 51022
94908KDBQ DBQ20120625085509306/25/12 08:55:31  5-MIN KDBQ 251455Z 05013KT 10SM CLR 19/06 A3014 880 41 1600 040/13 RMK AO2
94908KDBQ DBQ20120625090009306/25/12 09:00:31  5-MIN KDBQ 251500Z 04012KT 10SM CLR 19/06 A3014 880 41 1600 040/12 RMK AO2
94908KDBQ DBQ20120625090509306/25/12 09:05:31  5-MIN KDBQ 251505Z 05014KT 10SM CLR 20/06 A3014 880 40 1700 050/14 RMK AO2
94908KDBQ DBQ20120625091009306/25/12 09:10:31  5-MIN KDBQ 251510Z 05008KT 10SM CLR 20/06 A3014 880 40 1700 050/08 RMK AO2
94908KDBQ DBQ20120625091509906/25/12 09:15:31  5-MIN KDBQ 251515Z 04013G18KT 10SM CLR 20/06 A3014 880 40 1700 040/13G18 RMK AO2
94908KDBQ DBQ20120625092009906/25/12 09:20:31  5-MIN KDBQ 251520Z 05010G18KT 10SM CLR 20/06 A3014 880 40 1700 050/10G18 RMK AO2
94908KDBQ DBQ20120625092509306/25/12 09:25:31  5-MIN KDBQ 251525Z 05012KT 10SM CLR 20/07 A3014 880 41 1700 050/12 RMK AO2
94908KDBQ DBQ20120625093009306/25/12 09:30:31  5-MIN KDBQ 251530Z 06011KT 10SM CLR 21/07 A3013 880 40 1800 060/11 RMK AO2
94908KDBQ DBQ20120625093509306/25/12 09:35:31  5-MIN KDBQ 251535Z 05008KT 10SM CLR 20/07 A3013 880 41 1700 050/08 RMK AO2
94908KDBQ DBQ20120625094009306/25/12 09:40:31  5-MIN KDBQ 251540Z 06012KT 10SM CLR 21/07 A3013 880 41 1800 060/12 RMK AO2
94908KDBQ DBQ20120625094509306/25/12 09:45:31  5-MIN KDBQ 251545Z 04010KT 10SM CLR 21/07 A3014 880 38 1800 040/10 RMK AO2
94908KDBQ DBQ20120625095011006/25/12 09:50:31  5-MIN KDBQ 251550Z 04011KT 10SM CLR 21/07 A3014 880 38 1800 040/11 RMK AO2 SLP199 T02110067
94908KDBQ DBQ20120625095509306/25/12 09:55:31  5-MIN KDBQ 251555Z 04011KT 10SM CLR 21/06 A3014 880 37 1800 040/11 RMK AO2
94908KDBQ DBQ20120625100009306/25/12 10:00:31  5-MIN KDBQ 251600Z 05011KT 10SM CLR 22/07 A3014 880 37 1900 050/11 RMK AO2
94908KDBQ DBQ20120625100509306/25/12 10:05:31  5-MIN KDBQ 251605Z 06012KT 10SM CLR 21/07 A3014 880 38 1800 060/12 RMK AO2
94908KDBQ DBQ20120625101009306/25/12 10:10:31  5-MIN KDBQ 251610Z 06011KT 10SM CLR 22/06 A3014 880 36 1900 060/11 RMK AO2
94908KDBQ DBQ20120625101509306/25/12 10:15:31  5-MIN KDBQ 251615Z 04014KT 10SM CLR 22/06 A3013 880 34 1900 040/14 RMK AO2
94908KDBQ DBQ20120625102009306/25/12 10:20:31  5-MIN KDBQ 251620Z 06012KT 10SM CLR 22/06 A3013 880 36 1900 060/12 RMK AO2
94908KDBQ DBQ20120625114509306/25/12 11:45:31  5-MIN KDBQ 251745Z 04013KT 10SM CLR 23/06 A3012 900 31 2100 040/13 RMK AO2
94908KDBQ DBQ20120625115013406/25/12 11:50:31  5-MIN KDBQ 251750Z 05011G16KT 10SM CLR 24/06 A3012 900 31 2200 050/11G16 RMK AO2 SLP192 T02390061 10239 20161 50001
94908KDBQ DBQ20120625115509906/25/12 11:55:31  5-MIN KDBQ 251755Z 04011G16KT 10SM CLR 23/06 A3012 900 32 2100 040/11G16 RMK AO2
94908KDBQ DBQ20120625120009306/25/12 12:00:31  5-MIN KDBQ 251800Z 06010KT 10SM CLR 23/06 A3011 900 31 2100 060/10 RMK AO2
94908KDBQ DBQ20120625120509306/25/12 12:05:31  5-MIN KDBQ 251805Z 06006KT 10SM CLR 24/06 A3011 900 31 2200 060/06 RMK AO2
94908KDBQ DBQ20120625121009306/25/12 12:10:31  5-MIN KDBQ 251810Z 07009KT 10SM CLR 24/06 A3011 900 31 2200 070/09 RMK AO2
94908KDBQ DBQ20120625121509906/25/12 12:15:31  5-MIN KDBQ 251815Z 04010G17KT 10SM CLR 24/06 A3011 900 31 2200 040/10G17 RMK AO2
94908KDBQ DBQ20120625122009906/25/12 12:20:31  5-MIN KDBQ 251820Z 08011G17KT 10SM CLR 24/06 A3012 900 31 2200 080/11G17 RMK AO2
94908KDBQ DBQ20120625122509306/25/12 12:25:31  5-MIN KDBQ 251825Z 07010KT 10SM CLR 24/06 A3011 900 31 2200 070/10 RMK AO2
94908KDBQ DBQ20120625123009306/25/12 12:30:31  5-MIN KDBQ 251830Z 07012KT 10SM CLR 24/06 A3012 900 30 2200 070/12 RMK AO2
94908KDBQ DBQ20120625123509306/25/12 12:35:31  5-MIN KDBQ 251835Z 06012KT 10SM CLR 24/06 A3011 900 30 2200 060/12 RMK AO2
94908KDBQ DBQ20120625124009906/25/12 12:40:31  5-MIN KDBQ 251840Z 06009G17KT 10SM CLR 24/06 A3011 900 30 2200 060/09G17 RMK AO2
94908KDBQ DBQ20120625124509906/25/12 12:45:31  5-MIN KDBQ 251845Z 06010G17KT 10SM CLR 24/05 A3011 910 29 2200 060/10G17 RMK AO2
94908KDBQ DBQ20120625125011006/25/12 12:50:31  5-MIN KDBQ 251850Z 07012KT 10SM CLR 24/06 A3011 910 30 2200 070/12 RMK AO2 SLP189 T02390056
94908KDBQ DBQ20120625125509306/25/12 12:55:31  5-MIN KDBQ 251855Z 08012KT 10SM CLR 24/06 A3010 910 30 2200 080/12 RMK AO2
94908KDBQ DBQ20120625130009306/25/12 13:00:31  5-MIN KDBQ 251900Z 06009KT 10SM CLR 24/06 A3010 910 30 2200 060/09 RMK AO2
94908KDBQ DBQ20120625130509306/25/12 13:05:31  5-MIN KDBQ 251905Z 08010KT 10SM CLR 24/06 A3010 910 30 2200 070/10 RMK AO2
94908KDBQ DBQ20120625131010906/25/12 13:10:31  5-MIN KDBQ 251910Z 07009KT 030V100 10SM CLR 24/05 A3010 910 28 2300 070/09 030V100 RMK AO2
94908KDBQ DBQ20120625131509306/25/12 13:15:31  5-MIN KDBQ 251915Z 05011KT 10SM CLR 25/06 A3010 910 28 2300 050/11 RMK AO2
94908KDBQ DBQ20120625132009306/25/12 13:20:31  5-MIN KDBQ 251920Z 08011KT 10SM CLR 24/06 A3010 910 30 2300 080/11 RMK AO2
94908KDBQ DBQ20120625132509306/25/12 13:25:31  5-MIN KDBQ 251925Z 08011KT 10SM CLR 25/06 A3010 910 28 2300 080/11 RMK AO2
94908KDBQ DBQ20120625133009306/25/12 13:30:31  5-MIN KDBQ 251930Z 06010KT 10SM CLR 24/06 A3010 910 29 2300 060/10 RMK AO2
94908KDBQ DBQ20120625133509306/25/12 13:35:31  5-MIN KDBQ 251935Z 04008KT 10SM CLR 24/06 A3009 920 29 2300 040/08 RMK AO2
94908KDBQ DBQ20120625134009906/25/12 13:40:31  5-MIN KDBQ 251940Z 05009G17KT 10SM CLR 25/06 A3009 920 29 2300 040/09G17 RMK AO2
94908KDBQ DBQ20120625134509906/25/12 13:45:31  5-MIN KDBQ 251945Z 05012G17KT 10SM CLR 25/06 A3009 920 28 2300 050/12G17 RMK AO2
94908KDBQ DBQ20120625135011006/25/12 13:50:31  5-MIN KDBQ 251950Z 05009KT 10SM CLR 25/06 A3010 920 29 2300 050/09 RMK AO2 SLP186 T02500061
94908KDBQ DBQ20120625135509306/25/12 13:55:31  5-MIN KDBQ 251955Z 06009KT 10SM CLR 25/06 A3009 920 28 2300 060/09 RMK AO2
94908KDBQ DBQ20120625140009906/25/12 14:00:31  5-MIN KDBQ 252000Z 08009G17KT 10SM CLR 25/06 A3009 920 29 2300 080/09G17 RMK AO2
94908KDBQ DBQ20120625140509906/25/12 14:05:31  5-MIN KDBQ 252005Z 05009G17KT 10SM CLR 25/06 A3009 920 29 2300 050/09G17 RMK AO2
94908KDBQ DBQ20120625141010906/25/12 14:10:31  5-MIN KDBQ 252010Z 05011KT 030V100 10SM CLR 25/06 A3009 920 29 2300 050/11 030V100 RMK AO2
94908KDBQ DBQ20120625141509906/25/12 14:15:31  5-MIN KDBQ 252015Z 04010G15KT 10SM CLR 25/06 A3009 920 29 2300 040/10G15 RMK AO2
94908KDBQ DBQ20120625142009306/25/12 14:20:31  5-MIN KDBQ 252020Z 08008KT 10SM CLR 26/06 A3009 930 28 2400 070/08 RMK AO2
94908KDBQ DBQ20120625142509306/25/12 14:25:31  5-MIN KDBQ 252025Z 07011KT 10SM CLR 26/07 A3008 930 29 2400 060/11 RMK AO2
94908KDBQ DBQ20120625143009306/25/12 14:30:31  5-MIN KDBQ 252030Z 04007KT 10SM CLR 25/06 A3008 930 29 2300 040/07 RMK AO2
94908KDBQ DBQ20120625143509906/25/12 14:35:31  5-MIN KDBQ 252035Z 09012G15KT 10SM CLR 26/07 A3008 930 29 2400 090/12G15 RMK AO2
94908KDBQ DBQ20120625144009906/25/12 14:40:31  5-MIN KDBQ 252040Z 09011G15KT 10SM CLR 25/06 A3008 930 29 2300 090/11G15 RMK AO2
94908KDBQ DBQ20120625144509306/25/12 14:45:31  5-MIN KDBQ 252045Z 06009KT 10SM CLR 26/06 A3008 930 28 2400 060/09 RMK AO2
94908KDBQ DBQ20120625145011606/25/12 14:50:31  5-MIN KDBQ 252050Z 10006KT 10SM CLR 24/06 A3008 930 29 2300 100/06 RMK AO2 SLP182 T02440056 58008
94908KDBQ DBQ20120625145509306/25/12 14:55:31  5-MIN KDBQ 252055Z 10008KT 10SM CLR 25/06 A3008 930 29 2300 100/08 RMK AO2
94908KDBQ DBQ20120625150009906/25/12 15:00:31  5-MIN KDBQ 252100Z 08009G14KT 10SM CLR 26/07 A3008 930 29 2400 080/09G14 RMK AO2
94908KDBQ DBQ20120625150511506/25/12 15:05:31  5-MIN KDBQ 252105Z 08007G14KT 040V110 10SM CLR 25/06 A3008 930 29 2300 080/07G14 040V110 RMK AO2
94908KDBQ DBQ20120625151009906/25/12 15:10:31  5-MIN KDBQ 252110Z 07007G15KT 10SM CLR 26/06 A3008 930 27 2400 070/07G15 RMK AO2
94908KDBQ DBQ20120625151509906/25/12 15:15:31  5-MIN KDBQ 252115Z 07007G15KT 10SM CLR 26/06 A3008 930 28 2400 070/07G15 RMK AO2
94908KDBQ DBQ20120625152009306/25/12 15:20:31  5-MIN KDBQ 252120Z 08008KT 10SM CLR 25/06 A3008 930 29 2300 080/08 RMK AO2
94908KDBQ DBQ20120625152509306/25/12 15:25:31  5-MIN KDBQ 252125Z 10007KT 10SM CLR 25/07 A3008 930 30 2300 100/07 RMK AO2
94908KDBQ DBQ20120625153009306/25/12 15:30:31  5-MIN KDBQ 252130Z 06009KT 10SM CLR 25/06 A3007 940 29 2300 060/09 RMK AO2
94908KDBQ DBQ20120625153509306/25/12 15:35:31  5-MIN KDBQ 252135Z 06007KT 10SM CLR 26/07 A3008 940 29 2400 060/07 RMK AO2
94908KDBQ DBQ20120625154009306/25/12 15:40:31  5-MIN KDBQ 252140Z 07008KT 10SM CLR 26/07 A3008 930 28 2500 070/08 RMK AO2
94908KDBQ DBQ20120625154509306/25/12 15:45:31  5-MIN KDBQ 252145Z 05009KT 10SM CLR 26/07 A3008 940 29 2400 050/09 RMK AO2
94908KDBQ DBQ20120625155011006/25/12 15:50:31  5-MIN KDBQ 252150Z 06005KT 10SM CLR 26/06 A3007 940 28 2400 060/05 RMK AO2 SLP179 T02560061
94908KDBQ DBQ20120625155509306/25/12 15:55:31  5-MIN KDBQ 252155Z 08006KT 10SM CLR 26/07 A3007 940 29 2400 080/06 RMK AO2
94908KDBQ DBQ20120625160009306/25/12 16:00:31  5-MIN KDBQ 252200Z 07006KT 10SM CLR 26/07 A3007 940 30 2400 070/06 RMK AO2
94908KDBQ DBQ20120625160509306/25/12 16:05:31  5-MIN KDBQ 252205Z 09009KT 10SM CLR 25/06 A3007 940 29 2300 090/09 RMK AO2
94908KDBQ DBQ20120625161009306/25/12 16:10:31  5-MIN KDBQ 252210Z 08006KT 10SM CLR 25/06 A3008 930 29 2300 070/06 RMK AO2
94908KDBQ DBQ20120625161509306/25/12 16:15:31  5-MIN KDBQ 252215Z 08007KT 10SM CLR 26/06 A3007 940 28 2400 080/07 RMK AO2
94908KDBQ DBQ20120625162009306/25/12 16:20:31  5-MIN KDBQ 252220Z 06007KT 10SM CLR 26/07 A3007 940 29 2400 060/07 RMK AO2
94908KDBQ DBQ20120625162509306/25/12 16:25:31  5-MIN KDBQ 252225Z 10007KT 10SM CLR 26/06 A3007 940 28 2400 100/07 RMK AO2
94908KDBQ DBQ20120625163009306/25/12 16:30:31  5-MIN KDBQ 252230Z 07008KT 10SM CLR 26/07 A3007 940 29 2400 060/08 RMK AO2
94908KDBQ DBQ20120625163509306/25/12 16:35:31  5-MIN KDBQ 252235Z 07005KT 10SM CLR 26/07 A3007 940 29 2400 070/05 RMK AO2
94908KDBQ DBQ20120625164009306/25/12 16:40:31  5-MIN KDBQ 252240Z 08006KT 10SM CLR 26/07 A3007 940 30 2400 080/06 RMK AO2
94908KDBQ DBQ20120625164509306/25/12 16:45:31  5-MIN KDBQ 252245Z 08006KT 10SM CLR 26/07 A3007 940 29 2400 080/06 RMK AO2
94908KDBQ DBQ20120625165011006/25/12 16:50:31  5-MIN KDBQ 252250Z 08007KT 10SM CLR 25/07 A3007 940 30 2400 080/07 RMK AO2 SLP176 T02500067
94908KDBQ DBQ20120625165509306/25/12 16:55:31  5-MIN KDBQ 252255Z 09008KT 10SM CLR 26/07 A3007 940 29 2400 090/08 RMK AO2
94908KDBQ DBQ20120625170009306/25/12 17:00:31  5-MIN KDBQ 252300Z 08009KT 10SM CLR 25/07 A3006 950 30 2400 070/09 RMK AO2
94908KDBQ DBQ20120625170509306/25/12 17:05:31  5-MIN KDBQ 252305Z 06006KT 10SM CLR 26/07 A3007 940 29 2400 060/06 RMK AO2
94908KDBQ DBQ20120625171009306/25/12 17:10:31  5-MIN KDBQ 252310Z 06007KT 10SM CLR 26/07 A3006 950 29 2400 060/07 RMK AO2
94908KDBQ DBQ20120625171509306/25/12 17:15:31  5-MIN KDBQ 252315Z 07008KT 10SM CLR 26/07 A3006 950 29 2400 070/08 RMK AO2
94908KDBQ DBQ20120625172009306/25/12 17:20:31  5-MIN KDBQ 252320Z 06008KT 10SM CLR 25/06 A3006 950 29 2400 060/08 RMK AO2
94908KDBQ DBQ20120625172509306/25/12 17:25:31  5-MIN KDBQ 252325Z 07006KT 10SM CLR 25/06 A3006 950 29 2400 070/06 RMK AO2
94908KDBQ DBQ20120625173009306/25/12 17:30:31  5-MIN KDBQ 252330Z 09007KT 10SM CLR 25/07 A3006 950 30 2400 090/07 RMK AO2
94908KDBQ DBQ20120625173509306/25/12 17:35:31  5-MIN KDBQ 252335Z 08004KT 10SM CLR 25/06 A3006 950 29 2400 080/04 RMK AO2
94908KDBQ DBQ20120625174009306/25/12 17:40:31  5-MIN KDBQ 252340Z 07006KT 10SM CLR 25/07 A3006 950 30 2400 060/06 RMK AO2
94908KDBQ DBQ20120625174509306/25/12 17:45:31  5-MIN KDBQ 252345Z 06009KT 10SM CLR 25/07 A3006 950 30 2400 060/09 RMK AO2
94908KDBQ DBQ20120625175012806/25/12 17:50:31  5-MIN KDBQ 252350Z 07008KT 10SM CLR 25/07 A3006 950 31 2400 070/08 RMK AO2 SLP175 T02500072 10261 20233 58012
94908KDBQ DBQ20120625175509306/25/12 17:55:31  5-MIN KDBQ 252355Z 07008KT 10SM CLR 24/07 A3006 950 33 2300 070/08 RMK AO2
94908KDBQ DBQ20120625180009306/25/12 18:00:31  5-MIN KDBQ 260000Z 07008KT 10SM CLR 24/07 A3006 950 33 2300 070/08 RMK AO2
94908KDBQ DBQ20120625180509306/25/12 18:05:31  5-MIN KDBQ 260005Z 07008KT 10SM CLR 24/07 A3006 950 33 2300 070/08 RMK AO2
94908KDBQ DBQ20120625181009306/25/12 18:10:31  5-MIN KDBQ 260010Z 09007KT 10SM CLR 24/08 A3005 950 34 2300 080/07 RMK AO2
94908KDBQ DBQ20120625181509306/25/12 18:15:31  5-MIN KDBQ 260015Z 10006KT 10SM CLR 24/08 A3006 950 34 2300 090/06 RMK AO2
94908KDBQ DBQ20120625182009306/25/12 18:20:31  5-MIN KDBQ 260020Z 11006KT 10SM CLR 24/07 A3006 950 34 2200 110/06 RMK AO2
94908KDBQ DBQ20120625182509306/25/12 18:25:31  5-MIN KDBQ 260025Z 09005KT 10SM CLR 24/08 A3006 950 35 2200 090/05 RMK AO2
94908KDBQ DBQ20120625183009306/25/12 18:30:31  5-MIN KDBQ 260030Z 11004KT 10SM CLR 24/08 A3006 950 36 2200 110/04 RMK AO2
94908KDBQ DBQ20120625183509306/25/12 18:35:31  5-MIN KDBQ 260035Z 11005KT 10SM CLR 23/08 A3006 950 38 2200 110/05 RMK AO2
94908KDBQ DBQ20120625184009306/25/12 18:40:31  5-MIN KDBQ 260040Z 10004KT 10SM CLR 23/08 A3006 950 38 2200 100/04 RMK AO2
94908KDBQ DBQ20120625184509306/25/12 18:45:31  5-MIN KDBQ 260045Z 10004KT 10SM CLR 23/09 A3006 950 39 2200 100/04 RMK AO2
94908KDBQ DBQ20120625185011006/25/12 18:50:31  5-MIN KDBQ 260050Z 10003KT 10SM CLR 23/08 A3006 950 38 2200 100/03 RMK AO2 SLP176 T02330083
94908KDBQ DBQ20120625185509306/25/12 18:55:31  5-MIN KDBQ 260055Z 10003KT 10SM CLR 23/09 A3006 950 40 2100 100/03 RMK AO2
94908KDBQ DBQ20120625190009306/25/12 19:00:31  5-MIN KDBQ 260100Z 10004KT 10SM CLR 23/09 A3006 950 40 2100 100/04 RMK AO2
94908KDBQ DBQ20120625190509306/25/12 19:05:31  5-MIN KDBQ 260105Z 10004KT 10SM CLR 22/09 A3006 950 42 2100 100/04 RMK AO2
94908KDBQ DBQ20120625191009306/25/12 19:10:31  5-MIN KDBQ 260110Z 10004KT 10SM CLR 22/09 A3005 960 43 2100 100/04 RMK AO2
94908KDBQ DBQ20120625191509306/25/12 19:15:31  5-MIN KDBQ 260115Z 10004KT 10SM CLR 22/10 A3005 960 45 2100 100/04 RMK AO2
94908KDBQ DBQ20120625192009306/25/12 19:20:31  5-MIN KDBQ 260120Z 09004KT 10SM CLR 22/10 A3005 960 47 2000 090/04 RMK AO2
94908KDBQ DBQ20120625192509306/25/12 19:25:31  5-MIN KDBQ 260125Z 10005KT 10SM CLR 22/10 A3005 960 47 2000 100/05 RMK AO2
94908KDBQ DBQ20120625193009306/25/12 19:30:31  5-MIN KDBQ 260130Z 09005KT 10SM CLR 21/09 A3005 960 47 1900 090/05 RMK AO2
94908KDBQ DBQ20120625193509306/25/12 19:35:31  5-MIN KDBQ 260135Z 10006KT 10SM CLR 21/09 A3005 960 45 1900 090/06 RMK AO2
94908KDBQ DBQ20120625194009306/25/12 19:40:31  5-MIN KDBQ 260140Z 10005KT 10SM CLR 21/09 A3005 960 45 1900 100/05 RMK AO2
94908KDBQ DBQ20120625194509306/25/12 19:45:31  5-MIN KDBQ 260145Z 10005KT 10SM CLR 21/09 A3005 960 46 1900 100/05 RMK AO2
94908KDBQ DBQ20120625195011006/25/12 19:50:31  5-MIN KDBQ 260150Z 10005KT 10SM CLR 21/09 A3005 960 46 1900 100/05 RMK AO2 SLP172 T02060089
94908KDBQ DBQ20120625195509306/25/12 19:55:31  5-MIN KDBQ 260155Z 10006KT 10SM CLR 21/09 A3005 960 46 1900 100/06 RMK AO2
94908KDBQ DBQ20120625200009306/25/12 20:00:31  5-MIN KDBQ 260200Z 10006KT 10SM CLR 20/09 A3005 960 48 1800 100/06 RMK AO2
94908KDBQ DBQ20120625200509306/25/12 20:05:31  5-MIN KDBQ 260205Z 10006KT 10SM CLR 20/09 A3005 950 48 1800 100/06 RMK AO2
94908KDBQ DBQ20120625201009306/25/12 20:10:31  5-MIN KDBQ 260210Z 10006KT 10SM CLR 20/09 A3006 950 48 1800 090/06 RMK AO2
94908KDBQ DBQ20120625201509306/25/12 20:15:31  5-MIN KDBQ 260215Z 10007KT 10SM CLR 20/08 A3006 950 46 1800 090/07 RMK AO2
94908KDBQ DBQ20120625202009306/25/12 20:20:31  5-MIN KDBQ 260220Z 10007KT 10SM CLR 20/08 A3006 950 46 1800 090/07 RMK AO2
94908KDBQ DBQ20120625202509306/25/12 20:25:31  5-MIN KDBQ 260225Z 09008KT 10SM CLR 19/08 A3006 950 48 1700 090/08 RMK AO2
94908KDBQ DBQ20120625203009306/25/12 20:30:31  5-MIN KDBQ 260230Z 10007KT 10SM CLR 19/08 A3006 950 48 1700 090/07 RMK AO2
94908KDBQ DBQ20120625203509306/25/12 20:35:31  5-MIN KDBQ 260235Z 10006KT 10SM CLR 19/08 A3006 950 50 1700 100/06 RMK AO2
94908KDBQ DBQ20120625204009306/25/12 20:40:31  5-MIN KDBQ 260240Z 10006KT 10SM CLR 19/09 A3006 950 52 1700 100/06 RMK AO2
94908KDBQ DBQ20120625204509306/25/12 20:45:31  5-MIN KDBQ 260245Z 10006KT 10SM CLR 19/09 A3007 940 52 1700 100/06 RMK AO2
94908KDBQ DBQ20120625205011606/25/12 20:50:31  5-MIN KDBQ 260250Z 10006KT 10SM CLR 19/08 A3007 940 50 1700 100/06 RMK AO2 SLP178 T01890083 56007
94908KDBQ DBQ20120625205509306/25/12 20:55:31  5-MIN KDBQ 260255Z 11006KT 10SM CLR 18/09 A3007 940 54 1600 110/06 RMK AO2
94908KDBQ DBQ20120625210009306/25/12 21:00:31  5-MIN KDBQ 260300Z 11008KT 10SM CLR 18/09 A3007 940 55 1500 110/08 RMK AO2
94908KDBQ DBQ20120625210509306/25/12 21:05:31  5-MIN KDBQ 260305Z 11009KT 10SM CLR 17/09 A3007 940 60 1500 110/09 RMK AO2
94908KDBQ DBQ20120625211009306/25/12 21:10:31  5-MIN KDBQ 260310Z 11009KT 10SM CLR 17/09 A3007 940 60 1500 110/09 RMK AO2
94908KDBQ DBQ20120625211509306/25/12 21:15:31  5-MIN KDBQ 260315Z 12010KT 10SM CLR 18/09 A3007 940 55 1500 120/10 RMK AO2
94908KDBQ DBQ20120625212009306/25/12 21:20:31  5-MIN KDBQ 260320Z 13009KT 10SM CLR 18/08 A3007 940 52 1600 120/09 RMK AO2
94908KDBQ DBQ20120625212509306/25/12 21:25:31  5-MIN KDBQ 260325Z 13010KT 10SM CLR 18/08 A3007 940 50 1600 130/10 RMK AO2
94908KDBQ DBQ20120625213009306/25/12 21:30:31  5-MIN KDBQ 260330Z 13010KT 10SM CLR 18/07 A3007 940 48 1600 130/10 RMK AO2
94908KDBQ DBQ20120625213509306/25/12 21:35:31  5-MIN KDBQ 260335Z 13009KT 10SM CLR 18/07 A3008 930 48 1600 130/09 RMK AO2
94908KDBQ DBQ20120625214009306/25/12 21:40:31  5-MIN KDBQ 260340Z 12010KT 10SM CLR 18/07 A3008 940 48 1600 120/10 RMK AO2
94908KDBQ DBQ20120625214509306/25/12 21:45:31  5-MIN KDBQ 260345Z 13010KT 10SM CLR 18/07 A3008 940 49 1500 120/10 RMK AO2
94908KDBQ DBQ20120625215011006/25/12 21:50:31  5-MIN KDBQ 260350Z 13008KT 10SM CLR 19/07 A3008 930 46 1600 120/08 RMK AO2 SLP181 T01890072
94908KDBQ DBQ20120625215509306/25/12 21:55:31  5-MIN KDBQ 260355Z 12009KT 10SM CLR 18/07 A3007 940 49 1500 120/09 RMK AO2
94908KDBQ DBQ20120625220009306/25/12 22:00:31  5-MIN KDBQ 260400Z 12008KT 10SM CLR 17/07 A3007 940 51 1500 120/08 RMK AO2
94908KDBQ DBQ20120625220509306/25/12 22:05:31  5-MIN KDBQ 260405Z 12008KT 10SM CLR 17/07 A3007 940 51 1500 120/08 RMK AO2
94908KDBQ DBQ20120625221009306/25/12 22:10:31  5-MIN KDBQ 260410Z 13009KT 10SM CLR 17/07 A3007 940 49 1500 130/09 RMK AO2
94908KDBQ DBQ20120625221509306/25/12 22:15:31  5-MIN KDBQ 260415Z 13011KT 10SM CLR 17/07 A3007 940 49 1500 130/11 RMK AO2
94908KDBQ DBQ20120625222009306/25/12 22:20:31  5-MIN KDBQ 260420Z 13010KT 10SM CLR 17/07 A3007 940 51 1400 130/10 RMK AO2
94908KDBQ DBQ20120625222509306/25/12 22:25:31  5-MIN KDBQ 260425Z 13010KT 10SM CLR 17/07 A3008 940 51 1400 130/10 RMK AO2
94908KDBQ DBQ20120625223009306/25/12 22:30:31  5-MIN KDBQ 260430Z 13009KT 10SM CLR 17/07 A3007 940 51 1400 130/09 RMK AO2
94908KDBQ DBQ20120625223509306/25/12 22:35:31  5-MIN KDBQ 260435Z 13010KT 10SM CLR 16/07 A3007 940 55 1300 130/10 RMK AO2
94908KDBQ DBQ20120625224009306/25/12 22:40:31  5-MIN KDBQ 260440Z 13011KT 10SM CLR 17/07 A3007 940 51 1400 130/11 RMK AO2
94908KDBQ DBQ20120625224509306/25/12 22:45:31  5-MIN KDBQ 260445Z 13009KT 10SM CLR 17/06 A3007 940 49 1400 120/09 RMK AO2
94908KDBQ DBQ20120625225011006/25/12 22:50:31  5-MIN KDBQ 260450Z 13011KT 10SM CLR 17/06 A3007 940 49 1400 130/11 RMK AO2 SLP180 T01670061
94908KDBQ DBQ20120625225509306/25/12 22:55:31  5-MIN KDBQ 260455Z 12011KT 10SM CLR 17/06 A3007 940 49 1400 120/11 RMK AO2
94908KDBQ DBQ20120625230009306/25/12 23:00:31  5-MIN KDBQ 260500Z 13011KT 10SM CLR 17/06 A3007 940 47 1400 130/11 RMK AO2
94908KDBQ DBQ20120625230509306/25/12 23:05:31  5-MIN KDBQ 260505Z 13011KT 10SM CLR 17/06 A3007 940 47 1400 130/11 RMK AO2
94908KDBQ DBQ20120625231009306/25/12 23:10:31  5-MIN KDBQ 260510Z 13010KT 10SM CLR 16/06 A3007 940 49 1300 120/10 RMK AO2
94908KDBQ DBQ20120625231509306/25/12 23:15:31  5-MIN KDBQ 260515Z 13010KT 10SM CLR 16/06 A3007 940 49 1300 130/10 RMK AO2
94908KDBQ DBQ20120625232009306/25/12 23:20:31  5-MIN KDBQ 260520Z 13009KT 10SM CLR 16/06 A3007 940 51 1300 130/09 RMK AO2
94908KDBQ DBQ20120625232509306/25/12 23:25:31  5-MIN KDBQ 260525Z 13009KT 10SM CLR 16/06 A3007 940 51 1300 130/09 RMK AO2
94908KDBQ DBQ20120625233009306/25/12 23:30:31  5-MIN KDBQ 260530Z 13009KT 10SM CLR 16/06 A3007 940 51 1300 130/09 RMK AO2
94908KDBQ DBQ20120625233509306/25/12 23:35:31  5-MIN KDBQ 260535Z 13009KT 10SM CLR 15/06 A3007 940 53 1200 130/09 RMK AO2
94908KDBQ DBQ20120625234009306/25/12 23:40:31  5-MIN KDBQ 260540Z 12008KT 10SM CLR 15/06 A3007 940 53 1200 120/08 RMK AO2
94908KDBQ DBQ20120625234509306/25/12 23:45:31  5-MIN KDBQ 260545Z 12007KT 10SM CLR 15/06 A3007 940 53 1200 120/07 RMK AO2
94908KDBQ DBQ20120625235013806/25/12 23:50:31  5-MIN KDBQ 260550Z 12007KT 10SM CLR 14/06 A3007 940 57 1100 120/07 RMK AO2 SLP179 T01440061 10244 20144 402610144 53003
94908KDBQ DBQ20120625235509306/25/12 23:55:31  5-MIN KDBQ 260555Z 12007KT 10SM CLR 14/06 A3007 940 57 1100 120/07 RMK AO2
94908KDBQ DBQ20120626000009306/26/12 00:00:38  5-MIN KDBQ 260600Z 12008KT 10SM CLR 14/06 A3007 940 57 1100 120/08 RMK AO2
94908KDBQ DBQ20120626000509306/26/12 00:05:31  5-MIN KDBQ 260605Z 12007KT 10SM CLR 14/06 A3007 940 57 1100 120/07 RMK AO2
94908KDBQ DBQ20120626001009306/26/12 00:10:31  5-MIN KDBQ 260610Z 11006KT 10SM CLR 14/06 A3007 940 59 1100 110/06 RMK AO2
94908KDBQ DBQ20120626001509306/26/12 00:15:32  5-MIN KDBQ 260615Z 12007KT 10SM CLR 14/06 A3007 940 59 1100 120/07 RMK AO2
94908KDBQ DBQ20120626002009306/26/12 00:20:31  5-MIN KDBQ 260620Z 12008KT 10SM CLR 14/06 A3007 940 59 1100 120/08 RMK AO2
94908KDBQ DBQ20120626002509306/26/12 00:25:31  5-MIN KDBQ 260625Z 12009KT 10SM CLR 14/06 A3007 940 59 1100 110/09 RMK AO2
94908KDBQ DBQ20120626003009306/26/12 00:30:31  5-MIN KDBQ 260630Z 11009KT 10SM CLR 14/06 A3007 940 59 1100 110/09 RMK AO2
94908KDBQ DBQ20120626003509306/26/12 00:35:31  5-MIN KDBQ 260635Z 11009KT 10SM CLR 14/06 A3007 940 59 1100 110/09 RMK AO2
94908KDBQ DBQ20120626004009306/26/12 00:40:31  5-MIN KDBQ 260640Z 11009KT 10SM CLR 14/06 A3007 940 59 1100 110/09 RMK AO2
94908KDBQ DBQ20120626004509306/26/12 00:45:31  5-MIN KDBQ 260645Z 12009KT 10SM CLR 14/07 A3007 940 61 1100 120/09 RMK AO2
94908KDBQ DBQ20120626005011006/26/12 00:50:31  5-MIN KDBQ 260650Z 11009KT 10SM CLR 14/07 A3007 940 61 1100 110/09 RMK AO2 SLP180 T01390067
94908KDBQ DBQ20120626005509306/26/12 00:55:31  5-MIN KDBQ 260655Z 11009KT 10SM CLR 14/07 A3007 940 61 1100 110/09 RMK AO2
94908KDBQ DBQ20120626010009306/26/12 01:00:31  5-MIN KDBQ 260700Z 11009KT 10SM CLR 14/07 A3007 940 61 1100 110/09 RMK AO2
94908KDBQ DBQ20120626010509306/26/12 01:05:31  5-MIN KDBQ 260705Z 11010KT 10SM CLR 14/06 A3007 940 57 1100 110/10 RMK AO2
94908KDBQ DBQ20120626011009306/26/12 01:10:31  5-MIN KDBQ 260710Z 11010KT 10SM CLR 14/06 A3007 940 57 1100 110/10 RMK AO2
94908KDBQ DBQ20120626011509306/26/12 01:15:31  5-MIN KDBQ 260715Z 11009KT 10SM CLR 14/06 A3007 940 57 1100 110/09 RMK AO2
94908KDBQ DBQ20120626012009306/26/12 01:20:31  5-MIN KDBQ 260720Z 10008KT 10SM CLR 14/06 A3007 940 57 1100 100/08 RMK AO2
94908KDBQ DBQ20120626012509306/26/12 01:25:31  5-MIN KDBQ 260725Z 10009KT 10SM CLR 14/06 A3007 940 57 1100 100/09 RMK AO2
94908KDBQ DBQ20120626013009306/26/12 01:30:31  5-MIN KDBQ 260730Z 11009KT 10SM CLR 14/06 A3007 940 57 1100 110/09 RMK AO2
94908KDBQ DBQ20120626013509306/26/12 01:35:31  5-MIN KDBQ 260735Z 11007KT 10SM CLR 14/06 A3007 940 57 1100 110/07 RMK AO2
94908KDBQ DBQ20120626014009306/26/12 01:40:31  5-MIN KDBQ 260740Z 12006KT 10SM CLR 14/07 A3007 940 61 1100 110/06 RMK AO2
94908KDBQ DBQ20120626014509306/26/12 01:45:31  5-MIN KDBQ 260745Z 12006KT 10SM CLR 14/07 A3006 950 61 1100 120/06 RMK AO2
94908KDBQ DBQ20120626015011006/26/12 01:50:31  5-MIN KDBQ 260750Z 11006KT 10SM CLR 13/07 A3006 950 64 1000 110/06 RMK AO2 SLP177 T01330067
94908KDBQ DBQ20120626015509206/26/12 01:55:31  5-MIN KDBQ 260755Z 12005KT 10SM CLR 13/07 A3007 940 66 900 110/05 RMK AO2
94908KDBQ DBQ20120626020009206/26/12 02:00:31  5-MIN KDBQ 260800Z 14003KT 10SM CLR 13/07 A3007 940 66 900 140/03 RMK AO2
94908KDBQ DBQ20120626020509206/26/12 02:05:31  5-MIN KDBQ 260805Z 00000KT 10SM CLR 12/07 A3006 950 68 900 000/00 RMK AO2
94908KDBQ DBQ20120626021009206/26/12 02:10:31  5-MIN KDBQ 260810Z 12003KT 10SM CLR 12/07 A3006 950 68 900 120/03 RMK AO2
94908KDBQ DBQ20120626021509206/26/12 02:15:31  5-MIN KDBQ 260815Z 12004KT 10SM CLR 12/07 A3006 950 68 900 120/04 RMK AO2
94908KDBQ DBQ20120626022009206/26/12 02:20:31  5-MIN KDBQ 260820Z 11005KT 10SM CLR 12/07 A3006 950 68 900 110/05 RMK AO2
94908KDBQ DBQ20120626022509206/26/12 02:25:31  5-MIN KDBQ 260825Z 12006KT 10SM CLR 12/07 A3006 950 68 900 120/06 RMK AO2
94908KDBQ DBQ20120626023009206/26/12 02:30:31  5-MIN KDBQ 260830Z 11008KT 10SM CLR 12/07 A3006 950 68 900 110/08 RMK AO2
94908KDBQ DBQ20120626023509206/26/12 02:35:31  5-MIN KDBQ 260835Z 11006KT 10SM CLR 12/07 A3006 950 68 900 110/06 RMK AO2
94908KDBQ DBQ20120626024009206/26/12 02:40:31  5-MIN KDBQ 260840Z 12007KT 10SM CLR 12/07 A3006 950 68 900 120/07 RMK AO2
94908KDBQ DBQ20120626024509206/26/12 02:45:31  5-MIN KDBQ 260845Z 11007KT 10SM CLR 12/07 A3006 950 68 900 110/07 RMK AO2
94908KDBQ DBQ20120626025011506/26/12 02:50:31  5-MIN KDBQ 260850Z 11006KT 10SM CLR 12/07 A3006 950 68 900 110/06 RMK AO2 SLP177 T01220067 50000
94908KDBQ DBQ20120626025509206/26/12 02:55:31  5-MIN KDBQ 260855Z 12005KT 10SM CLR 12/07 A3006 950 68 900 110/05 RMK AO2
94908KDBQ DBQ20120626030009206/26/12 03:00:31  5-MIN KDBQ 260900Z 13003KT 10SM CLR 12/07 A3006 950 68 900 130/03 RMK AO2
94908KDBQ DBQ20120626030509206/26/12 03:05:31  5-MIN KDBQ 260905Z 00000KT 10SM CLR 12/07 A3006 940 71 800 000/00 RMK AO2
94908KDBQ DBQ20120626031009206/26/12 03:10:31  5-MIN KDBQ 260910Z 00000KT 10SM CLR 12/07 A3007 940 71 800 000/00 RMK AO2
94908KDBQ DBQ20120626031509206/26/12 03:15:31  5-MIN KDBQ 260915Z 00000KT 10SM CLR 12/07 A3007 940 68 900 000/00 RMK AO2
94908KDBQ DBQ20120626032009206/26/12 03:20:31  5-MIN KDBQ 260920Z 00000KT 10SM CLR 12/07 A3007 940 71 800 000/00 RMK AO2
94908KDBQ DBQ20120626032509206/26/12 03:25:31  5-MIN KDBQ 260925Z 00000KT 10SM CLR 11/07 A3007 940 77 700 000/00 RMK AO2
94908KDBQ DBQ20120626033009206/26/12 03:30:31  5-MIN KDBQ 260930Z 00000KT 10SM CLR 11/06 A3007 940 74 700 000/00 RMK AO2
94908KDBQ DBQ20120626033509206/26/12 03:35:31  5-MIN KDBQ 260935Z 00000KT 10SM CLR 11/06 A3007 940 74 700 000/00 RMK AO2
94908KDBQ DBQ20120626034009206/26/12 03:40:31  5-MIN KDBQ 260940Z 00000KT 10SM CLR 11/06 A3007 940 71 700 000/00 RMK AO2
94908KDBQ DBQ20120626034509206/26/12 03:45:31  5-MIN KDBQ 260945Z 00000KT 10SM CLR 12/06 A3007 940 68 800 000/00 RMK AO2
94908KDBQ DBQ20120626035010906/26/12 03:50:31  5-MIN KDBQ 260950Z 10003KT 10SM CLR 11/06 A3006 950 71 700 100/03 RMK AO2 SLP177 T01110061
94908KDBQ DBQ20120626035509206/26/12 03:55:31  5-MIN KDBQ 260955Z 00000KT 10SM CLR 11/06 A3006 950 74 700 000/00 RMK AO2
94908KDBQ DBQ20120626040009206/26/12 04:00:31  5-MIN KDBQ 261000Z 00000KT 10SM CLR 11/06 A3006 950 74 700 000/00 RMK AO2
94908KDBQ DBQ20120626040509206/26/12 04:05:31  5-MIN KDBQ 261005Z 00000KT 10SM CLR 09/06 A3007 940 76 500 000/00 RMK AO2
94908KDBQ DBQ20120626041009206/26/12 04:10:31  5-MIN KDBQ 261010Z 00000KT 10SM CLR 11/06 A3007 940 74 700 000/00 RMK AO2
94908KDBQ DBQ20120626041511406/26/12 04:15:31  5-MIN KDBQ 261015Z 26013G17KT 160V270 10SM CLR 12/06 A3007 940 68 800 260/13G17 160V270 RMK AO2
94908KDBQ DBQ20120626042008406/26/12 04:20:31  5-MIN KDBQ 261020Z 10SM CLR 12/06 A3006 940 68 800 M /M RMK AO2 $
94908KDBQ DBQ20120626042508406/26/12 04:25:31  5-MIN KDBQ 261025Z 10SM CLR 11/06 A3006 950 71 700 M /M RMK AO2 $
94908KDBQ DBQ20120626043008406/26/12 04:30:31  5-MIN KDBQ 261030Z 10SM CLR 11/06 A3006 950 71 800 M /M RMK AO2 $
94908KDBQ DBQ20120626043508406/26/12 04:35:31  5-MIN KDBQ 261035Z 10SM CLR 11/06 A3006 950 71 800 M /M RMK AO2 $
94908KDBQ DBQ20120626044008406/26/12 04:40:31  5-MIN KDBQ 261040Z 10SM CLR 11/07 A3006 950 74 800 M /M RMK AO2 $
94908KDBQ DBQ20120626044508406/26/12 04:45:31  5-MIN KDBQ 261045Z 10SM CLR 11/07 A3006 950 74 800 M /M RMK AO2 $
94908KDBQ DBQ20120626045010106/26/12 04:50:31  5-MIN KDBQ 261050Z 10SM CLR 11/07 A3006 950 77 700 M /M RMK AO2 SLP175 T01060067 $
94908KDBQ DBQ20120626045508406/26/12 04:55:31  5-MIN KDBQ 261055Z 10SM CLR 11/07 A3006 950 74 700 M /M RMK AO2 $
94908KDBQ DBQ20120626050009406/26/12 05:00:31  5-MIN KDBQ 261100Z 00000KT 10SM CLR 11/07 A3007 940 74 700 000/00 RMK AO2 $
94908KDBQ DBQ20120626050509406/26/12 05:05:31  5-MIN KDBQ 261105Z 00000KT 10SM CLR 12/07 A3008 930 71 800 000/00 RMK AO2 $
94908KDBQ DBQ20120626051009406/26/12 05:10:31  5-MIN KDBQ 261110Z 00000KT 10SM CLR 12/07 A3007 940 68 900 000/00 RMK AO2 $
94908KDBQ DBQ20120626051509406/26/12 05:15:31  5-MIN KDBQ 261115Z 10004KT 10SM CLR 12/07 A3006 950 71 800 100/04 RMK AO2 $
94908KDBQ DBQ20120626052009406/26/12 05:20:31  5-MIN KDBQ 261120Z 10005KT 10SM CLR 12/07 A3006 950 71 900 100/05 RMK AO2 $
94908KDBQ DBQ20120626052509406/26/12 05:25:31  5-MIN KDBQ 261125Z 10003KT 10SM CLR 12/07 A3006 950 74 800 100/03 RMK AO2 $
94908KDBQ DBQ20120626053009406/26/12 05:30:31  5-MIN KDBQ 261130Z 11005KT 10SM CLR 12/07 A3006 950 71 900 110/05 RMK AO2 $
94908KDBQ DBQ20120626053509406/26/12 05:35:31  5-MIN KDBQ 261135Z 11006KT 10SM CLR 13/07 A3006 950 69 900 110/06 RMK AO2 $
94908KDBQ DBQ20120626054009506/26/12 05:40:31  5-MIN KDBQ 261140Z 11007KT 10SM CLR 13/07 A3006 950 66 1000 110/07 RMK AO2 $
94908KDBQ DBQ20120626054509506/26/12 05:45:31  5-MIN KDBQ 261145Z 12006KT 10SM CLR 13/07 A3006 950 66 1000 120/06 RMK AO2 $
94908KDBQ DBQ20120626055013006/26/12 05:50:31  5-MIN KDBQ 261150Z 12005KT 10SM CLR 13/07 A3006 950 66 1000 120/05 RMK AO2 SLP177 T01330072 10144 20094 58003 $
94908KDBQ DBQ20120626055509306/26/12 05:55:31  5-MIN KDBQ 261155Z 13004KT 10SM CLR 14/08 A3007 940 66 1100 130/04 RMK AO2
94908KDBQ DBQ20120626060009306/26/12 06:00:31  5-MIN KDBQ 261200Z 14003KT 10SM CLR 14/08 A3007 940 66 1100 140/03 RMK AO2
94908KDBQ DBQ20120626060509306/26/12 06:05:31  5-MIN KDBQ 261205Z VRB05KT 10SM CLR 14/08 A3007 940 64 1100 VRB/05 RMK AO2
94908KDBQ DBQ20120626061009206/26/12 06:10:31  5-MIN KDBQ 261210Z 11006KT 9SM CLR 14/08 A3007 940 64 1100 110/06 RMK AO2
94908KDBQ DBQ20120626061509206/26/12 06:15:31  5-MIN KDBQ 261215Z 12005KT 8SM CLR 14/08 A3008 930 64 1100 120/05 RMK AO2
94908KDBQ DBQ20120626062009206/26/12 06:20:31  5-MIN KDBQ 261220Z 11006KT 8SM CLR 15/08 A3008 930 64 1200 110/06 RMK AO2
94908KDBQ DBQ20120626062509206/26/12 06:25:31  5-MIN KDBQ 261225Z 11006KT 7SM CLR 15/08 A3008 930 64 1200 110/06 RMK AO2
94908KDBQ DBQ20120626063009206/26/12 06:30:31  5-MIN KDBQ 261230Z 12006KT 8SM CLR 15/09 A3008 930 66 1200 120/06 RMK AO2
94908KDBQ DBQ20120626063509206/26/12 06:35:31  5-MIN KDBQ 261235Z 13005KT 9SM CLR 15/09 A3008 930 66 1200 130/05 RMK AO2
94908KDBQ DBQ20120626064009306/26/12 06:40:31  5-MIN KDBQ 261240Z 13008KT 10SM CLR 15/09 A3009 930 66 1200 130/08 RMK AO2
94908KDBQ DBQ20120626064509206/26/12 06:45:31  5-MIN KDBQ 261245Z 13006KT 9SM CLR 16/09 A3008 930 64 1200 130/06 RMK AO2
94908KDBQ DBQ20120626065009506/26/12 06:50:31  5-MIN KDBQ 261250Z 14008KT 9SM FEW002 16/09 A3008 930 64 1200 140/08 RMK AO2
94908KDBQ DBQ20120626065509306/26/12 06:55:31  5-MIN KDBQ 261255Z 13007KT 10SM CLR 16/09 A3009 920 64 1300 130/07 RMK AO2
94908KDBQ DBQ20120626070009306/26/12 07:00:31  5-MIN KDBQ 261300Z 13006KT 10SM CLR 16/09 A3009 920 64 1300 130/06 RMK AO2
94908KDBQ DBQ20120626070509306/26/12 07:05:31  5-MIN KDBQ 261305Z 12008KT 10SM CLR 16/09 A3009 920 64 1300 120/08 RMK AO2
94908KDBQ DBQ20120626071009306/26/12 07:10:31  5-MIN KDBQ 261310Z 12008KT 10SM CLR 16/09 A3010 920 64 1300 120/08 RMK AO2
94908KDBQ DBQ20120626071509306/26/12 07:15:31  5-MIN KDBQ 261315Z 12009KT 10SM CLR 17/09 A3010 920 62 1400 120/09 RMK AO2
94908KDBQ DBQ20120626072009206/26/12 07:20:31  5-MIN KDBQ 261320Z 12008KT 9SM CLR 17/09 A3009 920 62 1400 120/08 RMK AO2
94908KDBQ DBQ20120626072509206/26/12 07:25:31  5-MIN KDBQ 261325Z 12009KT 8SM CLR 17/10 A3010 910 62 1400 120/09 RMK AO2
94908KDBQ DBQ20120626073009206/26/12 07:30:31  5-MIN KDBQ 261330Z 14008KT 9SM CLR 17/09 A3010 910 60 1400 140/08 RMK AO2
94908KDBQ DBQ20120626073509306/26/12 07:35:31  5-MIN KDBQ 261335Z 13007KT 10SM CLR 17/10 A3010 910 62 1400 120/07 RMK AO2
94908KDBQ DBQ20120626074009306/26/12 07:40:31  5-MIN KDBQ 261340Z 14008KT 10SM CLR 17/10 A3010 920 62 1400 130/08 RMK AO2
94908KDBQ DBQ20120626074509506/26/12 07:45:31  5-MIN KDBQ 261345Z 14007KT 8SM FEW002 18/10 A3010 920 60 1500 140/07 RMK AO2
94908KDBQ DBQ20120626075011206/26/12 07:50:31  5-MIN KDBQ 261350Z 13007KT 8SM FEW002 18/10 A3010 910 60 1500 130/07 RMK AO2 SLP189 T01780100
94908KDBQ DBQ20120626075509306/26/12 07:55:31  5-MIN KDBQ 261355Z 14007KT 10SM CLR 18/10 A3010 910 60 1500 140/07 RMK AO2
94908KDBQ DBQ20120626080009306/26/12 08:00:31  5-MIN KDBQ 261400Z 14008KT 10SM CLR 18/10 A3010 920 60 1500 140/08 RMK AO2
94908KDBQ DBQ20120626080509306/26/12 08:05:31  5-MIN KDBQ 261405Z 15006KT 10SM CLR 18/10 A3010 910 58 1600 140/06 RMK AO2
94908KDBQ DBQ20120626081009306/26/12 08:10:31  5-MIN KDBQ 261410Z 15008KT 10SM CLR 18/10 A3010 910 58 1600 150/08 RMK AO2
94908KDBQ DBQ20120626081509306/26/12 08:15:31  5-MIN KDBQ 261415Z 13006KT 10SM CLR 19/11 A3010 910 58 1600 130/06 RMK AO2
94908KDBQ DBQ20120626082009306/26/12 08:20:31  5-MIN KDBQ 261420Z 14009KT 10SM CLR 19/10 A3010 910 56 1600 140/09 RMK AO2
94908KDBQ DBQ20120626082509306/26/12 08:25:31  5-MIN KDBQ 261425Z 15008KT 10SM CLR 19/11 A3010 920 58 1600 150/08 RMK AO2
94908KDBQ DBQ20120626083009306/26/12 08:30:31  5-MIN KDBQ 261430Z 15009KT 10SM CLR 19/10 A3010 920 54 1700 150/09 RMK AO2
94908KDBQ DBQ20120626083509306/26/12 08:35:31  5-MIN KDBQ 261435Z 15010KT 10SM CLR 19/11 A3009 920 56 1700 150/10 RMK AO2
94908KDBQ DBQ20120626084009306/26/12 08:40:31  5-MIN KDBQ 261440Z 15009KT 10SM CLR 19/10 A3009 920 54 1700 140/09 RMK AO2
94908KDBQ DBQ20120626084509306/26/12 08:45:31  5-MIN KDBQ 261445Z 14009KT 10SM CLR 19/10 A3009 920 54 1700 140/09 RMK AO2
94908KDBQ DBQ20120626085011606/26/12 08:50:31  5-MIN KDBQ 261450Z 15010KT 10SM CLR 20/11 A3009 930 54 1800 150/10 RMK AO2 SLP185 T02000106 53001
94908KDBQ DBQ20120626085509306/26/12 08:55:31  5-MIN KDBQ 261455Z 16009KT 10SM CLR 20/11 A3008 930 54 1800 160/09 RMK AO2
94908KDBQ DBQ20120626090009306/26/12 09:00:31  5-MIN KDBQ 261500Z 14009KT 10SM CLR 20/11 A3008 930 54 1800 140/09 RMK AO2
94908KDBQ DBQ20120626090509306/26/12 09:05:31  5-MIN KDBQ 261505Z 14009KT 10SM CLR 20/11 A3008 930 54 1800 140/09 RMK AO2
94908KDBQ DBQ20120626091009206/26/12 09:10:31  5-MIN KDBQ 261510Z 15012KT 9SM CLR 21/11 A3008 930 54 1800 150/12 RMK AO2
94908KDBQ DBQ20120626091509206/26/12 09:15:31  5-MIN KDBQ 261515Z 16011KT 9SM CLR 21/11 A3008 930 52 1800 160/11 RMK AO2
94908KDBQ DBQ20120626092009306/26/12 09:20:31  5-MIN KDBQ 261520Z 16008KT 10SM CLR 21/11 A3008 930 50 1900 160/08 RMK AO2
94908KDBQ DBQ20120626092509306/26/12 09:25:31  5-MIN KDBQ 261525Z 16008KT 10SM CLR 21/11 A3008 930 50 1900 160/08 RMK AO2
94908KDBQ DBQ20120626093009306/26/12 09:30:31  5-MIN KDBQ 261530Z 16009KT 10SM CLR 22/11 A3008 930 50 2000 160/09 RMK AO2
94908KDBQ DBQ20120626093509306/26/12 09:35:31  5-MIN KDBQ 261535Z 16009KT 10SM CLR 21/11 A3007 940 50 1900 160/09 RMK AO2
94908KDBQ DBQ20120626094009306/26/12 09:40:31  5-MIN KDBQ 261540Z 15008KT 10SM CLR 22/11 A3008 940 50 2000 150/08 RMK AO2
94908KDBQ DBQ20120626094509306/26/12 09:45:31  5-MIN KDBQ 261545Z 17010KT 10SM CLR 22/11 A3007 940 49 2000 170/10 RMK AO2
94908KDBQ DBQ20120626095011006/26/12 09:50:31  5-MIN KDBQ 261550Z 17008KT 10SM CLR 22/10 A3007 940 47 2000 160/08 RMK AO2 SLP179 T02170100
94908KDBQ DBQ20120626095509306/26/12 09:55:31  5-MIN KDBQ 261555Z 17008KT 10SM CLR 22/11 A3007 940 49 2000 170/08 RMK AO2
94908KDBQ DBQ20120626100009306/26/12 10:00:31  5-MIN KDBQ 261600Z 18009KT 10SM CLR 22/11 A3007 940 47 2000 180/09 RMK AO2
94908KDBQ DBQ20120626100509306/26/12 10:05:31  5-MIN KDBQ 261605Z 17009KT 10SM CLR 22/11 A3007 940 49 2000 170/09 RMK AO2
94908KDBQ DBQ20120626101009306/26/12 10:10:31  5-MIN KDBQ 261610Z 18008KT 10SM CLR 22/10 A3007 940 45 2000 180/08 RMK AO2
94908KDBQ DBQ20120626101510906/26/12 10:15:31  5-MIN KDBQ 261615Z 18009KT 150V210 10SM CLR 23/10 A3007 940 44 2100 180/09 150V210 RMK AO2
94908KDBQ DBQ20120626102009306/26/12 10:20:31  5-MIN KDBQ 261620Z 18007KT 10SM CLR 23/11 A3007 940 45 2100 180/07 RMK AO2
94908KDBQ DBQ20120626102509306/26/12 10:25:31  5-MIN KDBQ 261625Z 17009KT 10SM CLR 23/10 A3007 940 44 2100 170/09 RMK AO2
94908KDBQ DBQ20120626103009306/26/12 10:30:31  5-MIN KDBQ 261630Z 19009KT 10SM CLR 23/11 A3007 940 45 2100 180/09 RMK AO2
94908KDBQ DBQ20120626103509306/26/12 10:35:31  5-MIN KDBQ 261635Z 16009KT 10SM CLR 23/11 A3007 940 45 2100 160/09 RMK AO2
94908KDBQ DBQ20120626104009306/26/12 10:40:31  5-MIN KDBQ 261640Z 16007KT 10SM CLR 23/11 A3007 940 45 2200 160/07 RMK AO2
94908KDBQ DBQ20120626104509906/26/12 10:45:31  5-MIN KDBQ 261645Z 15009G15KT 10SM CLR 23/11 A3007 940 45 2200 150/09G15 RMK AO2
94908KDBQ DBQ20120626105011606/26/12 10:50:31  5-MIN KDBQ 261650Z 17007G15KT 10SM CLR 23/11 A3007 940 44 2200 160/07G15 RMK AO2 SLP178 T02330106
94908KDBQ DBQ20120626105509306/26/12 10:55:31  5-MIN KDBQ 261655Z 20006KT 10SM CLR 23/11 A3007 940 44 2200 200/06 RMK AO2
94908KDBQ DBQ20120626110009306/26/12 11:00:31  5-MIN KDBQ 261700Z VRB04KT 10SM CLR 24/11 A3007 940 44 2200 VRB/04 RMK AO2
94908KDBQ DBQ20120626110509306/26/12 11:05:31  5-MIN KDBQ 261705Z 17008KT 10SM CLR 24/11 A3006 950 42 2200 170/08 RMK AO2
94908KDBQ DBQ20120626111009906/26/12 11:10:31  5-MIN KDBQ 261710Z 16010G14KT 10SM CLR 23/09 A3006 950 41 2200 160/10G14 RMK AO2
94908KDBQ DBQ20120626111509906/26/12 11:15:31  5-MIN KDBQ 261715Z 15008G14KT 10SM CLR 24/10 A3006 950 41 2200 150/08G14 RMK AO2
94908KDBQ DBQ20120626112009306/26/12 11:20:31  5-MIN KDBQ 261720Z 16008KT 10SM CLR 24/10 A3006 950 41 2200 160/08 RMK AO2
94908KDBQ DBQ20120626112509906/26/12 11:25:31  5-MIN KDBQ 261725Z 15011G15KT 10SM CLR 24/10 A3006 950 39 2300 150/11G15 RMK AO2
94908KDBQ DBQ20120626113009906/26/12 11:30:31  5-MIN KDBQ 261730Z 15005G15KT 10SM CLR 24/09 A3005 950 39 2200 150/05G15 RMK AO2
94908KDBQ DBQ20120626113509306/26/12 11:35:31  5-MIN KDBQ 261735Z 17009KT 10SM CLR 24/10 A3005 960 41 2200 170/09 RMK AO2
94908KDBQ DBQ20120626114009306/26/12 11:40:31  5-MIN KDBQ 261740Z 16011KT 10SM CLR 24/10 A3005 960 39 2300 160/11 RMK AO2
94908KDBQ DBQ20120626114509306/26/12 11:45:31  5-MIN KDBQ 261745Z 16006KT 10SM CLR 24/09 A3004 960 38 2300 160/06 RMK AO2
94908KDBQ DBQ20120626115012806/26/12 11:50:31  5-MIN KDBQ 261750Z 13008KT 10SM CLR 24/10 A3004 970 39 2300 130/08 RMK AO2 SLP168 T02440100 10244 20139 58001
94908KDBQ DBQ20120626115509806/26/12 11:55:31  5-MIN KDBQ 261755Z 15011G15KT 9SM CLR 25/10 A3004 970 38 2400 150/11G15 RMK AO2
94908KDBQ DBQ20120626120009806/26/12 12:00:31  5-MIN KDBQ 261800Z 15008G15KT 9SM CLR 24/09 A3003 970 36 2300 150/08G15 RMK AO2
94908KDBQ DBQ20120626120509306/26/12 12:05:31  5-MIN KDBQ 261805Z 13011KT 10SM CLR 25/10 A3003 980 38 2400 130/11 RMK AO2
94908KDBQ DBQ20120626121009306/26/12 12:10:31  5-MIN KDBQ 261810Z 16013KT 10SM CLR 24/09 A3003 980 38 2300 160/13 RMK AO2
94908KDBQ DBQ20120626121509306/26/12 12:15:31  5-MIN KDBQ 261815Z 15010KT 10SM CLR 25/09 A3002 980 37 2400 150/10 RMK AO2
94908KDBQ DBQ20120626122009306/26/12 12:20:31  5-MIN KDBQ 261820Z 13007KT 10SM CLR 25/10 A3002 980 38 2400 130/07 RMK AO2
94908KDBQ DBQ20120626122509906/26/12 12:25:31  5-MIN KDBQ 261825Z 16011G17KT 10SM CLR 25/09 A3002 980 37 2400 160/11G17 RMK AO2
94908KDBQ DBQ20120626123009906/26/12 12:30:31  5-MIN KDBQ 261830Z 14009G17KT 10SM CLR 26/09 A3002 990 35 2500 140/09G17 RMK AO2
94908KDBQ DBQ20120626123509306/26/12 12:35:31  5-MIN KDBQ 261835Z 14009KT 10SM CLR 25/09 A3001 990 37 2400 140/09 RMK AO2
94908KDBQ DBQ20120626124009306/26/12 12:40:31  5-MIN KDBQ 261840Z 16010KT 10SM CLR 26/10 A3001 990 37 2500 160/10 RMK AO2
94908KDBQ DBQ20120626124509406/26/12 12:45:31  5-MIN KDBQ 261845Z 15008KT 10SM CLR 26/09 A3001 1000 35 2500 150/08 RMK AO2
94908KDBQ DBQ20120626125011706/26/12 12:50:31  5-MIN KDBQ 261850Z 17011G16KT 10SM CLR 26/10 A3000 1000 36 2500 170/11G16 RMK AO2 SLP157 T02610100
94908KDBQ DBQ20120626125509406/26/12 12:55:31  5-MIN KDBQ 261855Z 16011KT 10SM CLR 26/10 A3000 1000 37 2500 160/11 RMK AO2
94908KDBQ DBQ20120626130010006/26/12 13:00:31  5-MIN KDBQ 261900Z 16007G16KT 10SM CLR 26/10 A3000 1010 36 2600 160/07G16 RMK AO2
94908KDBQ DBQ20120626130510006/26/12 13:05:31  5-MIN KDBQ 261905Z 15009G16KT 10SM CLR 26/11 A3000 1010 37 2600 150/09G16 RMK AO2
94908KDBQ DBQ20120626131010006/26/12 13:10:31  5-MIN KDBQ 261910Z 14008G15KT 10SM CLR 26/09 A3000 1010 35 2500 140/08G15 RMK AO2
94908KDBQ DBQ20120626131509406/26/12 13:15:31  5-MIN KDBQ 261915Z 15011KT 10SM CLR 26/11 A3000 1010 37 2600 150/11 RMK AO2
94908KDBQ DBQ20120626132009406/26/12 13:20:31  5-MIN KDBQ 261920Z 15010KT 10SM CLR 26/10 A2999 1010 36 2600 150/10 RMK AO2
94908KDBQ DBQ20120626132509406/26/12 13:25:31  5-MIN KDBQ 261925Z 16010KT 10SM CLR 26/11 A2999 1020 37 2600 160/10 RMK AO2
94908KDBQ DBQ20120626133009406/26/12 13:30:31  5-MIN KDBQ 261930Z 14012KT 10SM CLR 26/09 A2999 1020 35 2500 140/12 RMK AO2
94908KDBQ DBQ20120626133510006/26/12 13:35:31  5-MIN KDBQ 261935Z 15010G16KT 10SM CLR 26/10 A2998 1020 36 2600 150/10G16 RMK AO2
94908KDBQ DBQ20120626134009406/26/12 13:40:31  5-MIN KDBQ 261940Z 15014KT 10SM CLR 26/10 A2998 1020 36 2600 150/14 RMK AO2
94908KDBQ DBQ20120626134509406/26/12 13:45:31  5-MIN KDBQ 261945Z 14011KT 10SM CLR 26/11 A2998 1020 37 2600 140/11 RMK AO2
94908KDBQ DBQ20120626135012706/26/12 13:50:31  5-MIN KDBQ 261950Z 16010KT 130V200 10SM CLR 26/11 A2998 1020 38 2600 160/10 130V200 RMK AO2 SLP148 T02610111
94908KDBQ DBQ20120626135509406/26/12 13:55:31  5-MIN KDBQ 261955Z 16010KT 10SM CLR 26/10 A2998 1020 36 2600 160/10 RMK AO2
94908KDBQ DBQ20120626140010006/26/12 14:00:31  5-MIN KDBQ 262000Z 15011G17KT 10SM CLR 26/11 A2998 1020 37 2600 150/11G17 RMK AO2
94908KDBQ DBQ20120626140510006/26/12 14:05:31  5-MIN KDBQ 262005Z 15013G18KT 10SM CLR 27/11 A2998 1020 36 2600 150/13G18 RMK AO2
94908KDBQ DBQ20120626141009906/26/12 14:10:31  5-MIN KDBQ 262010Z 17010G18KT 9SM CLR 27/11 A2998 1030 36 2600 170/10G18 RMK AO2
94908KDBQ DBQ20120626141509306/26/12 14:15:31  5-MIN KDBQ 262015Z 15010KT 9SM CLR 26/11 A2998 1030 37 2600 150/10 RMK AO2
94908KDBQ DBQ20120626142010006/26/12 14:20:31  5-MIN KDBQ 262020Z 15011G17KT 10SM CLR 27/11 A2998 1030 36 2600 150/11G17 RMK AO2
94908KDBQ DBQ20120626142510006/26/12 14:25:31  5-MIN KDBQ 262025Z 16010G17KT 10SM CLR 27/10 A2997 1030 34 2600 160/10G17 RMK AO2
94908KDBQ DBQ20120626143010006/26/12 14:30:31  5-MIN KDBQ 262030Z 16009G16KT 10SM CLR 27/10 A2997 1030 34 2600 160/09G16 RMK AO2
94908KDBQ DBQ20120626143509406/26/12 14:35:31  5-MIN KDBQ 262035Z 16010KT 10SM CLR 27/10 A2997 1030 34 2600 160/10 RMK AO2
94908KDBQ DBQ20120626144009406/26/12 14:40:31  5-MIN KDBQ 262040Z 18012KT 10SM CLR 27/10 A2997 1030 34 2700 180/12 RMK AO2
94908KDBQ DBQ20120626144509406/26/12 14:45:31  5-MIN KDBQ 262045Z 17012KT 10SM CLR 27/10 A2997 1040 34 2700 170/12 RMK AO2
94908KDBQ DBQ20120626145011706/26/12 14:50:31  5-MIN KDBQ 262050Z 17010KT 10SM CLR 27/11 A2997 1040 36 2700 170/10 RMK AO2 SLP144 T02670106 58016
94908KDBQ DBQ20120626145509406/26/12 14:55:31  5-MIN KDBQ 262055Z 16008KT 10SM CLR 27/10 A2997 1040 34 2700 160/08 RMK AO2
94908KDBQ DBQ20120626150009406/26/12 15:00:31  5-MIN KDBQ 262100Z 17012KT 10SM CLR 27/11 A2996 1040 34 2700 170/12 RMK AO2
94908KDBQ DBQ20120626150509406/26/12 15:05:31  5-MIN KDBQ 262105Z 16010KT 10SM CLR 27/10 A2996 1040 34 2700 160/10 RMK AO2
94908KDBQ DBQ20120626151010006/26/12 15:10:31  5-MIN KDBQ 262110Z 15010G17KT 10SM CLR 27/11 A2996 1040 36 2700 150/10G17 RMK AO2
94908KDBQ DBQ20120626151510006/26/12 15:15:31  5-MIN KDBQ 262115Z 17010G17KT 10SM CLR 27/11 A2996 1040 36 2700 170/10G17 RMK AO2
94908KDBQ DBQ20120626152009406/26/12 15:20:31  5-MIN KDBQ 262120Z 17010KT 10SM CLR 27/11 A2995 1050 36 2700 170/10 RMK AO2
94908KDBQ DBQ20120626152509406/26/12 15:25:31  5-MIN KDBQ 262125Z 16009KT 10SM CLR 27/11 A2996 1050 36 2700 160/09 RMK AO2
94908KDBQ DBQ20120626153010006/26/12 15:30:31  5-MIN KDBQ 262130Z 16014G17KT 10SM CLR 27/11 A2995 1050 36 2700 160/14G17 RMK AO2
94908KDBQ DBQ20120626153510006/26/12 15:35:31  5-MIN KDBQ 262135Z 18010G17KT 10SM CLR 27/11 A2995 1050 37 2700 180/10G17 RMK AO2
94908KDBQ DBQ20120626154009406/26/12 15:40:31  5-MIN KDBQ 262140Z 17012KT 10SM CLR 27/11 A2995 1050 36 2700 170/12 RMK AO2
94908KDBQ DBQ20120626154509406/26/12 15:45:31  5-MIN KDBQ 262145Z 17011KT 10SM CLR 27/11 A2996 1040 34 2700 170/11 RMK AO2
94908KDBQ DBQ20120626155011106/26/12 15:50:31  5-MIN KDBQ 262150Z 18009KT 10SM CLR 27/11 A2996 1050 36 2700 180/09 RMK AO2 SLP141 T02670106
94908KDBQ DBQ20120626155510006/26/12 15:55:31  5-MIN KDBQ 262155Z 18009G17KT 10SM CLR 27/10 A2995 1050 34 2700 180/09G17 RMK AO2
94908KDBQ DBQ20120626160009406/26/12 16:00:31  5-MIN KDBQ 262200Z 19012KT 10SM CLR 27/11 A2995 1050 36 2700 190/12 RMK AO2
94908KDBQ DBQ20120626160509406/26/12 16:05:31  5-MIN KDBQ 262205Z 17011KT 10SM CLR 27/11 A2995 1050 36 2700 170/11 RMK AO2
94908KDBQ DBQ20120626161009406/26/12 16:10:31  5-MIN KDBQ 262210Z 19009KT 10SM CLR 27/10 A2995 1050 34 2700 180/09 RMK AO2
94908KDBQ DBQ20120626161509406/26/12 16:15:31  5-MIN KDBQ 262215Z 19012KT 10SM CLR 27/09 A2995 1050 32 2700 190/12 RMK AO2
94908KDBQ DBQ20120626162009406/26/12 16:20:31  5-MIN KDBQ 262220Z 19010KT 10SM CLR 27/09 A2995 1050 33 2700 190/10 RMK AO2
94908KDBQ DBQ20120626162509406/26/12 16:25:31  5-MIN KDBQ 262225Z 18009KT 10SM CLR 27/09 A2994 1060 33 2700 180/09 RMK AO2
94908KDBQ DBQ20120626163009406/26/12 16:30:31  5-MIN KDBQ 262230Z 17010KT 10SM CLR 27/11 A2994 1060 36 2700 170/10 RMK AO2
94908KDBQ DBQ20120626163509406/26/12 16:35:31  5-MIN KDBQ 262235Z 17011KT 10SM CLR 27/11 A2994 1060 36 2700 170/11 RMK AO2
94908KDBQ DBQ20120626164009406/26/12 16:40:31  5-MIN KDBQ 262240Z 19011KT 10SM CLR 27/10 A2994 1060 34 2700 190/11 RMK AO2
94908KDBQ DBQ20120626164509406/26/12 16:45:31  5-MIN KDBQ 262245Z 17010KT 10SM CLR 27/11 A2994 1060 36 2700 170/10 RMK AO2
94908KDBQ DBQ20120626165011106/26/12 16:50:31  5-MIN KDBQ 262250Z 18010KT 10SM CLR 27/11 A2993 1070 36 2700 180/10 RMK AO2 SLP134 T02670106
94908KDBQ DBQ20120626165509406/26/12 16:55:31  5-MIN KDBQ 262255Z 17012KT 10SM CLR 27/11 A2993 1070 36 2700 170/12 RMK AO2
94908KDBQ DBQ20120626170009406/26/12 17:00:31  5-MIN KDBQ 262300Z 17011KT 10SM CLR 26/10 A2993 1070 36 2600 170/11 RMK AO2
94908KDBQ DBQ20120626170509406/26/12 17:05:31  5-MIN KDBQ 262305Z 17010KT 10SM CLR 26/11 A2993 1070 37 2600 170/10 RMK AO2
94908KDBQ DBQ20120626171009406/26/12 17:10:31  5-MIN KDBQ 262310Z 17011KT 10SM CLR 26/11 A2993 1070 37 2600 170/11 RMK AO2
94908KDBQ DBQ20120626171509406/26/12 17:15:31  5-MIN KDBQ 262315Z 17010KT 10SM CLR 26/11 A2993 1070 38 2600 170/10 RMK AO2
94908KDBQ DBQ20120626172009406/26/12 17:20:31  5-MIN KDBQ 262320Z 17011KT 10SM CLR 26/11 A2993 1070 38 2600 170/11 RMK AO2
94908KDBQ DBQ20120626172509406/26/12 17:25:31  5-MIN KDBQ 262325Z 17007KT 10SM CLR 25/11 A2993 1070 39 2500 170/07 RMK AO2
94908KDBQ DBQ20120626173009406/26/12 17:30:31  5-MIN KDBQ 262330Z 17006KT 10SM CLR 25/11 A2993 1070 41 2500 170/06 RMK AO2
94908KDBQ DBQ20120626173509406/26/12 17:35:31  5-MIN KDBQ 262335Z 16008KT 10SM CLR 26/12 A2993 1070 41 2600 160/08 RMK AO2
94908KDBQ DBQ20120626174009406/26/12 17:40:31  5-MIN KDBQ 262340Z 17007KT 10SM CLR 26/12 A2993 1070 41 2600 160/07 RMK AO2
94908KDBQ DBQ20120626174509406/26/12 17:45:31  5-MIN KDBQ 262345Z 17007KT 10SM CLR 26/12 A2993 1070 41 2600 170/07 RMK AO2
94908KDBQ DBQ20120626175012906/26/12 17:50:31  5-MIN KDBQ 262350Z 17007KT 10SM CLR 26/12 A2993 1070 41 2600 170/07 RMK AO2 SLP133 T02560117 10272 20244 56024
94908KDBQ DBQ20120626175509406/26/12 17:55:31  5-MIN KDBQ 262355Z 17008KT 10SM CLR 26/12 A2993 1070 41 2600 170/08 RMK AO2
94908KDBQ DBQ20120626180009406/26/12 18:00:31  5-MIN KDBQ 270000Z 17008KT 10SM CLR 25/12 A2993 1070 43 2500 170/08 RMK AO2
94908KDBQ DBQ20120626180509406/26/12 18:05:31  5-MIN KDBQ 270005Z 17007KT 10SM CLR 25/12 A2993 1070 43 2500 170/07 RMK AO2
94908KDBQ DBQ20120626181009406/26/12 18:10:31  5-MIN KDBQ 270010Z 17009KT 10SM CLR 25/12 A2993 1070 43 2500 170/09 RMK AO2
94908KDBQ DBQ20120626181509406/26/12 18:15:31  5-MIN KDBQ 270015Z 17009KT 10SM CLR 25/12 A2993 1070 43 2500 170/09 RMK AO2
94908KDBQ DBQ20120626182009406/26/12 18:20:31  5-MIN KDBQ 270020Z 17008KT 10SM CLR 24/12 A2993 1070 44 2400 170/08 RMK AO2
94908KDBQ DBQ20120626182509406/26/12 18:25:31  5-MIN KDBQ 270025Z 17008KT 10SM CLR 24/12 A2993 1070 44 2400 170/08 RMK AO2
94908KDBQ DBQ20120626183009406/26/12 18:30:31  5-MIN KDBQ 270030Z 17008KT 10SM CLR 24/12 A2992 1080 44 2500 170/08 RMK AO2
94908KDBQ DBQ20120626183509406/26/12 18:35:31  5-MIN KDBQ 270035Z 17007KT 10SM CLR 24/12 A2992 1080 44 2500 170/07 RMK AO2
94908KDBQ DBQ20120626184009406/26/12 18:40:31  5-MIN KDBQ 270040Z 17007KT 10SM CLR 24/12 A2992 1080 46 2400 170/07 RMK AO2
94908KDBQ DBQ20120626184509406/26/12 18:45:31  5-MIN KDBQ 270045Z 17007KT 10SM CLR 24/12 A2992 1080 47 2400 170/07 RMK AO2
94908KDBQ DBQ20120626185011106/26/12 18:50:31  5-MIN KDBQ 270050Z 17007KT 10SM CLR 23/12 A2992 1080 49 2300 170/07 RMK AO2 SLP129 T02330122
94908KDBQ DBQ20120626185509406/26/12 18:55:31  5-MIN KDBQ 270055Z 17006KT 10SM CLR 23/12 A2992 1080 49 2300 170/06 RMK AO2
94908KDBQ DBQ20120626190009906/26/12 19:00:31  5-MIN KDBQ 270100Z AUTO 17006KT 10SM CLR 23/12 A2992 1080 51 2300 170/06 RMK AO2
94908KDBQ DBQ20120626190509906/26/12 19:05:31  5-MIN KDBQ 270105Z AUTO 16006KT 10SM CLR 23/12 A2992 1080 51 2300 160/06 RMK AO2
94908KDBQ DBQ20120626191009906/26/12 19:10:31  5-MIN KDBQ 270110Z AUTO 16006KT 10SM CLR 22/12 A2992 1080 52 2200 160/06 RMK AO2
94908KDBQ DBQ20120626191509906/26/12 19:15:31  5-MIN KDBQ 270115Z AUTO 16006KT 10SM CLR 22/12 A2992 1080 52 2200 160/06 RMK AO2
94908KDBQ DBQ20120626192009906/26/12 19:20:31  5-MIN KDBQ 270120Z AUTO 16006KT 10SM CLR 22/12 A2992 1080 54 2100 150/06 RMK AO2
94908KDBQ DBQ20120626192509906/26/12 19:25:31  5-MIN KDBQ 270125Z AUTO 16006KT 10SM CLR 21/12 A2992 1080 56 2100 160/06 RMK AO2
94908KDBQ DBQ20120626193009906/26/12 19:30:31  5-MIN KDBQ 270130Z AUTO 15006KT 10SM CLR 21/12 A2992 1080 56 2100 150/06 RMK AO2
94908KDBQ DBQ20120626193509906/26/12 19:35:31  5-MIN KDBQ 270135Z AUTO 15007KT 10SM CLR 21/12 A2992 1080 56 2100 150/07 RMK AO2
94908KDBQ DBQ20120626194009906/26/12 19:40:31  5-MIN KDBQ 270140Z AUTO 15007KT 10SM CLR 22/12 A2992 1080 54 2100 150/07 RMK AO2
94908KDBQ DBQ20120626194509906/26/12 19:45:31  5-MIN KDBQ 270145Z AUTO 15008KT 10SM CLR 21/12 A2992 1080 56 2100 150/08 RMK AO2
94908KDBQ DBQ20120626195011606/26/12 19:50:31  5-MIN KDBQ 270150Z AUTO 16007KT 10SM CLR 21/12 A2992 1080 56 2100 160/07 RMK AO2 SLP127 T02110122
94908KDBQ DBQ20120626195509906/26/12 19:55:31  5-MIN KDBQ 270155Z AUTO 16007KT 10SM CLR 21/12 A2992 1080 56 2100 160/07 RMK AO2
94908KDBQ DBQ20120626200009906/26/12 20:00:31  5-MIN KDBQ 270200Z AUTO 17006KT 10SM CLR 21/12 A2991 1090 58 2000 170/06 RMK AO2
94908KDBQ DBQ20120626200509906/26/12 20:05:31  5-MIN KDBQ 270205Z AUTO 17007KT 10SM CLR 20/12 A2991 1090 60 2000 170/07 RMK AO2
94908KDBQ DBQ20120626201009906/26/12 20:10:31  5-MIN KDBQ 270210Z AUTO 16007KT 10SM CLR 21/12 A2991 1090 58 2000 160/07 RMK AO2
94908KDBQ DBQ20120626201509906/26/12 20:15:31  5-MIN KDBQ 270215Z AUTO 16008KT 10SM CLR 21/12 A2991 1090 58 2000 160/08 RMK AO2
94908KDBQ DBQ20120626202009906/26/12 20:20:31  5-MIN KDBQ 270220Z AUTO 16007KT 10SM CLR 21/12 A2991 1090 56 2000 160/07 RMK AO2
94908KDBQ DBQ20120626202509906/26/12 20:25:31  5-MIN KDBQ 270225Z AUTO 17008KT 10SM CLR 21/12 A2991 1090 56 2000 170/08 RMK AO2
94908KDBQ DBQ20120626203009906/26/12 20:30:31  5-MIN KDBQ 270230Z AUTO 17007KT 10SM CLR 20/12 A2991 1090 58 2000 170/07 RMK AO2
94908KDBQ DBQ20120626203509906/26/12 20:35:31  5-MIN KDBQ 270235Z AUTO 17008KT 10SM CLR 20/12 A2991 1090 58 2000 170/08 RMK AO2
94908KDBQ DBQ20120626204009906/26/12 20:40:31  5-MIN KDBQ 270240Z AUTO 17008KT 10SM CLR 20/12 A2992 1080 58 2000 170/08 RMK AO2
94908KDBQ DBQ20120626204509906/26/12 20:45:31  5-MIN KDBQ 270245Z AUTO 17009KT 10SM CLR 20/12 A2992 1080 58 2000 160/09 RMK AO2
94908KDBQ DBQ20120626205012206/26/12 20:50:31  5-MIN KDBQ 270250Z AUTO 17008KT 10SM CLR 20/12 A2992 1080 58 2000 160/08 RMK AO2 SLP127 T02000117 56010
94908KDBQ DBQ20120626205509906/26/12 20:55:31  5-MIN KDBQ 270255Z AUTO 17009KT 10SM CLR 20/12 A2992 1080 58 2000 170/09 RMK AO2
94908KDBQ DBQ20120626210009906/26/12 21:00:31  5-MIN KDBQ 270300Z AUTO 17009KT 10SM CLR 19/12 A2992 1080 60 1900 170/09 RMK AO2
94908KDBQ DBQ20120626210509906/26/12 21:05:31  5-MIN KDBQ 270305Z AUTO 17009KT 10SM CLR 19/12 A2992 1080 60 1900 170/09 RMK AO2
94908KDBQ DBQ20120626211009906/26/12 21:10:31  5-MIN KDBQ 270310Z AUTO 17009KT 10SM CLR 19/12 A2992 1080 60 1900 170/09 RMK AO2
94908KDBQ DBQ20120626211509906/26/12 21:15:31  5-MIN KDBQ 270315Z AUTO 17009KT 10SM CLR 19/12 A2992 1080 60 1900 170/09 RMK AO2
94908KDBQ DBQ20120626212009906/26/12 21:20:31  5-MIN KDBQ 270320Z AUTO 17009KT 10SM CLR 19/12 A2992 1080 62 1800 170/09 RMK AO2
94908KDBQ DBQ20120626212509906/26/12 21:25:31  5-MIN KDBQ 270325Z AUTO 17009KT 10SM CLR 19/12 A2992 1080 62 1800 170/09 RMK AO2
94908KDBQ DBQ20120626213009906/26/12 21:30:31  5-MIN KDBQ 270330Z AUTO 17009KT 10SM CLR 19/12 A2991 1080 62 1800 170/09 RMK AO2
94908KDBQ DBQ20120626213509906/26/12 21:35:31  5-MIN KDBQ 270335Z AUTO 17009KT 10SM CLR 18/12 A2991 1080 65 1800 170/09 RMK AO2
94908KDBQ DBQ20120626214009906/26/12 21:40:31  5-MIN KDBQ 270340Z AUTO 17009KT 10SM CLR 19/12 A2992 1080 62 1800 170/09 RMK AO2
94908KDBQ DBQ20120626214509906/26/12 21:45:31  5-MIN KDBQ 270345Z AUTO 17009KT 10SM CLR 18/12 A2992 1080 65 1800 170/09 RMK AO2
94908KDBQ DBQ20120626215011606/26/12 21:50:31  5-MIN KDBQ 270350Z AUTO 17008KT 10SM CLR 18/12 A2992 1080 65 1800 170/08 RMK AO2 SLP127 T01830117
94908KDBQ DBQ20120626215509906/26/12 21:55:31  5-MIN KDBQ 270355Z AUTO 16009KT 10SM CLR 18/12 A2992 1080 65 1800 160/09 RMK AO2
94908KDBQ DBQ20120626220009906/26/12 22:00:31  5-MIN KDBQ 270400Z AUTO 17008KT 10SM CLR 18/12 A2992 1080 65 1800 160/08 RMK AO2
94908KDBQ DBQ20120626220509906/26/12 22:05:31  5-MIN KDBQ 270405Z AUTO 17008KT 10SM CLR 18/12 A2992 1080 65 1800 170/08 RMK AO2
94908KDBQ DBQ20120626221009906/26/12 22:10:31  5-MIN KDBQ 270410Z AUTO 17008KT 10SM CLR 18/12 A2992 1080 67 1700 170/08 RMK AO2
94908KDBQ DBQ20120626221509906/26/12 22:15:31  5-MIN KDBQ 270415Z AUTO 16008KT 10SM CLR 18/12 A2992 1080 65 1800 160/08 RMK AO2
94908KDBQ DBQ20120626222009906/26/12 22:20:31  5-MIN KDBQ 270420Z AUTO 16008KT 10SM CLR 18/12 A2992 1080 65 1800 160/08 RMK AO2
94908KDBQ DBQ20120626222509906/26/12 22:25:31  5-MIN KDBQ 270425Z AUTO 17008KT 10SM CLR 18/12 A2992 1080 67 1700 160/08 RMK AO2
94908KDBQ DBQ20120626223009906/26/12 22:30:31  5-MIN KDBQ 270430Z AUTO 16008KT 10SM CLR 18/12 A2992 1080 67 1700 160/08 RMK AO2
94908KDBQ DBQ20120626223509906/26/12 22:35:31  5-MIN KDBQ 270435Z AUTO 16008KT 10SM CLR 18/12 A2992 1070 67 1700 160/08 RMK AO2
94908KDBQ DBQ20120626224009906/26/12 22:40:31  5-MIN KDBQ 270440Z AUTO 16008KT 10SM CLR 18/12 A2992 1070 67 1700 160/08 RMK AO2
94908KDBQ DBQ20120626224509906/26/12 22:45:31  5-MIN KDBQ 270445Z AUTO 16009KT 10SM CLR 18/12 A2992 1080 67 1700 160/09 RMK AO2
94908KDBQ DBQ20120626225011606/26/12 22:50:31  5-MIN KDBQ 270450Z AUTO 17009KT 10SM CLR 18/12 A2992 1080 67 1700 170/09 RMK AO2 SLP127 T01780117
94908KDBQ DBQ20120626225509906/26/12 22:55:31  5-MIN KDBQ 270455Z AUTO 16009KT 10SM CLR 18/12 A2992 1080 67 1700 160/09 RMK AO2
94908KDBQ DBQ20120626230009906/26/12 23:00:31  5-MIN KDBQ 270500Z AUTO 17009KT 10SM CLR 18/12 A2992 1080 67 1700 160/09 RMK AO2
94908KDBQ DBQ20120626230509906/26/12 23:05:31  5-MIN KDBQ 270505Z AUTO 17009KT 10SM CLR 18/12 A2992 1080 67 1700 160/09 RMK AO2
94908KDBQ DBQ20120626231009906/26/12 23:10:31  5-MIN KDBQ 270510Z AUTO 16009KT 10SM CLR 18/12 A2992 1080 67 1700 160/09 RMK AO2
94908KDBQ DBQ20120626231509906/26/12 23:15:31  5-MIN KDBQ 270515Z AUTO 16010KT 10SM CLR 18/12 A2991 1090 69 1700 160/10 RMK AO2
94908KDBQ DBQ20120626232009906/26/12 23:20:31  5-MIN KDBQ 270520Z AUTO 16010KT 10SM CLR 18/12 A2991 1090 69 1700 160/10 RMK AO2
94908KDBQ DBQ20120626232509906/26/12 23:25:31  5-MIN KDBQ 270525Z AUTO 16010KT 10SM CLR 18/12 A2991 1090 69 1700 160/10 RMK AO2
94908KDBQ DBQ20120626233009906/26/12 23:30:31  5-MIN KDBQ 270530Z AUTO 16010KT 10SM CLR 18/12 A2991 1090 69 1700 160/10 RMK AO2
94908KDBQ DBQ20120626233509906/26/12 23:35:31  5-MIN KDBQ 270535Z AUTO 16010KT 10SM CLR 18/12 A2991 1090 69 1700 160/10 RMK AO2
94908KDBQ DBQ20120626234009906/26/12 23:40:31  5-MIN KDBQ 270540Z AUTO 16010KT 10SM CLR 18/12 A2990 1090 67 1700 160/10 RMK AO2
94908KDBQ DBQ20120626234509906/26/12 23:45:31  5-MIN KDBQ 270545Z AUTO 16010KT 10SM CLR 18/12 A2990 1090 67 1700 160/10 RMK AO2
94908KDBQ DBQ20120626235014406/26/12 23:50:31  5-MIN KDBQ 270550Z AUTO 16010KT 10SM CLR 18/12 A2990 1090 67 1700 160/10 RMK AO2 SLP121 T01780117 10256 20178 402720094 56005
94908KDBQ DBQ20120626235509906/26/12 23:55:31  5-MIN KDBQ 270555Z AUTO 16010KT 10SM CLR 17/12 A2990 1090 69 1600 160/10 RMK AO2
94908KDBQ DBQ20120627000009906/27/12 00:00:38  5-MIN KDBQ 270600Z AUTO 16010KT 10SM CLR 17/12 A2990 1100 69 1700 160/10 RMK AO2
94908KDBQ DBQ20120627000509906/27/12 00:05:31  5-MIN KDBQ 270605Z AUTO 16010KT 10SM CLR 17/12 A2990 1100 69 1700 160/10 RMK AO2
94908KDBQ DBQ20120627001009906/27/12 00:10:31  5-MIN KDBQ 270610Z AUTO 16010KT 10SM CLR 17/12 A2990 1100 69 1700 160/10 RMK AO2
94908KDBQ DBQ20120627001509906/27/12 00:15:32  5-MIN KDBQ 270615Z AUTO 17010KT 10SM CLR 17/12 A2990 1100 69 1700 160/10 RMK AO2
94908KDBQ DBQ20120627002009906/27/12 00:20:31  5-MIN KDBQ 270620Z AUTO 17010KT 10SM CLR 17/12 A2990 1100 69 1700 160/10 RMK AO2
94908KDBQ DBQ20120627002509906/27/12 00:25:31  5-MIN KDBQ 270625Z AUTO 17009KT 10SM CLR 17/12 A2990 1100 72 1600 160/09 RMK AO2
94908KDBQ DBQ20120627003009906/27/12 00:30:31  5-MIN KDBQ 270630Z AUTO 17010KT 10SM CLR 17/12 A2990 1100 72 1600 170/10 RMK AO2
94908KDBQ DBQ20120627003509906/27/12 00:35:31  5-MIN KDBQ 270635Z AUTO 17010KT 10SM CLR 17/12 A2989 1100 72 1600 170/10 RMK AO2
94908KDBQ DBQ20120627004009906/27/12 00:40:31  5-MIN KDBQ 270640Z AUTO 17011KT 10SM CLR 17/12 A2989 1100 72 1600 170/11 RMK AO2
94908KDBQ DBQ20120627004509906/27/12 00:45:31  5-MIN KDBQ 270645Z AUTO 17010KT 10SM CLR 17/12 A2990 1100 72 1600 170/10 RMK AO2
94908KDBQ DBQ20120627005011606/27/12 00:50:31  5-MIN KDBQ 270650Z AUTO 17009KT 10SM CLR 17/12 A2990 1100 72 1600 170/09 RMK AO2 SLP118 T01670117
94908KDBQ DBQ20120627005509906/27/12 00:55:31  5-MIN KDBQ 270655Z AUTO 17009KT 10SM CLR 17/12 A2990 1100 72 1600 170/09 RMK AO2
94908KDBQ DBQ20120627010009906/27/12 01:00:31  5-MIN KDBQ 270700Z AUTO 17010KT 10SM CLR 17/12 A2989 1100 72 1600 170/10 RMK AO2
94908KDBQ DBQ20120627010509906/27/12 01:05:31  5-MIN KDBQ 270705Z AUTO 17010KT 10SM CLR 17/12 A2989 1110 72 1600 170/10 RMK AO2
94908KDBQ DBQ20120627011009906/27/12 01:10:31  5-MIN KDBQ 270710Z AUTO 17010KT 10SM CLR 17/12 A2989 1110 72 1600 170/10 RMK AO2
94908KDBQ DBQ20120627011509906/27/12 01:15:31  5-MIN KDBQ 270715Z AUTO 17010KT 10SM CLR 16/12 A2989 1110 75 1500 170/10 RMK AO2
94908KDBQ DBQ20120627012009906/27/12 01:20:31  5-MIN KDBQ 270720Z AUTO 17010KT 10SM CLR 16/12 A2989 1110 75 1500 170/10 RMK AO2
94908KDBQ DBQ20120627012509906/27/12 01:25:31  5-MIN KDBQ 270725Z AUTO 17010KT 10SM CLR 17/12 A2989 1110 72 1600 170/10 RMK AO2
94908KDBQ DBQ20120627013009906/27/12 01:30:31  5-MIN KDBQ 270730Z AUTO 17010KT 10SM CLR 16/12 A2989 1110 75 1500 170/10 RMK AO2
94908KDBQ DBQ20120627013509906/27/12 01:35:31  5-MIN KDBQ 270735Z AUTO 17010KT 10SM CLR 16/12 A2989 1110 75 1500 170/10 RMK AO2
94908KDBQ DBQ20120627014009906/27/12 01:40:31  5-MIN KDBQ 270740Z AUTO 17010KT 10SM CLR 16/12 A2988 1110 75 1500 170/10 RMK AO2
94908KDBQ DBQ20120627014509906/27/12 01:45:31  5-MIN KDBQ 270745Z AUTO 17009KT 10SM CLR 16/12 A2989 1110 75 1500 170/09 RMK AO2
94908KDBQ DBQ20120627015011606/27/12 01:50:31  5-MIN KDBQ 270750Z AUTO 17009KT 10SM CLR 16/12 A2989 1110 75 1500 170/09 RMK AO2 SLP116 T01610117
94908KDBQ DBQ20120627015509906/27/12 01:55:31  5-MIN KDBQ 270755Z AUTO 17009KT 10SM CLR 16/12 A2989 1110 75 1500 170/09 RMK AO2
94908KDBQ DBQ20120627020009906/27/12 02:00:31  5-MIN KDBQ 270800Z AUTO 17009KT 10SM CLR 16/12 A2988 1110 75 1500 170/09 RMK AO2
94908KDBQ DBQ20120627020509906/27/12 02:05:31  5-MIN KDBQ 270805Z AUTO 17010KT 10SM CLR 16/12 A2988 1110 75 1500 160/10 RMK AO2
94908KDBQ DBQ20120627021009906/27/12 02:10:31  5-MIN KDBQ 270810Z AUTO 17011KT 10SM CLR 16/12 A2988 1110 75 1500 170/11 RMK AO2
94908KDBQ DBQ20120627021509906/27/12 02:15:31  5-MIN KDBQ 270815Z AUTO 17011KT 10SM CLR 16/12 A2988 1120 75 1500 160/11 RMK AO2
94908KDBQ DBQ20120627022009906/27/12 02:20:31  5-MIN KDBQ 270820Z AUTO 17012KT 10SM CLR 17/12 A2988 1120 72 1600 170/12 RMK AO2
94908KDBQ DBQ20120627022509906/27/12 02:25:31  5-MIN KDBQ 270825Z AUTO 17011KT 10SM CLR 16/12 A2988 1120 75 1500 170/11 RMK AO2
94908KDBQ DBQ20120627023009906/27/12 02:30:31  5-MIN KDBQ 270830Z AUTO 17010KT 10SM CLR 16/11 A2988 1120 72 1500 170/10 RMK AO2
94908KDBQ DBQ20120627023509906/27/12 02:35:31  5-MIN KDBQ 270835Z AUTO 18010KT 10SM CLR 16/11 A2988 1120 72 1500 180/10 RMK AO2
94908KDBQ DBQ20120627024009906/27/12 02:40:31  5-MIN KDBQ 270840Z AUTO 18010KT 10SM CLR 16/11 A2987 1120 72 1600 180/10 RMK AO2
94908KDBQ DBQ20120627024509906/27/12 02:45:31  5-MIN KDBQ 270845Z AUTO 18010KT 10SM CLR 16/11 A2987 1120 74 1500 180/10 RMK AO2
94908KDBQ DBQ20120627025012206/27/12 02:50:31  5-MIN KDBQ 270850Z AUTO 18009KT 10SM CLR 16/11 A2987 1120 74 1500 180/09 RMK AO2 SLP111 T01560111 58004
94908KDBQ DBQ20120627025509906/27/12 02:55:31  5-MIN KDBQ 270855Z AUTO 18008KT 10SM CLR 16/11 A2987 1120 74 1500 180/08 RMK AO2
94908KDBQ DBQ20120627030009906/27/12 03:00:31  5-MIN KDBQ 270900Z AUTO 18008KT 10SM CLR 16/11 A2987 1120 74 1500 180/08 RMK AO2
94908KDBQ DBQ20120627030509906/27/12 03:05:31  5-MIN KDBQ 270905Z AUTO 18007KT 10SM CLR 16/11 A2988 1120 74 1500 180/07 RMK AO2
94908KDBQ DBQ20120627031009906/27/12 03:10:31  5-MIN KDBQ 270910Z AUTO 18007KT 10SM CLR 16/11 A2987 1120 74 1500 170/07 RMK AO2
94908KDBQ DBQ20120627031509906/27/12 03:15:31  5-MIN KDBQ 270915Z AUTO 18007KT 10SM CLR 16/11 A2988 1120 74 1500 170/07 RMK AO2
94908KDBQ DBQ20120627032009906/27/12 03:20:31  5-MIN KDBQ 270920Z AUTO 18008KT 10SM CLR 16/11 A2988 1120 74 1500 180/08 RMK AO2
94908KDBQ DBQ20120627032509906/27/12 03:25:31  5-MIN KDBQ 270925Z AUTO 17008KT 10SM CLR 16/11 A2988 1120 74 1500 170/08 RMK AO2
94908KDBQ DBQ20120627033009906/27/12 03:30:31  5-MIN KDBQ 270930Z AUTO 17009KT 10SM CLR 16/11 A2988 1120 74 1500 170/09 RMK AO2
94908KDBQ DBQ20120627033509906/27/12 03:35:31  5-MIN KDBQ 270935Z AUTO 17008KT 10SM CLR 16/11 A2988 1120 74 1500 170/08 RMK AO2
94908KDBQ DBQ20120627034009906/27/12 03:40:31  5-MIN KDBQ 270940Z AUTO 18008KT 10SM CLR 16/11 A2988 1120 74 1500 180/08 RMK AO2
94908KDBQ DBQ20120627034509906/27/12 03:45:31  5-MIN KDBQ 270945Z AUTO 18008KT 10SM CLR 16/11 A2988 1120 74 1500 180/08 RMK AO2
94908KDBQ DBQ20120627035011606/27/12 03:50:31  5-MIN KDBQ 270950Z AUTO 18008KT 10SM CLR 16/11 A2988 1120 74 1500 170/08 RMK AO2 SLP112 T01560111
94908KDBQ DBQ20120627035509906/27/12 03:55:31  5-MIN KDBQ 270955Z AUTO 17008KT 10SM CLR 16/11 A2988 1120 74 1500 170/08 RMK AO2
94908KDBQ DBQ20120627040009906/27/12 04:00:31  5-MIN KDBQ 271000Z AUTO 17009KT 10SM CLR 16/11 A2988 1120 74 1500 170/09 RMK AO2
94908KDBQ DBQ20120627040509906/27/12 04:05:31  5-MIN KDBQ 271005Z AUTO 17007KT 10SM CLR 16/11 A2988 1120 74 1500 170/07 RMK AO2
94908KDBQ DBQ20120627041009906/27/12 04:10:31  5-MIN KDBQ 271010Z AUTO 17007KT 10SM CLR 16/11 A2988 1110 74 1500 170/07 RMK AO2
94908KDBQ DBQ20120627041509906/27/12 04:15:31  5-MIN KDBQ 271015Z AUTO 17007KT 10SM CLR 16/11 A2988 1110 74 1500 170/07 RMK AO2
94908KDBQ DBQ20120627042008906/27/12 04:20:31  5-MIN KDBQ 271020Z AUTO 10SM CLR 16/11 A2988 1110 74 1500 M /M RMK AO2
94908KDBQ DBQ20120627042512506/27/12 04:25:31  5-MIN KDBQ 271025Z AUTO 17008G29KT 10SM CLR 16/11 A2988 1110 74 1500 170/08G29 RMK AO2 PK WND 32026/1022 $
94908KDBQ DBQ20120627043012506/27/12 04:30:31  5-MIN KDBQ 271030Z AUTO 17008G26KT 10SM CLR 16/11 A2988 1110 74 1500 170/08G26 RMK AO2 PK WND 32026/1022 $
94908KDBQ DBQ20120627043511906/27/12 04:35:31  5-MIN KDBQ 271035Z AUTO 17007KT 10SM CLR 16/11 A2988 1110 74 1500 170/07 RMK AO2 PK WND 32026/1022 $
94908KDBQ DBQ20120627044011906/27/12 04:40:31  5-MIN KDBQ 271040Z AUTO 17008KT 10SM CLR 16/11 A2989 1110 74 1500 170/08 RMK AO2 PK WND 32026/1022 $
94908KDBQ DBQ20120627044511906/27/12 04:45:31  5-MIN KDBQ 271045Z AUTO 18008KT 10SM CLR 16/11 A2989 1110 74 1500 180/08 RMK AO2 PK WND 32026/1022 $
94908KDBQ DBQ20120627045013106/27/12 04:50:31  5-MIN KDBQ 271050Z 18008KT 10SM CLR 16/11 A2989 1110 74 1500 180/08 RMK AO2 PK WND 32026/1022 SLP117 T01560111 $
94908KDBQ DBQ20120627045509606/27/12 04:55:31  5-MIN KDBQ 271055Z 18008KT 10SM CLR 16/11 A2989 1100 74 1500 180/08 RMK AO2 $
94908KDBQ DBQ20120627050009606/27/12 05:00:31  5-MIN KDBQ 271100Z 18008KT 10SM CLR 16/11 A2989 1100 74 1500 180/08 RMK AO2 $
94908KDBQ DBQ20120627050509606/27/12 05:05:31  5-MIN KDBQ 271105Z 19008KT 10SM CLR 16/11 A2989 1100 74 1500 190/08 RMK AO2 $
94908KDBQ DBQ20120627051009606/27/12 05:10:31  5-MIN KDBQ 271110Z 19008KT 10SM CLR 16/11 A2990 1100 74 1500 190/08 RMK AO2 $
94908KDBQ DBQ20120627051509606/27/12 05:15:31  5-MIN KDBQ 271115Z 19007KT 10SM CLR 16/11 A2990 1100 74 1500 190/07 RMK AO2 $
94908KDBQ DBQ20120627052009606/27/12 05:20:31  5-MIN KDBQ 271120Z 18009KT 10SM CLR 16/11 A2990 1100 72 1500 180/09 RMK AO2 $
94908KDBQ DBQ20120627052509606/27/12 05:25:31  5-MIN KDBQ 271125Z 19009KT 10SM CLR 16/11 A2990 1100 72 1500 180/09 RMK AO2 $
94908KDBQ DBQ20120627053009606/27/12 05:30:31  5-MIN KDBQ 271130Z 18008KT 10SM CLR 16/11 A2989 1100 72 1500 180/08 RMK AO2 $
94908KDBQ DBQ20120627053509606/27/12 05:35:31  5-MIN KDBQ 271135Z 18010KT 10SM CLR 16/11 A2989 1100 72 1500 180/10 RMK AO2 $
94908KDBQ DBQ20120627054009606/27/12 05:40:31  5-MIN KDBQ 271140Z 18010KT 10SM CLR 17/11 A2990 1100 69 1600 180/10 RMK AO2 $
94908KDBQ DBQ20120627054509606/27/12 05:45:31  5-MIN KDBQ 271145Z 18010KT 10SM CLR 17/11 A2990 1100 69 1600 180/10 RMK AO2 $
94908KDBQ DBQ20120627055013106/27/12 05:50:31  5-MIN KDBQ 271150Z 18010KT 10SM CLR 17/11 A2990 1100 67 1700 180/10 RMK AO2 SLP118 T01720111 10172 20150 58009 $
94908KDBQ DBQ20120627055509606/27/12 05:55:31  5-MIN KDBQ 271155Z 19010KT 10SM CLR 17/11 A2989 1100 67 1700 180/10 RMK AO2 $
94908KDBQ DBQ20120627060009606/27/12 06:00:31  5-MIN KDBQ 271200Z 18010KT 10SM CLR 18/11 A2990 1100 64 1700 180/10 RMK AO2 $
94908KDBQ DBQ20120627060510206/27/12 06:05:31  5-MIN KDBQ 271205Z 18011G18KT 10SM CLR 18/11 A2990 1100 64 1700 180/11G18 RMK AO2 $
94908KDBQ DBQ20120627061009606/27/12 06:10:31  5-MIN KDBQ 271210Z 18013KT 10SM CLR 18/11 A2990 1100 62 1800 180/13 RMK AO2 $
94908KDBQ DBQ20120627061509606/27/12 06:15:31  5-MIN KDBQ 271215Z 19013KT 10SM CLR 18/11 A2990 1100 62 1800 190/13 RMK AO2 $
94908KDBQ DBQ20120627062010206/27/12 06:20:31  5-MIN KDBQ 271220Z 19014G19KT 10SM CLR 19/11 A2989 1100 60 1900 190/14G19 RMK AO2 $
94908KDBQ DBQ20120627062510206/27/12 06:25:31  5-MIN KDBQ 271225Z 19014G19KT 10SM CLR 19/11 A2989 1100 58 1900 190/14G19 RMK AO2 $
94908KDBQ DBQ20120627063009606/27/12 06:30:31  5-MIN KDBQ 271230Z 19014KT 10SM CLR 19/11 A2989 1100 58 1900 190/14 RMK AO2 $
94908KDBQ DBQ20120627063510206/27/12 06:35:31  5-MIN KDBQ 271235Z 19016G21KT 10SM CLR 19/11 A2989 1100 58 1900 190/16G21 RMK AO2 $
94908KDBQ DBQ20120627064010206/27/12 06:40:31  5-MIN KDBQ 271240Z 19015G21KT 10SM CLR 19/11 A2989 1100 58 1900 190/15G21 RMK AO2 $
94908KDBQ DBQ20120627064510206/27/12 06:45:31  5-MIN KDBQ 271245Z 19016G23KT 10SM CLR 19/11 A2989 1110 58 1900 190/16G23 RMK AO2 $
94908KDBQ DBQ20120627065011706/27/12 06:50:31  5-MIN KDBQ 271250Z 19016G23KT 10SM CLR 20/11 A2989 1110 54 2000 190/16G23 RMK AO2 SLP115 T02000106
94908KDBQ DBQ20120627065509406/27/12 06:55:31  5-MIN KDBQ 271255Z 19017KT 10SM CLR 20/11 A2989 1100 54 2000 190/17 RMK AO2
94908KDBQ DBQ20120627070009406/27/12 07:00:31  5-MIN KDBQ 271300Z 19014KT 10SM CLR 20/11 A2989 1100 54 2000 190/14 RMK AO2
94908KDBQ DBQ20120627070510006/27/12 07:05:31  5-MIN KDBQ 271305Z 19015G23KT 10SM CLR 20/11 A2989 1110 54 2000 190/15G23 RMK AO2
94908KDBQ DBQ20120627071010006/27/12 07:10:31  5-MIN KDBQ 271310Z 19014G23KT 10SM CLR 21/11 A2989 1110 54 2000 190/14G23 RMK AO2
94908KDBQ DBQ20120627071509406/27/12 07:15:31  5-MIN KDBQ 271315Z 19015KT 10SM CLR 21/11 A2989 1110 54 2100 190/15 RMK AO2
94908KDBQ DBQ20120627072010006/27/12 07:20:31  5-MIN KDBQ 271320Z 19015G22KT 10SM CLR 21/11 A2989 1110 52 2100 190/15G22 RMK AO2
94908KDBQ DBQ20120627072510006/27/12 07:25:31  5-MIN KDBQ 271325Z 19017G22KT 10SM CLR 21/11 A2989 1110 50 2100 190/17G22 RMK AO2
94908KDBQ DBQ20120627073010006/27/12 07:30:31  5-MIN KDBQ 271330Z 19014G22KT 10SM CLR 22/11 A2989 1110 50 2200 190/14G22 RMK AO2
94908KDBQ DBQ20120627073510006/27/12 07:35:31  5-MIN KDBQ 271335Z 19017G22KT 10SM CLR 22/11 A2989 1110 50 2200 190/17G22 RMK AO2
94908KDBQ DBQ20120627074010006/27/12 07:40:31  5-MIN KDBQ 271340Z 20018G24KT 10SM CLR 22/11 A2989 1110 49 2200 190/18G24 RMK AO2
94908KDBQ DBQ20120627074510006/27/12 07:45:31  5-MIN KDBQ 271345Z 19015G24KT 10SM CLR 22/11 A2989 1110 49 2200 190/15G24 RMK AO2
94908KDBQ DBQ20120627075011706/27/12 07:50:31  5-MIN KDBQ 271350Z 19015G22KT 10SM CLR 22/11 A2988 1110 49 2200 190/15G22 RMK AO2 SLP114 T02220111
94908KDBQ DBQ20120627075510006/27/12 07:55:31  5-MIN KDBQ 271355Z 19017G23KT 10SM CLR 22/11 A2989 1110 49 2200 190/17G23 RMK AO2
94908KDBQ DBQ20120627080010006/27/12 08:00:31  5-MIN KDBQ 271400Z 19017G23KT 10SM CLR 23/11 A2988 1110 47 2300 190/17G23 RMK AO2
94908KDBQ DBQ20120627080510006/27/12 08:05:31  5-MIN KDBQ 271405Z 18014G23KT 10SM CLR 23/11 A2988 1110 47 2300 180/14G23 RMK AO2
94908KDBQ DBQ20120627081010006/27/12 08:10:31  5-MIN KDBQ 271410Z 18016G21KT 10SM CLR 23/11 A2988 1110 47 2300 180/16G21 RMK AO2
94908KDBQ DBQ20120627081510006/27/12 08:15:31  5-MIN KDBQ 271415Z 19017G21KT 10SM CLR 23/11 A2988 1110 45 2400 190/17G21 RMK AO2
94908KDBQ DBQ20120627082010006/27/12 08:20:31  5-MIN KDBQ 271420Z 19016G22KT 10SM CLR 23/11 A2989 1110 45 2400 190/16G22 RMK AO2
94908KDBQ DBQ20120627082510006/27/12 08:25:31  5-MIN KDBQ 271425Z 19016G22KT 10SM CLR 24/12 A2989 1110 46 2400 190/16G22 RMK AO2
94908KDBQ DBQ20120627083010006/27/12 08:30:31  5-MIN KDBQ 271430Z 19016G22KT 10SM CLR 24/12 A2988 1110 46 2400 190/16G22 RMK AO2
94908KDBQ DBQ20120627083510006/27/12 08:35:31  5-MIN KDBQ 271435Z 19016G22KT 10SM CLR 24/12 A2988 1120 44 2500 190/16G22 RMK AO2
94908KDBQ DBQ20120627084010006/27/12 08:40:31  5-MIN KDBQ 271440Z 19017G22KT 10SM CLR 24/12 A2988 1120 44 2500 190/17G22 RMK AO2
94908KDBQ DBQ20120627084510006/27/12 08:45:31  5-MIN KDBQ 271445Z 20017G23KT 10SM CLR 24/12 A2987 1120 44 2500 200/17G23 RMK AO2
94908KDBQ DBQ20120627085014106/27/12 08:50:31  5-MIN KDBQ 271450Z 20018G26KT 10SM CLR 25/12 A2987 1120 43 2600 190/18G26 RMK AO2 PK WND 20026/1448 SLP109 T02500117 53007
94908KDBQ DBQ20120627085510006/27/12 08:55:31  5-MIN KDBQ 271455Z 19020G26KT 10SM CLR 26/12 A2987 1130 41 2600 190/20G26 RMK AO2
94908KDBQ DBQ20120627090010006/27/12 09:00:31  5-MIN KDBQ 271500Z 19021G25KT 10SM CLR 26/12 A2986 1130 41 2600 190/21G25 RMK AO2
94908KDBQ DBQ20120627090511806/27/12 09:05:31  5-MIN KDBQ 271505Z 19019G27KT 10SM CLR 26/11 A2986 1130 40 2600 190/19G27 RMK AO2 PK WND 19027/1503
94908KDBQ DBQ20120627091011806/27/12 09:10:31  5-MIN KDBQ 271510Z 20022G27KT 10SM CLR 26/12 A2986 1130 40 2700 200/22G27 RMK AO2 PK WND 19027/1503
94908KDBQ DBQ20120627091511806/27/12 09:15:31  5-MIN KDBQ 271515Z 19017G25KT 10SM CLR 27/12 A2986 1130 38 2800 190/17G25 RMK AO2 PK WND 19027/1503
94908KDBQ DBQ20120627092011806/27/12 09:20:31  5-MIN KDBQ 271520Z 18018G24KT 10SM CLR 26/12 A2986 1140 40 2700 180/18G24 RMK AO2 PK WND 19027/1503
94908KDBQ DBQ20120627092511806/27/12 09:25:31  5-MIN KDBQ 271525Z 19021G26KT 10SM CLR 26/11 A2986 1140 38 2700 180/21G26 RMK AO2 PK WND 19027/1503
94908KDBQ DBQ20120627093011806/27/12 09:30:31  5-MIN KDBQ 271530Z 19021G27KT 10SM CLR 27/12 A2986 1140 38 2800 190/21G27 RMK AO2 PK WND 20027/1528
94908KDBQ DBQ20120627093511806/27/12 09:35:31  5-MIN KDBQ 271535Z 19018G27KT 10SM CLR 27/12 A2986 1140 37 2800 190/18G27 RMK AO2 PK WND 20027/1528
94908KDBQ DBQ20120627094011806/27/12 09:40:31  5-MIN KDBQ 271540Z 19021G25KT 10SM CLR 27/12 A2986 1140 37 2800 190/21G25 RMK AO2 PK WND 20027/1528
94908KDBQ DBQ20120627094511806/27/12 09:45:31  5-MIN KDBQ 271545Z 19021G28KT 10SM CLR 27/12 A2985 1140 37 2800 190/21G28 RMK AO2 PK WND 19028/1545
94908KDBQ DBQ20120627095013506/27/12 09:50:31  5-MIN KDBQ 271550Z 19017G28KT 10SM CLR 28/12 A2985 1150 36 2900 180/17G28 RMK AO2 PK WND 19028/1545 SLP100 T02780117
94908KDBQ DBQ20120627095510006/27/12 09:55:31  5-MIN KDBQ 271555Z 18017G25KT 10SM CLR 27/12 A2984 1150 39 2900 180/17G25 RMK AO2
94908KDBQ DBQ20120627100010006/27/12 10:00:31  5-MIN KDBQ 271600Z 19016G25KT 10SM CLR 28/12 A2984 1150 37 2900 180/16G25 RMK AO2
94908KDBQ DBQ20120627100510006/27/12 10:05:31  5-MIN KDBQ 271605Z 19018G25KT 10SM CLR 28/12 A2984 1150 36 3000 190/18G25 RMK AO2
94908KDBQ DBQ20120627101010006/27/12 10:10:31  5-MIN KDBQ 271610Z 19020G25KT 10SM CLR 28/12 A2984 1150 36 3000 190/20G25 RMK AO2
94908KDBQ DBQ20120627101510006/27/12 10:15:31  5-MIN KDBQ 271615Z 18021G25KT 10SM CLR 28/12 A2984 1160 37 2900 180/21G25 RMK AO2
94908KDBQ DBQ20120627102010006/27/12 10:20:31  5-MIN KDBQ 271620Z 18018G25KT 10SM CLR 28/13 A2983 1160 37 3000 180/18G25 RMK AO2
94908KDBQ DBQ20120627102510006/27/12 10:25:31  5-MIN KDBQ 271625Z 18019G24KT 10SM CLR 28/13 A2983 1160 37 3000 180/19G24 RMK AO2
94908KDBQ DBQ20120627103010006/27/12 10:30:31  5-MIN KDBQ 271630Z 17016G24KT 10SM CLR 29/13 A2983 1160 36 3100 170/16G24 RMK AO2
94908KDBQ DBQ20120627103510006/27/12 10:35:31  5-MIN KDBQ 271635Z 18017G24KT 10SM CLR 29/13 A2983 1160 38 3100 170/17G24 RMK AO2
94908KDBQ DBQ20120627104010006/27/12 10:40:31  5-MIN KDBQ 271640Z 18019G25KT 10SM CLR 28/13 A2982 1170 37 3000 170/19G25 RMK AO2
94908KDBQ DBQ20120627104510006/27/12 10:45:31  5-MIN KDBQ 271645Z 17019G25KT 10SM CLR 29/13 A2982 1170 38 3100 170/19G25 RMK AO2
94908KDBQ DBQ20120627105011706/27/12 10:50:31  5-MIN KDBQ 271650Z 18017G25KT 10SM CLR 29/13 A2982 1170 38 3100 170/17G25 RMK AO2 SLP090 T02890133
94908KDBQ DBQ20120627105510006/27/12 10:55:31  5-MIN KDBQ 271655Z 18017G25KT 10SM CLR 29/14 A2981 1180 39 3100 170/17G25 RMK AO2
94908KDBQ DBQ20120627110011806/27/12 11:00:31  5-MIN KDBQ 271700Z 17018G28KT 10SM CLR 29/14 A2981 1180 39 3100 170/18G28 RMK AO2 PK WND 17028/1656
94908KDBQ DBQ20120627110511806/27/12 11:05:31  5-MIN KDBQ 271705Z 18017G28KT 10SM CLR 29/14 A2980 1190 38 3100 180/17G28 RMK AO2 PK WND 17028/1656
94908KDBQ DBQ20120627111011806/27/12 11:10:31  5-MIN KDBQ 271710Z 18019G26KT 10SM CLR 29/14 A2980 1190 38 3100 180/19G26 RMK AO2 PK WND 17028/1656
94908KDBQ DBQ20120627111511806/27/12 11:15:31  5-MIN KDBQ 271715Z 18018G27KT 10SM CLR 29/14 A2980 1190 39 3100 180/18G27 RMK AO2 PK WND 17028/1656
94908KDBQ DBQ20120627112011806/27/12 11:20:31  5-MIN KDBQ 271720Z 18019G27KT 10SM CLR 29/14 A2980 1190 39 3100 180/19G27 RMK AO2 PK WND 17028/1656
94908KDBQ DBQ20120627112511806/27/12 11:25:31  5-MIN KDBQ 271725Z 18017G27KT 10SM CLR 30/14 A2980 1190 38 3200 180/17G27 RMK AO2 PK WND 17028/1656
94908KDBQ DBQ20120627113011806/27/12 11:30:31  5-MIN KDBQ 271730Z 17022G26KT 10SM CLR 30/14 A2980 1190 38 3200 170/22G26 RMK AO2 PK WND 17028/1656
94908KDBQ DBQ20120627113511806/27/12 11:35:31  5-MIN KDBQ 271735Z 17023G32KT 10SM CLR 30/14 A2979 1200 38 3200 170/23G32 RMK AO2 PK WND 17032/1735
94908KDBQ DBQ20120627114011806/27/12 11:40:31  5-MIN KDBQ 271740Z 18022G32KT 10SM CLR 30/14 A2979 1200 38 3200 180/22G32 RMK AO2 PK WND 17032/1735
94908KDBQ DBQ20120627114511806/27/12 11:45:31  5-MIN KDBQ 271745Z 18022G27KT 10SM CLR 30/15 A2978 1200 39 3200 180/22G27 RMK AO2 PK WND 17032/1735
94908KDBQ DBQ20120627115015306/27/12 11:50:31  5-MIN KDBQ 271750Z 19020G27KT 10SM CLR 30/15 A2978 1210 39 3200 180/20G27 RMK AO2 PK WND 17032/1735 SLP078 T03000150 10300 20172 58008
94908KDBQ DBQ20120627115511806/27/12 11:55:31  5-MIN KDBQ 271755Z 18022G30KT 10SM CLR 31/15 A2978 1210 38 3300 170/22G30 RMK AO2 PK WND 17030/1755
94908KDBQ DBQ20120627120011806/27/12 12:00:31  5-MIN KDBQ 271800Z 19019G30KT 10SM CLR 31/15 A2978 1200 38 3300 180/19G30 RMK AO2 PK WND 17030/1755
94908KDBQ DBQ20120627120511806/27/12 12:05:31  5-MIN KDBQ 271805Z 18018G28KT 10SM CLR 31/15 A2979 1200 38 3300 180/18G28 RMK AO2 PK WND 17030/1755
94908KDBQ DBQ20120627121011806/27/12 12:10:31  5-MIN KDBQ 271810Z 18019G23KT 10SM CLR 31/16 A2978 1200 39 3300 170/19G23 RMK AO2 PK WND 17030/1755
94908KDBQ DBQ20120627121511806/27/12 12:15:31  5-MIN KDBQ 271815Z 18019G25KT 10SM CLR 31/16 A2979 1200 39 3300 180/19G25 RMK AO2 PK WND 17030/1755
94908KDBQ DBQ20120627122011806/27/12 12:20:31  5-MIN KDBQ 271820Z 18017G25KT 10SM CLR 31/16 A2979 1200 39 3300 180/17G25 RMK AO2 PK WND 17030/1755
94908KDBQ DBQ20120627122511806/27/12 12:25:31  5-MIN KDBQ 271825Z 20015G23KT 10SM CLR 32/16 A2979 1200 38 3400 190/15G23 RMK AO2 PK WND 17030/1755
94908KDBQ DBQ20120627123011806/27/12 12:30:31  5-MIN KDBQ 271830Z 19016G23KT 10SM CLR 32/16 A2979 1200 38 3400 190/16G23 RMK AO2 PK WND 17030/1755
94908KDBQ DBQ20120627123511806/27/12 12:35:31  5-MIN KDBQ 271835Z 20017G26KT 10SM CLR 32/16 A2979 1200 38 3400 200/17G26 RMK AO2 PK WND 17030/1755
94908KDBQ DBQ20120627124011806/27/12 12:40:31  5-MIN KDBQ 271840Z 19016G26KT 10SM CLR 32/16 A2979 1200 38 3400 190/16G26 RMK AO2 PK WND 17030/1755
94908KDBQ DBQ20120627124511806/27/12 12:45:31  5-MIN KDBQ 271845Z 19015G21KT 10SM CLR 32/17 A2979 1200 38 3500 190/15G21 RMK AO2 PK WND 17030/1755
94908KDBQ DBQ20120627125013506/27/12 12:50:31  5-MIN KDBQ 271850Z 20019G25KT 10SM CLR 32/16 A2979 1200 37 3500 200/19G25 RMK AO2 PK WND 17030/1755 SLP078 T03220161
94908KDBQ DBQ20120627125510006/27/12 12:55:31  5-MIN KDBQ 271855Z 20018G25KT 10SM CLR 32/16 A2979 1200 37 3500 200/18G25 RMK AO2
94908KDBQ DBQ20120627130011806/27/12 13:00:31  5-MIN KDBQ 271900Z 20022G27KT 10SM CLR 32/16 A2979 1200 37 3500 200/22G27 RMK AO2 PK WND 19027/1858
94908KDBQ DBQ20120627130511806/27/12 13:05:31  5-MIN KDBQ 271905Z 21019G27KT 10SM CLR 32/16 A2978 1200 37 3500 200/19G27 RMK AO2 PK WND 19027/1858
94908KDBQ DBQ20120627131011806/27/12 13:10:31  5-MIN KDBQ 271910Z 20018G25KT 10SM CLR 33/17 A2978 1210 37 3500 200/18G25 RMK AO2 PK WND 19027/1858
94908KDBQ DBQ20120627131511806/27/12 13:15:31  5-MIN KDBQ 271915Z 20019G25KT 10SM CLR 32/17 A2978 1210 38 3500 200/19G25 RMK AO2 PK WND 19027/1858
94908KDBQ DBQ20120627132011806/27/12 13:20:31  5-MIN KDBQ 271920Z 20018G23KT 10SM CLR 33/17 A2978 1210 37 3500 200/18G23 RMK AO2 PK WND 19027/1858
94908KDBQ DBQ20120627132511206/27/12 13:25:31  5-MIN KDBQ 271925Z 21018KT 10SM CLR 33/17 A2977 1210 37 3500 210/18 RMK AO2 PK WND 19027/1858
94908KDBQ DBQ20120627133011206/27/12 13:30:31  5-MIN KDBQ 271930Z 20019KT 10SM CLR 32/17 A2978 1210 38 3500 190/19 RMK AO2 PK WND 19027/1858
94908KDBQ DBQ20120627133511806/27/12 13:35:31  5-MIN KDBQ 271935Z 20021G27KT 10SM CLR 32/17 A2978 1210 38 3500 200/21G27 RMK AO2 PK WND 20027/1933
94908KDBQ DBQ20120627134011806/27/12 13:40:31  5-MIN KDBQ 271940Z 21017G27KT 10SM CLR 32/17 A2977 1220 38 3500 210/17G27 RMK AO2 PK WND 20027/1933
94908KDBQ DBQ20120627134511806/27/12 13:45:31  5-MIN KDBQ 271945Z 20019G25KT 10SM CLR 33/17 A2977 1210 39 3500 200/19G25 RMK AO2 PK WND 20027/1933
94908KDBQ DBQ20120627135013506/27/12 13:50:31  5-MIN KDBQ 271950Z 20017G24KT 10SM CLR 32/17 A2978 1210 40 3500 200/17G24 RMK AO2 PK WND 20027/1933 SLP075 T03220172
94908KDBQ DBQ20120627135509406/27/12 13:55:31  5-MIN KDBQ 271955Z 21015KT 10SM CLR 32/17 A2978 1210 40 3500 210/15 RMK AO2
94908KDBQ DBQ20120627140010006/27/12 14:00:31  5-MIN KDBQ 272000Z 20019G24KT 10SM CLR 32/17 A2978 1210 40 3500 200/19G24 RMK AO2
94908KDBQ DBQ20120627140510006/27/12 14:05:31  5-MIN KDBQ 272005Z 21017G24KT 10SM CLR 32/17 A2978 1210 40 3500 210/17G24 RMK AO2
94908KDBQ DBQ20120627141010006/27/12 14:10:31  5-MIN KDBQ 272010Z 22014G21KT 10SM CLR 33/17 A2978 1210 39 3500 220/14G21 RMK AO2
94908KDBQ DBQ20120627141510006/27/12 14:15:31  5-MIN KDBQ 272015Z 20016G21KT 10SM CLR 33/18 A2978 1210 40 3500 200/16G21 RMK AO2
94908KDBQ DBQ20120627142010006/27/12 14:20:31  5-MIN KDBQ 272020Z 20016G22KT 10SM CLR 33/18 A2978 1210 40 3500 200/16G22 RMK AO2
94908KDBQ DBQ20120627142510006/27/12 14:25:31  5-MIN KDBQ 272025Z 21014G22KT 10SM CLR 33/18 A2977 1210 40 3500 210/14G22 RMK AO2
94908KDBQ DBQ20120627143010006/27/12 14:30:31  5-MIN KDBQ 272030Z 20017G24KT 10SM CLR 33/18 A2978 1210 40 3500 200/17G24 RMK AO2
94908KDBQ DBQ20120627143510006/27/12 14:35:31  5-MIN KDBQ 272035Z 20019G24KT 10SM CLR 33/18 A2977 1220 40 3500 200/19G24 RMK AO2
94908KDBQ DBQ20120627144010006/27/12 14:40:31  5-MIN KDBQ 272040Z 21016G24KT 10SM CLR 32/18 A2977 1210 41 3500 210/16G24 RMK AO2
94908KDBQ DBQ20120627144510006/27/12 14:45:31  5-MIN KDBQ 272045Z 20015G21KT 10SM CLR 33/18 A2977 1220 40 3500 200/15G21 RMK AO2
94908KDBQ DBQ20120627145012306/27/12 14:50:31  5-MIN KDBQ 272050Z 20017G21KT 10SM CLR 33/18 A2977 1220 40 3500 190/17G21 RMK AO2 SLP073 T03280178 58029
94908KDBQ DBQ20120627145509406/27/12 14:55:31  5-MIN KDBQ 272055Z 20016KT 10SM CLR 32/18 A2977 1220 41 3500 200/16 RMK AO2
94908KDBQ DBQ20120627150009406/27/12 15:00:31  5-MIN KDBQ 272100Z 20015KT 10SM CLR 33/18 A2977 1220 41 3600 200/15 RMK AO2
94908KDBQ DBQ20120627150509406/27/12 15:05:31  5-MIN KDBQ 272105Z 20017KT 10SM CLR 33/18 A2977 1220 41 3600 200/17 RMK AO2
94908KDBQ DBQ20120627151009406/27/12 15:10:31  5-MIN KDBQ 272110Z 20016KT 10SM CLR 33/18 A2977 1220 41 3600 190/16 RMK AO2
94908KDBQ DBQ20120627151509406/27/12 15:15:31  5-MIN KDBQ 272115Z 20017KT 10SM CLR 33/18 A2976 1230 41 3600 200/17 RMK AO2
94908KDBQ DBQ20120627152009406/27/12 15:20:31  5-MIN KDBQ 272120Z 22017KT 10SM CLR 33/18 A2976 1230 41 3600 210/17 RMK AO2
94908KDBQ DBQ20120627152509406/27/12 15:25:31  5-MIN KDBQ 272125Z 21017KT 10SM CLR 33/18 A2976 1230 40 3600 210/17 RMK AO2
94908KDBQ DBQ20120627153009406/27/12 15:30:31  5-MIN KDBQ 272130Z 21016KT 10SM CLR 33/18 A2976 1230 41 3600 210/16 RMK AO2
94908KDBQ DBQ20120627153509406/27/12 15:35:31  5-MIN KDBQ 272135Z 21018KT 10SM CLR 33/18 A2976 1230 41 3600 200/18 RMK AO2
94908KDBQ DBQ20120627154010006/27/12 15:40:31  5-MIN KDBQ 272140Z 21015G22KT 10SM CLR 33/18 A2976 1220 41 3600 210/15G22 RMK AO2
94908KDBQ DBQ20120627154509406/27/12 15:45:31  5-MIN KDBQ 272145Z 19019KT 10SM CLR 33/18 A2976 1220 41 3600 190/19 RMK AO2
94908KDBQ DBQ20120627155011706/27/12 15:50:31  5-MIN KDBQ 272150Z 21016G23KT 10SM CLR 33/18 A2977 1220 41 3600 210/16G23 RMK AO2 SLP072 T03280183
94908KDBQ DBQ20120627155510006/27/12 15:55:31  5-MIN KDBQ 272155Z 21014G23KT 10SM CLR 33/18 A2977 1220 41 3600 210/14G23 RMK AO2
94908KDBQ DBQ20120627160010006/27/12 16:00:31  5-MIN KDBQ 272200Z 20017G22KT 10SM CLR 33/18 A2976 1220 41 3600 200/17G22 RMK AO2
94908KDBQ DBQ20120627160510006/27/12 16:05:31  5-MIN KDBQ 272205Z 21015G22KT 10SM CLR 33/18 A2976 1220 41 3600 210/15G22 RMK AO2
94908KDBQ DBQ20120627161009406/27/12 16:10:31  5-MIN KDBQ 272210Z 20016KT 10SM CLR 33/19 A2976 1220 43 3600 200/16 RMK AO2
94908KDBQ DBQ20120627161509406/27/12 16:15:31  5-MIN KDBQ 272215Z 20015KT 10SM CLR 33/19 A2976 1230 43 3600 200/15 RMK AO2
94908KDBQ DBQ20120627162010006/27/12 16:20:31  5-MIN KDBQ 272220Z 21016G21KT 10SM CLR 33/18 A2976 1230 41 3600 210/16G21 RMK AO2
94908KDBQ DBQ20120627162510006/27/12 16:25:31  5-MIN KDBQ 272225Z 20015G21KT 10SM CLR 33/19 A2976 1230 43 3600 200/15G21 RMK AO2
94908KDBQ DBQ20120627163010006/27/12 16:30:31  5-MIN KDBQ 272230Z 20012G22KT 10SM CLR 33/19 A2976 1230 43 3600 200/12G22 RMK AO2
94908KDBQ DBQ20120627163510006/27/12 16:35:31  5-MIN KDBQ 272235Z 20016G22KT 10SM CLR 33/19 A2976 1230 43 3600 200/16G22 RMK AO2
94908KDBQ DBQ20120627164009406/27/12 16:40:31  5-MIN KDBQ 272240Z 20014KT 10SM CLR 33/19 A2976 1230 43 3600 200/14 RMK AO2
94908KDBQ DBQ20120627164509406/27/12 16:45:31  5-MIN KDBQ 272245Z 20014KT 10SM CLR 33/19 A2976 1230 43 3600 200/14 RMK AO2
94908KDBQ DBQ20120627165011706/27/12 16:50:31  5-MIN KDBQ 272250Z 21017G21KT 10SM CLR 32/19 A2975 1240 44 3500 210/17G21 RMK AO2 SLP067 T03220189
94908KDBQ DBQ20120627165510006/27/12 16:55:31  5-MIN KDBQ 272255Z 20012G21KT 10SM CLR 32/19 A2975 1240 44 3500 200/12G21 RMK AO2
94908KDBQ DBQ20120627170009406/27/12 17:00:31  5-MIN KDBQ 272300Z 20016KT 10SM CLR 32/19 A2975 1240 46 3500 200/16 RMK AO2
94908KDBQ DBQ20120627170509406/27/12 17:05:31  5-MIN KDBQ 272305Z 20014KT 10SM CLR 32/19 A2975 1240 44 3500 200/14 RMK AO2
94908KDBQ DBQ20120627171009406/27/12 17:10:31  5-MIN KDBQ 272310Z 20013KT 10SM CLR 32/19 A2975 1240 47 3500 190/13 RMK AO2
94908KDBQ DBQ20120627171509406/27/12 17:15:31  5-MIN KDBQ 272315Z 20014KT 10SM CLR 32/19 A2975 1240 46 3500 200/14 RMK AO2
94908KDBQ DBQ20120627172009406/27/12 17:20:31  5-MIN KDBQ 272320Z 20015KT 10SM CLR 32/19 A2975 1240 46 3500 200/15 RMK AO2
94908KDBQ DBQ20120627172509406/27/12 17:25:31  5-MIN KDBQ 272325Z 20013KT 10SM CLR 32/19 A2975 1240 46 3500 200/13 RMK AO2
94908KDBQ DBQ20120627173009406/27/12 17:30:31  5-MIN KDBQ 272330Z 20014KT 10SM CLR 32/19 A2975 1240 47 3500 190/14 RMK AO2
94908KDBQ DBQ20120627173510006/27/12 17:35:31  5-MIN KDBQ 272335Z 20012G21KT 10SM CLR 32/19 A2975 1240 47 3500 200/12G21 RMK AO2
94908KDBQ DBQ20120627174010006/27/12 17:40:31  5-MIN KDBQ 272340Z 19012G21KT 10SM CLR 32/19 A2975 1240 47 3500 190/12G21 RMK AO2
94908KDBQ DBQ20120627174509406/27/12 17:45:31  5-MIN KDBQ 272345Z 19010KT 10SM CLR 32/19 A2975 1240 47 3500 190/10 RMK AO2
94908KDBQ DBQ20120627175012906/27/12 17:50:31  5-MIN KDBQ 272350Z 19011KT 10SM CLR 31/20 A2975 1240 51 3400 190/11 RMK AO2 SLP066 T03110200 10328 20306 58004
94908KDBQ DBQ20120627175509406/27/12 17:55:31  5-MIN KDBQ 272355Z 19010KT 10SM CLR 31/20 A2975 1240 51 3400 190/10 RMK AO2
94908KDBQ DBQ20120627180010006/27/12 18:00:31  5-MIN KDBQ 280000Z 20012G17KT 10SM CLR 31/20 A2975 1240 51 3400 200/12G17 RMK AO2
94908KDBQ DBQ20120627180509406/27/12 18:05:31  5-MIN KDBQ 280005Z 19011KT 10SM CLR 31/19 A2975 1240 49 3400 190/11 RMK AO2
94908KDBQ DBQ20120627181009406/27/12 18:10:31  5-MIN KDBQ 280010Z 19010KT 10SM CLR 31/20 A2975 1240 52 3300 190/10 RMK AO2
94908KDBQ DBQ20120627181509406/27/12 18:15:31  5-MIN KDBQ 280015Z 19011KT 10SM CLR 31/20 A2975 1240 52 3300 190/11 RMK AO2
94908KDBQ DBQ20120627182009406/27/12 18:20:31  5-MIN KDBQ 280020Z 19010KT 10SM CLR 31/20 A2975 1240 52 3300 190/10 RMK AO2
94908KDBQ DBQ20120627182509406/27/12 18:25:31  5-MIN KDBQ 280025Z 19011KT 10SM CLR 31/20 A2975 1240 52 3300 190/11 RMK AO2
94908KDBQ DBQ20120627183009406/27/12 18:30:31  5-MIN KDBQ 280030Z 19011KT 10SM CLR 31/20 A2975 1240 52 3300 190/11 RMK AO2
94908KDBQ DBQ20120627183509406/27/12 18:35:31  5-MIN KDBQ 280035Z 20011KT 10SM CLR 30/20 A2975 1240 54 3300 190/11 RMK AO2
94908KDBQ DBQ20120627184009406/27/12 18:40:31  5-MIN KDBQ 280040Z 20013KT 10SM CLR 30/20 A2974 1240 54 3300 200/13 RMK AO2
94908KDBQ DBQ20120627184509406/27/12 18:45:31  5-MIN KDBQ 280045Z 20010KT 10SM CLR 30/20 A2974 1240 54 3300 200/10 RMK AO2
94908KDBQ DBQ20120627185011606/27/12 18:50:31  5-MIN KDBQ 280050Z AUTO 20011KT 10SM CLR 30/20 A2974 1240 54 3300 200/11 RMK AO2 SLP064 T03000200
94908KDBQ DBQ20120627185509906/27/12 18:55:31  5-MIN KDBQ 280055Z AUTO 20010KT 10SM CLR 30/20 A2974 1240 54 3300 200/10 RMK AO2
94908KDBQ DBQ20120627190009906/27/12 19:00:31  5-MIN KDBQ 280100Z AUTO 20008KT 10SM CLR 29/20 A2974 1240 56 3200 200/08 RMK AO2
94908KDBQ DBQ20120627190509906/27/12 19:05:31  5-MIN KDBQ 280105Z AUTO 20008KT 10SM CLR 29/20 A2975 1240 56 3200 200/08 RMK AO2
94908KDBQ DBQ20120627191009906/27/12 19:10:31  5-MIN KDBQ 280110Z AUTO 19008KT 10SM CLR 29/20 A2975 1240 58 3200 190/08 RMK AO2
94908KDBQ DBQ20120627191509906/27/12 19:15:31  5-MIN KDBQ 280115Z AUTO 19009KT 10SM CLR 29/21 A2975 1240 60 3100 190/09 RMK AO2
94908KDBQ DBQ20120627192009906/27/12 19:20:31  5-MIN KDBQ 280120Z AUTO 20008KT 10SM CLR 29/21 A2975 1240 60 3100 190/08 RMK AO2
94908KDBQ DBQ20120627192509906/27/12 19:25:31  5-MIN KDBQ 280125Z AUTO 20007KT 10SM CLR 29/21 A2975 1230 60 3100 200/07 RMK AO2
94908KDBQ DBQ20120627193009906/27/12 19:30:31  5-MIN KDBQ 280130Z AUTO 20006KT 10SM CLR 28/21 A2976 1230 62 3100 200/06 RMK AO2
94908KDBQ DBQ20120627193509906/27/12 19:35:31  5-MIN KDBQ 280135Z AUTO 20006KT 10SM CLR 28/21 A2976 1230 62 3100 200/06 RMK AO2
94908KDBQ DBQ20120627194009906/27/12 19:40:31  5-MIN KDBQ 280140Z AUTO 20006KT 10SM CLR 28/21 A2976 1230 64 3000 200/06 RMK AO2
94908KDBQ DBQ20120627194509906/27/12 19:45:31  5-MIN KDBQ 280145Z AUTO 19007KT 10SM CLR 27/21 A2976 1230 66 3000 190/07 RMK AO2
94908KDBQ DBQ20120627195011606/27/12 19:50:31  5-MIN KDBQ 280150Z AUTO 20006KT 10SM CLR 27/21 A2976 1230 66 2900 200/06 RMK AO2 SLP070 T02720206
94908KDBQ DBQ20120627195509906/27/12 19:55:31  5-MIN KDBQ 280155Z AUTO 19005KT 10SM CLR 27/21 A2976 1220 69 2900 190/05 RMK AO2
94908KDBQ DBQ20120627200009906/27/12 20:00:31  5-MIN KDBQ 280200Z AUTO 21005KT 10SM CLR 27/21 A2976 1230 66 2900 210/05 RMK AO2
94908KDBQ DBQ20120627200509906/27/12 20:05:31  5-MIN KDBQ 280205Z AUTO 20007KT 10SM CLR 27/21 A2976 1220 69 2900 200/07 RMK AO2
94908KDBQ DBQ20120627201009906/27/12 20:10:31  5-MIN KDBQ 280210Z AUTO 20006KT 10SM CLR 26/21 A2977 1220 71 2800 190/06 RMK AO2
94908KDBQ DBQ20120627201509906/27/12 20:15:31  5-MIN KDBQ 280215Z AUTO 20006KT 10SM CLR 26/21 A2977 1220 71 2800 200/06 RMK AO2
94908KDBQ DBQ20120627202009906/27/12 20:20:31  5-MIN KDBQ 280220Z AUTO 20007KT 10SM CLR 26/21 A2977 1220 71 2800 200/07 RMK AO2
94908KDBQ DBQ20120627202509906/27/12 20:25:31  5-MIN KDBQ 280225Z AUTO 20006KT 10SM CLR 26/21 A2977 1220 71 2800 200/06 RMK AO2
94908KDBQ DBQ20120627203009906/27/12 20:30:31  5-MIN KDBQ 280230Z AUTO 19007KT 10SM CLR 26/21 A2977 1220 73 2700 190/07 RMK AO2
94908KDBQ DBQ20120627203509906/27/12 20:35:31  5-MIN KDBQ 280235Z AUTO 19007KT 10SM CLR 26/21 A2977 1210 73 2700 190/07 RMK AO2
94908KDBQ DBQ20120627204009906/27/12 20:40:31  5-MIN KDBQ 280240Z AUTO 20009KT 10SM CLR 26/21 A2978 1210 71 2800 200/09 RMK AO2
94908KDBQ DBQ20120627204509906/27/12 20:45:31  5-MIN KDBQ 280245Z AUTO 20007KT 10SM CLR 27/21 A2978 1210 69 2900 200/07 RMK AO2
94908KDBQ DBQ20120627205012206/27/12 20:50:31  5-MIN KDBQ 280250Z AUTO 19006KT 10SM CLR 26/21 A2978 1210 71 2800 190/06 RMK AO2 SLP076 T02610206 57006
94908KDBQ DBQ20120627205509906/27/12 20:55:31  5-MIN KDBQ 280255Z AUTO 19006KT 10SM CLR 26/21 A2978 1210 71 2800 190/06 RMK AO2
94908KDBQ DBQ20120627210009906/27/12 21:00:31  5-MIN KDBQ 280300Z AUTO 19004KT 10SM CLR 26/21 A2978 1210 71 2800 190/04 RMK AO2
94908KDBQ DBQ20120627210509906/27/12 21:05:31  5-MIN KDBQ 280305Z AUTO 19006KT 10SM CLR 26/21 A2978 1200 73 2700 190/06 RMK AO2
94908KDBQ DBQ20120627211009906/27/12 21:10:31  5-MIN KDBQ 280310Z AUTO 19006KT 10SM CLR 26/21 A2979 1200 73 2700 190/06 RMK AO2
94908KDBQ DBQ20120627211509906/27/12 21:15:31  5-MIN KDBQ 280315Z AUTO 18005KT 10SM CLR 26/21 A2979 1200 71 2800 180/05 RMK AO2
94908KDBQ DBQ20120627212009906/27/12 21:20:31  5-MIN KDBQ 280320Z AUTO 19005KT 10SM CLR 26/21 A2979 1200 73 2700 190/05 RMK AO2
94908KDBQ DBQ20120627212509906/27/12 21:25:31  5-MIN KDBQ 280325Z AUTO 19004KT 10SM CLR 26/21 A2979 1200 73 2700 190/04 RMK AO2
94908KDBQ DBQ20120627213009906/27/12 21:30:31  5-MIN KDBQ 280330Z AUTO 20005KT 10SM CLR 25/21 A2979 1200 76 2700 190/05 RMK AO2
94908KDBQ DBQ20120627213509906/27/12 21:35:31  5-MIN KDBQ 280335Z AUTO 19006KT 10SM CLR 25/21 A2979 1200 76 2700 190/06 RMK AO2
94908KDBQ DBQ20120627214009906/27/12 21:40:31  5-MIN KDBQ 280340Z AUTO 19006KT 10SM CLR 24/21 A2979 1200 78 2600 190/06 RMK AO2
94908KDBQ DBQ20120627214509906/27/12 21:45:31  5-MIN KDBQ 280345Z AUTO 19005KT 10SM CLR 24/21 A2979 1200 78 2600 190/05 RMK AO2
94908KDBQ DBQ20120627215011606/27/12 21:50:31  5-MIN KDBQ 280350Z AUTO 19004KT 10SM CLR 25/21 A2979 1200 76 2700 190/04 RMK AO2 SLP080 T02500206
94908KDBQ DBQ20120627215509906/27/12 21:55:31  5-MIN KDBQ 280355Z AUTO 19005KT 10SM CLR 25/21 A2979 1200 76 2700 190/05 RMK AO2
94908KDBQ DBQ20120627220009906/27/12 22:00:31  5-MIN KDBQ 280400Z AUTO 19006KT 10SM CLR 24/21 A2979 1200 78 2600 190/06 RMK AO2
94908KDBQ DBQ20120627220509906/27/12 22:05:31  5-MIN KDBQ 280405Z AUTO 19006KT 10SM CLR 24/21 A2979 1200 78 2600 190/06 RMK AO2
94908KDBQ DBQ20120627221009906/27/12 22:10:31  5-MIN KDBQ 280410Z AUTO 19007KT 10SM CLR 24/21 A2979 1200 81 2500 190/07 RMK AO2
94908KDBQ DBQ20120627221509906/27/12 22:15:31  5-MIN KDBQ 280415Z AUTO 20006KT 10SM CLR 24/21 A2979 1200 81 2500 190/06 RMK AO2
94908KDBQ DBQ20120627222009906/27/12 22:20:31  5-MIN KDBQ 280420Z AUTO 20006KT 10SM CLR 24/21 A2979 1200 81 2500 200/06 RMK AO2
94908KDBQ DBQ20120627222509906/27/12 22:25:31  5-MIN KDBQ 280425Z AUTO 20006KT 10SM CLR 24/21 A2979 1190 78 2600 200/06 RMK AO2
94908KDBQ DBQ20120627223009906/27/12 22:30:31  5-MIN KDBQ 280430Z AUTO 20006KT 10SM CLR 24/21 A2980 1190 78 2600 200/06 RMK AO2
94908KDBQ DBQ20120627223509906/27/12 22:35:31  5-MIN KDBQ 280435Z AUTO 20006KT 10SM CLR 24/21 A2980 1190 78 2600 200/06 RMK AO2
94908KDBQ DBQ20120627224009906/27/12 22:40:31  5-MIN KDBQ 280440Z AUTO 20007KT 10SM CLR 24/21 A2979 1200 81 2600 200/07 RMK AO2
94908KDBQ DBQ20120627224509906/27/12 22:45:31  5-MIN KDBQ 280445Z AUTO 20008KT 10SM CLR 24/21 A2979 1200 81 2600 200/08 RMK AO2
94908KDBQ DBQ20120627225011606/27/12 22:50:31  5-MIN KDBQ 280450Z AUTO 21007KT 10SM CLR 24/21 A2979 1190 81 2600 210/07 RMK AO2 SLP080 T02440211
94908KDBQ DBQ20120627225509906/27/12 22:55:31  5-MIN KDBQ 280455Z AUTO 21006KT 10SM CLR 24/21 A2979 1200 81 2500 210/06 RMK AO2
94908KDBQ DBQ20120627230009906/27/12 23:00:31  5-MIN KDBQ 280500Z AUTO 21005KT 10SM CLR 24/21 A2980 1190 81 2500 210/05 RMK AO2
94908KDBQ DBQ20120627230509906/27/12 23:05:31  5-MIN KDBQ 280505Z AUTO 21005KT 10SM CLR 24/21 A2980 1190 81 2500 210/05 RMK AO2
94908KDBQ DBQ20120627231009906/27/12 23:10:31  5-MIN KDBQ 280510Z AUTO 21005KT 10SM CLR 24/21 A2980 1190 81 2500 210/05 RMK AO2
94908KDBQ DBQ20120627231509906/27/12 23:15:31  5-MIN KDBQ 280515Z AUTO 21005KT 10SM CLR 23/21 A2980 1190 84 2500 210/05 RMK AO2
94908KDBQ DBQ20120627232009906/27/12 23:20:31  5-MIN KDBQ 280520Z AUTO 21006KT 10SM CLR 23/21 A2980 1190 84 2500 210/06 RMK AO2
94908KDBQ DBQ20120627232509906/27/12 23:25:31  5-MIN KDBQ 280525Z AUTO 21006KT 10SM CLR 23/21 A2980 1190 84 2500 210/06 RMK AO2
94908KDBQ DBQ20120627233009806/27/12 23:30:31  5-MIN KDBQ 280530Z AUTO 21006KT 9SM CLR 23/21 A2980 1190 84 2500 210/06 RMK AO2
94908KDBQ DBQ20120627233509806/27/12 23:35:31  5-MIN KDBQ 280535Z AUTO 21005KT 9SM CLR 23/21 A2980 1190 84 2500 210/05 RMK AO2
94908KDBQ DBQ20120627234009806/27/12 23:40:31  5-MIN KDBQ 280540Z AUTO 21006KT 9SM CLR 23/21 A2980 1190 84 2500 210/06 RMK AO2
94908KDBQ DBQ20120627234509806/27/12 23:45:31  5-MIN KDBQ 280545Z AUTO 21006KT 9SM CLR 23/21 A2980 1190 87 2400 210/06 RMK AO2
94908KDBQ DBQ20120627235014306/27/12 23:50:31  5-MIN KDBQ 280550Z AUTO 21005KT 9SM CLR 23/21 A2980 1190 87 2400 210/05 RMK AO2 SLP081 T02280206 10311 20228 403280150 53010
94908KDBQ DBQ20120627235509806/27/12 23:55:31  5-MIN KDBQ 280555Z AUTO 21005KT 9SM CLR 23/21 A2980 1190 87 2400 210/05 RMK AO2
94908KDBQ DBQ20120628000009806/28/12 00:00:38  5-MIN KDBQ 280600Z AUTO 22005KT 9SM CLR 22/21 A2980 1190 90 2300 220/05 RMK AO2
94908KDBQ DBQ20120628000509806/28/12 00:05:31  5-MIN KDBQ 280605Z AUTO 21005KT 8SM CLR 22/21 A2980 1190 90 2300 210/05 RMK AO2
94908KDBQ DBQ20120628001009806/28/12 00:10:31  5-MIN KDBQ 280610Z AUTO 21005KT 8SM CLR 22/21 A2980 1190 90 2300 210/05 RMK AO2
94908KDBQ DBQ20120628001509806/28/12 00:15:33  5-MIN KDBQ 280615Z AUTO 21005KT 9SM CLR 23/21 A2980 1190 87 2400 210/05 RMK AO2
94908KDBQ DBQ20120628002009806/28/12 00:20:31  5-MIN KDBQ 280620Z AUTO 21005KT 9SM CLR 23/21 A2980 1190 87 2400 210/05 RMK AO2
94908KDBQ DBQ20120628002509806/28/12 00:25:31  5-MIN KDBQ 280625Z AUTO 21005KT 9SM CLR 23/21 A2980 1190 87 2400 210/05 RMK AO2
94908KDBQ DBQ20120628003009806/28/12 00:30:31  5-MIN KDBQ 280630Z AUTO 21006KT 8SM CLR 23/21 A2980 1190 87 2400 210/06 RMK AO2
94908KDBQ DBQ20120628003509806/28/12 00:35:31  5-MIN KDBQ 280635Z AUTO 22005KT 8SM CLR 22/21 A2980 1190 90 2300 220/05 RMK AO2
94908KDBQ DBQ20120628004009806/28/12 00:40:31  5-MIN KDBQ 280640Z AUTO 21005KT 8SM CLR 22/21 A2980 1190 93 2300 210/05 RMK AO2
94908KDBQ DBQ20120628004509806/28/12 00:45:31  5-MIN KDBQ 280645Z AUTO 21005KT 8SM CLR 22/21 A2979 1200 90 2300 210/05 RMK AO2
94908KDBQ DBQ20120628005011506/28/12 00:50:31  5-MIN KDBQ 280650Z AUTO 21005KT 8SM CLR 22/21 A2979 1200 90 2300 210/05 RMK AO2 SLP080 T02220206
94908KDBQ DBQ20120628005509806/28/12 00:55:31  5-MIN KDBQ 280655Z AUTO 22005KT 8SM CLR 22/21 A2979 1200 90 2300 220/05 RMK AO2
94908KDBQ DBQ20120628010009806/28/12 01:00:31  5-MIN KDBQ 280700Z AUTO 22006KT 8SM CLR 22/20 A2979 1200 90 2300 220/06 RMK AO2
94908KDBQ DBQ20120628010509806/28/12 01:05:31  5-MIN KDBQ 280705Z AUTO 22006KT 8SM CLR 22/20 A2979 1200 90 2300 210/06 RMK AO2
94908KDBQ DBQ20120628011009806/28/12 01:10:31  5-MIN KDBQ 280710Z AUTO 22006KT 8SM CLR 22/20 A2979 1200 90 2300 220/06 RMK AO2
94908KDBQ DBQ20120628011509806/28/12 01:15:31  5-MIN KDBQ 280715Z AUTO 22006KT 8SM CLR 22/21 A2979 1200 93 2300 220/06 RMK AO2
94908KDBQ DBQ20120628012009806/28/12 01:20:31  5-MIN KDBQ 280720Z AUTO 22005KT 8SM CLR 22/21 A2979 1200 93 2300 220/05 RMK AO2
94908KDBQ DBQ20120628012509806/28/12 01:25:31  5-MIN KDBQ 280725Z AUTO 22005KT 8SM CLR 22/20 A2980 1190 90 2300 220/05 RMK AO2
94908KDBQ DBQ20120628013009806/28/12 01:30:31  5-MIN KDBQ 280730Z AUTO 22005KT 7SM CLR 22/20 A2980 1190 90 2300 220/05 RMK AO2
94908KDBQ DBQ20120628013509806/28/12 01:35:31  5-MIN KDBQ 280735Z AUTO 22005KT 7SM CLR 22/21 A2980 1190 93 2300 220/05 RMK AO2
94908KDBQ DBQ20120628014009806/28/12 01:40:31  5-MIN KDBQ 280740Z AUTO 22004KT 8SM CLR 22/21 A2980 1190 90 2300 220/04 RMK AO2
94908KDBQ DBQ20120628014509806/28/12 01:45:31  5-MIN KDBQ 280745Z AUTO 22004KT 8SM CLR 22/21 A2980 1190 90 2300 220/04 RMK AO2
94908KDBQ DBQ20120628015011506/28/12 01:50:31  5-MIN KDBQ 280750Z AUTO 21004KT 8SM CLR 22/21 A2979 1200 90 2300 210/04 RMK AO2 SLP080 T02220206
94908KDBQ DBQ20120628015509806/28/12 01:55:31  5-MIN KDBQ 280755Z AUTO 21004KT 8SM CLR 22/21 A2979 1200 90 2300 210/04 RMK AO2
94908KDBQ DBQ20120628020009806/28/12 02:00:31  5-MIN KDBQ 280800Z AUTO 21004KT 8SM CLR 22/21 A2979 1200 90 2400 210/04 RMK AO2
94908KDBQ DBQ20120628020509806/28/12 02:05:31  5-MIN KDBQ 280805Z AUTO 20005KT 8SM CLR 22/21 A2979 1200 90 2400 200/05 RMK AO2
94908KDBQ DBQ20120628021009806/28/12 02:10:31  5-MIN KDBQ 280810Z AUTO 20005KT 8SM CLR 22/21 A2979 1200 90 2400 200/05 RMK AO2
94908KDBQ DBQ20120628021509806/28/12 02:15:31  5-MIN KDBQ 280815Z AUTO 20007KT 8SM CLR 22/21 A2979 1200 90 2400 200/07 RMK AO2
94908KDBQ DBQ20120628022009806/28/12 02:20:31  5-MIN KDBQ 280820Z AUTO 20007KT 8SM CLR 22/20 A2979 1200 90 2300 200/07 RMK AO2
94908KDBQ DBQ20120628022509806/28/12 02:25:31  5-MIN KDBQ 280825Z AUTO 20008KT 8SM CLR 22/20 A2978 1210 90 2300 200/08 RMK AO2
94908KDBQ DBQ20120628023009806/28/12 02:30:31  5-MIN KDBQ 280830Z AUTO 20007KT 8SM CLR 23/21 A2978 1210 87 2400 200/07 RMK AO2
94908KDBQ DBQ20120628023509806/28/12 02:35:31  5-MIN KDBQ 280835Z AUTO 21007KT 8SM CLR 23/21 A2978 1210 87 2400 210/07 RMK AO2
94908KDBQ DBQ20120628024009806/28/12 02:40:31  5-MIN KDBQ 280840Z AUTO 21007KT 8SM CLR 23/21 A2978 1210 87 2400 200/07 RMK AO2
94908KDBQ DBQ20120628024509806/28/12 02:45:31  5-MIN KDBQ 280845Z AUTO 21007KT 8SM CLR 23/21 A2978 1210 87 2400 210/07 RMK AO2
94908KDBQ DBQ20120628025012106/28/12 02:50:31  5-MIN KDBQ 280850Z AUTO 21007KT 8SM CLR 23/21 A2978 1210 87 2400 210/07 RMK AO2 SLP075 T02280206 51006
94908KDBQ DBQ20120628025509806/28/12 02:55:31  5-MIN KDBQ 280855Z AUTO 21006KT 8SM CLR 23/21 A2979 1200 87 2400 210/06 RMK AO2
94908KDBQ DBQ20120628030009806/28/12 03:00:31  5-MIN KDBQ 280900Z AUTO 21005KT 8SM CLR 22/20 A2979 1200 87 2400 210/05 RMK AO2
94908KDBQ DBQ20120628030509806/28/12 03:05:31  5-MIN KDBQ 280905Z AUTO 21004KT 8SM CLR 22/20 A2979 1200 90 2300 210/04 RMK AO2
94908KDBQ DBQ20120628031009806/28/12 03:10:31  5-MIN KDBQ 280910Z AUTO 21004KT 8SM CLR 22/20 A2979 1200 87 2400 210/04 RMK AO2
94908KDBQ DBQ20120628031509806/28/12 03:15:31  5-MIN KDBQ 280915Z AUTO 21004KT 8SM CLR 23/20 A2979 1200 84 2400 210/04 RMK AO2
94908KDBQ DBQ20120628032009806/28/12 03:20:31  5-MIN KDBQ 280920Z AUTO 21005KT 8SM CLR 23/21 A2979 1200 87 2400 210/05 RMK AO2
94908KDBQ DBQ20120628032509806/28/12 03:25:31  5-MIN KDBQ 280925Z AUTO 21006KT 8SM CLR 22/20 A2979 1200 87 2400 210/06 RMK AO2
94908KDBQ DBQ20120628033009806/28/12 03:30:31  5-MIN KDBQ 280930Z AUTO 21006KT 8SM CLR 23/20 A2979 1200 84 2400 210/06 RMK AO2
94908KDBQ DBQ20120628033509806/28/12 03:35:31  5-MIN KDBQ 280935Z AUTO 21006KT 8SM CLR 23/20 A2979 1200 84 2400 210/06 RMK AO2
94908KDBQ DBQ20120628034009806/28/12 03:40:31  5-MIN KDBQ 280940Z AUTO 21007KT 8SM CLR 23/20 A2978 1210 84 2400 210/07 RMK AO2
94908KDBQ DBQ20120628034509806/28/12 03:45:31  5-MIN KDBQ 280945Z AUTO 20007KT 8SM CLR 23/20 A2978 1210 84 2400 200/07 RMK AO2
94908KDBQ DBQ20120628035011506/28/12 03:50:31  5-MIN KDBQ 280950Z AUTO 20009KT 8SM CLR 23/21 A2978 1210 87 2400 200/09 RMK AO2 SLP075 T02280206
94908KDBQ DBQ20120628035509806/28/12 03:55:31  5-MIN KDBQ 280955Z AUTO 20008KT 8SM CLR 23/21 A2978 1210 87 2400 200/08 RMK AO2
94908KDBQ DBQ20120628040009806/28/12 04:00:31  5-MIN KDBQ 281000Z AUTO 21008KT 8SM CLR 23/21 A2978 1210 87 2400 210/08 RMK AO2
94908KDBQ DBQ20120628040509806/28/12 04:05:31  5-MIN KDBQ 281005Z AUTO 21007KT 9SM CLR 23/21 A2978 1210 84 2500 210/07 RMK AO2
94908KDBQ DBQ20120628041009806/28/12 04:10:31  5-MIN KDBQ 281010Z AUTO 19009KT 9SM CLR 23/21 A2978 1210 84 2500 190/09 RMK AO2
94908KDBQ DBQ20120628041511406/28/12 04:15:31  5-MIN KDBQ 281015Z AUTO 28008KT 210V330 9SM CLR 23/21 A2979 1200 84 2500 280/08 210V330 RMK AO2
94908KDBQ DBQ20120628042011606/28/12 04:20:31  5-MIN KDBQ 281020Z AUTO 22007G18KT 9SM CLR 24/20 A2979 1200 78 2500 220/07G18 RMK AO2 LTG DSNT SW
94908KDBQ DBQ20120628042511006/28/12 04:25:31  5-MIN KDBQ 281025Z AUTO 23008KT 9SM CLR 24/21 A2979 1200 81 2500 220/08 RMK AO2 LTG DSNT SW
94908KDBQ DBQ20120628043011006/28/12 04:30:31  5-MIN KDBQ 281030Z AUTO 23009KT 9SM CLR 23/21 A2979 1200 84 2500 230/09 RMK AO2 LTG DSNT SW
94908KDBQ DBQ20120628043512306/28/12 04:35:31  5-MIN KDBQ 281035Z AUTO 22013G18KT 8SM CLR 23/21 A2979 1200 84 2500 220/13G18 RMK AO2 LTG DSNT NE AND SW
94908KDBQ DBQ20120628044012306/28/12 04:40:31  5-MIN KDBQ 281040Z AUTO 22012G18KT 8SM CLR 24/20 A2979 1200 78 2500 220/12G18 RMK AO2 LTG DSNT NE AND SW
94908KDBQ DBQ20120628044511706/28/12 04:45:31  5-MIN KDBQ 281045Z AUTO 22011KT 8SM CLR 24/21 A2979 1200 81 2500 220/11 RMK AO2 LTG DSNT NE AND SW
94908KDBQ DBQ20120628045012206/28/12 04:50:31  5-MIN KDBQ 281050Z 22010KT 8SM CLR 24/21 A2979 1200 81 2500 220/10 RMK AO2 LTG DSNT SW SLP078 T02390206
94908KDBQ DBQ20120628045509306/28/12 04:55:31  5-MIN KDBQ 281055Z 22009KT 8SM CLR 24/21 A2979 1200 81 2500 220/09 RMK AO2
94908KDBQ DBQ20120628050009306/28/12 05:00:31  5-MIN KDBQ 281100Z 22010KT 8SM CLR 24/21 A2979 1200 78 2600 220/10 RMK AO2
94908KDBQ DBQ20120628050509306/28/12 05:05:31  5-MIN KDBQ 281105Z 23011KT 8SM CLR 24/21 A2979 1200 78 2600 230/11 RMK AO2
94908KDBQ DBQ20120628051009306/28/12 05:10:31  5-MIN KDBQ 281110Z 23011KT 8SM CLR 24/21 A2979 1200 78 2600 230/11 RMK AO2
94908KDBQ DBQ20120628051509306/28/12 05:15:31  5-MIN KDBQ 281115Z 23011KT 8SM CLR 24/21 A2979 1200 78 2600 230/11 RMK AO2
94908KDBQ DBQ20120628052009306/28/12 05:20:31  5-MIN KDBQ 281120Z 24011KT 8SM CLR 24/21 A2979 1200 78 2600 240/11 RMK AO2
94908KDBQ DBQ20120628052509306/28/12 05:25:31  5-MIN KDBQ 281125Z 24011KT 8SM CLR 25/21 A2979 1200 76 2700 230/11 RMK AO2
94908KDBQ DBQ20120628053009306/28/12 05:30:31  5-MIN KDBQ 281130Z 24010KT 8SM CLR 25/21 A2980 1190 76 2700 230/10 RMK AO2
94908KDBQ DBQ20120628053509306/28/12 05:35:31  5-MIN KDBQ 281135Z 23009KT 8SM CLR 25/21 A2980 1190 76 2700 230/09 RMK AO2
94908KDBQ DBQ20120628054009306/28/12 05:40:31  5-MIN KDBQ 281140Z 23013KT 8SM CLR 26/21 A2980 1190 73 2700 230/13 RMK AO2
94908KDBQ DBQ20120628054509306/28/12 05:45:31  5-MIN KDBQ 281145Z 23011KT 8SM CLR 26/21 A2980 1190 71 2800 230/11 RMK AO2
94908KDBQ DBQ20120628055012806/28/12 05:50:31  5-MIN KDBQ 281150Z 24011KT 8SM CLR 26/21 A2980 1190 71 2800 240/11 RMK AO2 SLP080 T02610206 10261 20211 58004
94908KDBQ DBQ20120628055509306/28/12 05:55:31  5-MIN KDBQ 281155Z 24011KT 8SM CLR 26/21 A2980 1190 71 2800 240/11 RMK AO2
94908KDBQ DBQ20120628060009306/28/12 06:00:31  5-MIN KDBQ 281200Z 24010KT 8SM CLR 27/21 A2980 1190 71 2800 240/10 RMK AO2
94908KDBQ DBQ20120628060509306/28/12 06:05:31  5-MIN KDBQ 281205Z 24010KT 8SM CLR 27/21 A2980 1190 71 2800 230/10 RMK AO2
94908KDBQ DBQ20120628061009306/28/12 06:10:31  5-MIN KDBQ 281210Z 24012KT 8SM CLR 27/21 A2980 1190 71 2800 240/12 RMK AO2
94908KDBQ DBQ20120628061509306/28/12 06:15:31  5-MIN KDBQ 281215Z 24010KT 8SM CLR 27/21 A2980 1190 69 2900 240/10 RMK AO2
94908KDBQ DBQ20120628062009306/28/12 06:20:31  5-MIN KDBQ 281220Z 25011KT 8SM CLR 28/21 A2980 1190 66 3000 250/11 RMK AO2
94908KDBQ DBQ20120628062509306/28/12 06:25:31  5-MIN KDBQ 281225Z 25012KT 8SM CLR 28/21 A2980 1190 66 3000 250/12 RMK AO2
94908KDBQ DBQ20120628063009306/28/12 06:30:31  5-MIN KDBQ 281230Z 25012KT 8SM CLR 28/21 A2980 1190 66 3000 250/12 RMK AO2
94908KDBQ DBQ20120628063509306/28/12 06:35:31  5-MIN KDBQ 281235Z 26011KT 9SM CLR 28/21 A2981 1180 66 3000 260/11 RMK AO2
94908KDBQ DBQ20120628064009906/28/12 06:40:31  5-MIN KDBQ 281240Z 26011G20KT 9SM CLR 28/21 A2980 1190 66 3000 260/11G20 RMK AO2
94908KDBQ DBQ20120628064509906/28/12 06:45:31  5-MIN KDBQ 281245Z 27012G20KT 9SM CLR 28/21 A2980 1190 66 3000 270/12G20 RMK AO2
94908KDBQ DBQ20120628065011606/28/12 06:50:31  5-MIN KDBQ 281250Z 26013G19KT 9SM CLR 28/21 A2980 1190 64 3000 260/13G19 RMK AO2 SLP081 T02830211
94908KDBQ DBQ20120628065509306/28/12 06:55:31  5-MIN KDBQ 281255Z 26013KT 9SM CLR 28/21 A2980 1190 64 3000 260/13 RMK AO2
94908KDBQ DBQ20120628070009306/28/12 07:00:31  5-MIN KDBQ 281300Z 27013KT 9SM CLR 28/21 A2980 1190 64 3000 270/13 RMK AO2
94908KDBQ DBQ20120628070509306/28/12 07:05:31  5-MIN KDBQ 281305Z 26011KT 8SM CLR 28/21 A2980 1190 64 3000 260/11 RMK AO2
94908KDBQ DBQ20120628071009306/28/12 07:10:31  5-MIN KDBQ 281310Z 27011KT 8SM CLR 28/22 A2981 1180 66 3000 270/11 RMK AO2
94908KDBQ DBQ20120628071509906/28/12 07:15:31  5-MIN KDBQ 281315Z 28010G16KT 9SM CLR 28/22 A2981 1180 66 3000 280/10G16 RMK AO2
94908KDBQ DBQ20120628072009306/28/12 07:20:31  5-MIN KDBQ 281320Z 28008KT 8SM CLR 29/22 A2981 1180 64 3100 280/08 RMK AO2
94908KDBQ DBQ20120628072509306/28/12 07:25:31  5-MIN KDBQ 281325Z 28009KT 8SM CLR 29/22 A2980 1190 64 3100 280/09 RMK AO2
94908KDBQ DBQ20120628073009306/28/12 07:30:31  5-MIN KDBQ 281330Z 28011KT 8SM CLR 29/22 A2980 1190 64 3100 280/11 RMK AO2
94908KDBQ DBQ20120628073509306/28/12 07:35:31  5-MIN KDBQ 281335Z 29011KT 9SM CLR 29/22 A2980 1190 64 3100 290/11 RMK AO2
94908KDBQ DBQ20120628074009306/28/12 07:40:31  5-MIN KDBQ 281340Z 30011KT 8SM CLR 29/22 A2981 1180 64 3100 290/11 RMK AO2
94908KDBQ DBQ20120628074509306/28/12 07:45:31  5-MIN KDBQ 281345Z 29010KT 8SM CLR 29/22 A2980 1190 64 3100 290/10 RMK AO2
94908KDBQ DBQ20120628075011006/28/12 07:50:31  5-MIN KDBQ 281350Z 29010KT 8SM CLR 29/22 A2980 1190 64 3200 290/10 RMK AO2 SLP081 T02940222
94908KDBQ DBQ20120628075509306/28/12 07:55:31  5-MIN KDBQ 281355Z 29012KT 8SM CLR 29/22 A2980 1190 64 3100 290/12 RMK AO2
94908KDBQ DBQ20120628080009306/28/12 08:00:31  5-MIN KDBQ 281400Z 29013KT 8SM CLR 29/22 A2980 1190 64 3200 290/13 RMK AO2
94908KDBQ DBQ20120628080509306/28/12 08:05:31  5-MIN KDBQ 281405Z 28012KT 8SM CLR 29/22 A2980 1190 64 3200 280/12 RMK AO2
94908KDBQ DBQ20120628081009306/28/12 08:10:31  5-MIN KDBQ 281410Z 29010KT 8SM CLR 29/22 A2980 1190 64 3200 290/10 RMK AO2
94908KDBQ DBQ20120628081509306/28/12 08:15:31  5-MIN KDBQ 281415Z 30008KT 8SM CLR 29/23 A2980 1190 67 3100 300/08 RMK AO2
94908KDBQ DBQ20120628082009306/28/12 08:20:31  5-MIN KDBQ 281420Z 29008KT 8SM CLR 30/23 A2980 1190 65 3200 290/08 RMK AO2
94908KDBQ DBQ20120628082509306/28/12 08:25:31  5-MIN KDBQ 281425Z 29006KT 8SM CLR 30/23 A2980 1190 65 3200 290/06 RMK AO2
94908KDBQ DBQ20120628083009306/28/12 08:30:31  5-MIN KDBQ 281430Z 26008KT 8SM CLR 31/23 A2980 1190 62 3300 260/08 RMK AO2
94908KDBQ DBQ20120628083509306/28/12 08:35:31  5-MIN KDBQ 281435Z 28008KT 8SM CLR 30/23 A2981 1180 65 3200 280/08 RMK AO2
94908KDBQ DBQ20120628084009306/28/12 08:40:31  5-MIN KDBQ 281440Z 28008KT 8SM CLR 31/23 A2981 1180 62 3300 280/08 RMK AO2
94908KDBQ DBQ20120628084509306/28/12 08:45:31  5-MIN KDBQ 281445Z 29011KT 8SM CLR 31/23 A2981 1180 62 3300 290/11 RMK AO2
94908KDBQ DBQ20120628085011606/28/12 08:50:31  5-MIN KDBQ 281450Z 29011KT 8SM CLR 29/23 A2982 1170 67 3100 290/11 RMK AO2 SLP087 T02940228 53004
94908KDBQ DBQ20120628085509306/28/12 08:55:31  5-MIN KDBQ 281455Z 29010KT 7SM CLR 30/23 A2982 1180 67 3200 290/10 RMK AO2
94908KDBQ DBQ20120628090009306/28/12 09:00:31  5-MIN KDBQ 281500Z 29007KT 8SM CLR 29/23 A2982 1170 69 3100 290/07 RMK AO2
94908KDBQ DBQ20120628090509306/28/12 09:05:31  5-MIN KDBQ 281505Z 28009KT 7SM CLR 30/23 A2982 1170 67 3200 270/09 RMK AO2
94908KDBQ DBQ20120628091009306/28/12 09:10:31  5-MIN KDBQ 281510Z 28007KT 7SM CLR 31/23 A2981 1180 65 3300 280/07 RMK AO2
94908KDBQ DBQ20120628091509306/28/12 09:15:31  5-MIN KDBQ 281515Z 28006KT 7SM CLR 30/23 A2981 1180 67 3200 280/06 RMK AO2
94908KDBQ DBQ20120628092009306/28/12 09:20:31  5-MIN KDBQ 281520Z 30007KT 7SM CLR 31/23 A2981 1180 65 3300 300/07 RMK AO2
94908KDBQ DBQ20120628092509306/28/12 09:25:31  5-MIN KDBQ 281525Z 33008KT 8SM CLR 31/24 A2981 1180 65 3300 330/08 RMK AO2
94908KDBQ DBQ20120628093009306/28/12 09:30:31  5-MIN KDBQ 281530Z 32006KT 8SM CLR 31/23 A2981 1180 63 3300 320/06 RMK AO2
94908KDBQ DBQ20120628093509306/28/12 09:35:31  5-MIN KDBQ 281535Z 32006KT 8SM CLR 30/23 A2982 1170 67 3200 320/06 RMK AO2
94908KDBQ DBQ20120628094009306/28/12 09:40:31  5-MIN KDBQ 281540Z 29007KT 7SM CLR 30/23 A2982 1170 67 3200 290/07 RMK AO2
94908KDBQ DBQ20120628094509306/28/12 09:45:31  5-MIN KDBQ 281545Z 32007KT 7SM CLR 31/24 A2982 1170 65 3300 320/07 RMK AO2
94908KDBQ DBQ20120628095011006/28/12 09:50:31  5-MIN KDBQ 281550Z 31006KT 8SM CLR 32/24 A2982 1170 63 3400 310/06 RMK AO2 SLP089 T03170239
94908KDBQ DBQ20120628095509306/28/12 09:55:31  5-MIN KDBQ 281555Z 30008KT 8SM CLR 31/24 A2983 1170 65 3300 300/08 RMK AO2
94908KDBQ DBQ20120628100009306/28/12 10:00:31  5-MIN KDBQ 281600Z 29009KT 8SM CLR 32/24 A2983 1170 63 3400 290/09 RMK AO2
94908KDBQ DBQ20120628100509306/28/12 10:05:31  5-MIN KDBQ 281605Z 33008KT 8SM CLR 31/24 A2983 1160 65 3300 330/08 RMK AO2
94908KDBQ DBQ20120628101009306/28/12 10:10:31  5-MIN KDBQ 281610Z 33008KT 8SM CLR 32/24 A2983 1160 65 3400 330/08 RMK AO2
94908KDBQ DBQ20120628101509306/28/12 10:15:31  5-MIN KDBQ 281615Z 30006KT 8SM CLR 32/24 A2983 1160 65 3400 300/06 RMK AO2
94908KDBQ DBQ20120628102009306/28/12 10:20:31  5-MIN KDBQ 281620Z 29007KT 8SM CLR 32/24 A2983 1160 65 3400 290/07 RMK AO2
94908KDBQ DBQ20120628102509306/28/12 10:25:31  5-MIN KDBQ 281625Z 31007KT 8SM CLR 32/24 A2983 1160 63 3400 310/07 RMK AO2
94908KDBQ DBQ20120628103009306/28/12 10:30:31  5-MIN KDBQ 281630Z 32005KT 8SM CLR 32/24 A2983 1170 63 3400 320/05 RMK AO2
94908KDBQ DBQ20120628103509306/28/12 10:35:31  5-MIN KDBQ 281635Z 36006KT 8SM CLR 32/24 A2982 1170 63 3400 360/06 RMK AO2
94908KDBQ DBQ20120628104009306/28/12 10:40:31  5-MIN KDBQ 281640Z 34010KT 8SM CLR 32/24 A2983 1160 63 3400 340/10 RMK AO2
94908KDBQ DBQ20120628104509306/28/12 10:45:31  5-MIN KDBQ 281645Z 33009KT 8SM CLR 33/24 A2984 1160 61 3500 330/09 RMK AO2
94908KDBQ DBQ20120628105011006/28/12 10:50:31  5-MIN KDBQ 281650Z 33009KT 8SM CLR 33/24 A2984 1150 61 3500 330/09 RMK AO2 SLP095 T03280244
94908KDBQ DBQ20120628105509306/28/12 10:55:31  5-MIN KDBQ 281655Z 32010KT 8SM CLR 33/24 A2984 1160 61 3500 320/10 RMK AO2
94908KDBQ DBQ20120628110009306/28/12 11:00:31  5-MIN KDBQ 281700Z 35006KT 8SM CLR 33/24 A2983 1160 61 3500 340/06 RMK AO2
94908KDBQ DBQ20120628110509306/28/12 11:05:31  5-MIN KDBQ 281705Z VRB06KT 8SM CLR 33/24 A2983 1160 59 3500 VRB/06 RMK AO2
94908KDBQ DBQ20120628111009306/28/12 11:10:31  5-MIN KDBQ 281710Z 32006KT 8SM CLR 33/24 A2983 1160 61 3500 320/06 RMK AO2
94908KDBQ DBQ20120628111509306/28/12 11:15:31  5-MIN KDBQ 281715Z VRB05KT 8SM CLR 33/24 A2983 1160 59 3500 VRB/05 RMK AO2
94908KDBQ DBQ20120628112009306/28/12 11:20:31  5-MIN KDBQ 281720Z 33006KT 8SM CLR 33/24 A2983 1160 57 3500 330/06 RMK AO2
94908KDBQ DBQ20120628112509306/28/12 11:25:31  5-MIN KDBQ 281725Z 33008KT 8SM CLR 33/24 A2984 1150 59 3500 330/08 RMK AO2
94908KDBQ DBQ20120628113009306/28/12 11:30:31  5-MIN KDBQ 281730Z 35008KT 8SM CLR 33/24 A2984 1150 59 3500 340/08 RMK AO2
94908KDBQ DBQ20120628113509306/28/12 11:35:31  5-MIN KDBQ 281735Z 33008KT 8SM CLR 33/24 A2984 1150 59 3500 330/08 RMK AO2
94908KDBQ DBQ20120628114009606/28/12 11:40:31  5-MIN KDBQ 281740Z 33007KT 8SM FEW034 33/24 A2985 1150 59 3500 330/07 RMK AO2
94908KDBQ DBQ20120628114509606/28/12 11:45:31  5-MIN KDBQ 281745Z 32008KT 8SM SCT034 33/24 A2985 1140 59 3500 320/08 RMK AO2
94908KDBQ DBQ20120628115013106/28/12 11:50:31  5-MIN KDBQ 281750Z 31010KT 9SM BKN034 33/24 A2985 1140 59 3500 310/10 RMK AO2 SLP099 T03330244 10333 20261 53006
94908KDBQ DBQ20120628115509606/28/12 11:55:31  5-MIN KDBQ 281755Z 32009KT 9SM BKN036 33/24 A2985 1140 59 3500 320/09 RMK AO2
94908KDBQ DBQ20120628120009606/28/12 12:00:31  5-MIN KDBQ 281800Z 31010KT 8SM BKN038 33/24 A2985 1140 61 3500 310/10 RMK AO2
94908KDBQ DBQ20120628120510906/28/12 12:05:31  5-MIN KDBQ 281805Z 33012G16KT 8SM BKN036 OVC049 33/24 A2985 1140 59 3500 320/12G16 RMK AO2
94908KDBQ DBQ20120628121010906/28/12 12:10:31  5-MIN KDBQ 281810Z 32012G16KT 8SM BKN036 OVC049 33/24 A2986 1140 61 3500 320/12G16 RMK AO2
94908KDBQ DBQ20120628121510306/28/12 12:15:31  5-MIN KDBQ 281815Z 33012KT 8SM BKN036 OVC049 32/24 A2986 1140 63 3400 330/12 RMK AO2
94908KDBQ DBQ20120628122010306/28/12 12:20:31  5-MIN KDBQ 281820Z 34015KT 8SM BKN036 OVC049 33/24 A2986 1130 61 3400 330/15 RMK AO2
94908KDBQ DBQ20120628122511006/28/12 12:25:31  5-MIN KDBQ 281825Z 34014KT 9SM BKN036 BKN049 OVC060 32/24 A2986 1130 63 3400 340/14 RMK AO2
94908KDBQ DBQ20120628123010306/28/12 12:30:31  5-MIN KDBQ 281830Z 33014KT 9SM BKN036 BKN055 32/24 A2986 1130 63 3400 330/14 RMK AO2
94908KDBQ DBQ20120628123511006/28/12 12:35:31  5-MIN KDBQ 281835Z 34016KT 9SM BKN036 BKN049 OVC055 33/24 A2986 1130 61 3400 340/16 RMK AO2
94908KDBQ DBQ20120628124010306/28/12 12:40:31  5-MIN KDBQ 281840Z 33016KT 9SM BKN038 OVC050 32/24 A2986 1130 61 3400 330/16 RMK AO2
94908KDBQ DBQ20120628124510306/28/12 12:45:31  5-MIN KDBQ 281845Z 33015KT 9SM BKN038 BKN055 33/24 A2987 1130 59 3400 330/15 RMK AO2
94908KDBQ DBQ20120628125012706/28/12 12:50:31  5-MIN KDBQ 281850Z 35016G22KT 10SM SCT038 BKN055 33/24 A2986 1130 57 3500 350/16G22 RMK AO2 SLP103 T03330239
94908KDBQ DBQ20120628125511006/28/12 12:55:31  5-MIN KDBQ 281855Z 35016G23KT 10SM SCT038 BKN055 33/23 A2987 1130 57 3400 350/16G23 RMK AO2
94908KDBQ DBQ20120628130011006/28/12 13:00:31  5-MIN KDBQ 281900Z 34014G23KT 10SM FEW038 SCT055 33/23 A2987 1130 57 3400 340/14G23 RMK AO2
94908KDBQ DBQ20120628130511006/28/12 13:05:31  5-MIN KDBQ 281905Z 34014G21KT 10SM FEW038 SCT055 33/23 A2987 1130 55 3500 340/14G21 RMK AO2
94908KDBQ DBQ20120628131010306/28/12 13:10:31  5-MIN KDBQ 281910Z 35018G22KT 10SM FEW038 33/23 A2987 1130 55 3500 350/18G22 RMK AO2
94908KDBQ DBQ20120628131510306/28/12 13:15:31  5-MIN KDBQ 281915Z 36016G22KT 10SM FEW055 33/23 A2987 1130 57 3400 360/16G22 RMK AO2
94908KDBQ DBQ20120628132009406/28/12 13:20:31  5-MIN KDBQ 281920Z 36014KT 10SM CLR 33/23 A2987 1130 57 3400 360/14 RMK AO2
94908KDBQ DBQ20120628132509406/28/12 13:25:31  5-MIN KDBQ 281925Z 01013KT 10SM CLR 33/23 A2987 1120 55 3500 010/13 RMK AO2
94908KDBQ DBQ20120628133009406/28/12 13:30:31  5-MIN KDBQ 281930Z 02013KT 10SM CLR 33/23 A2987 1120 57 3400 020/13 RMK AO2
94908KDBQ DBQ20120628133509406/28/12 13:35:31  5-MIN KDBQ 281935Z 03013KT 10SM CLR 33/23 A2987 1130 55 3500 020/13 RMK AO2
94908KDBQ DBQ20120628134009406/28/12 13:40:31  5-MIN KDBQ 281940Z 02010KT 10SM CLR 33/23 A2986 1130 53 3500 020/10 RMK AO2
94908KDBQ DBQ20120628134509406/28/12 13:45:31  5-MIN KDBQ 281945Z 02009KT 10SM CLR 33/23 A2986 1130 53 3500 020/09 RMK AO2
94908KDBQ DBQ20120628135011106/28/12 13:50:31  5-MIN KDBQ 281950Z 03009KT 10SM CLR 33/23 A2986 1140 55 3500 030/09 RMK AO2 SLP100 T03330233
94908KDBQ DBQ20120628135509406/28/12 13:55:31  5-MIN KDBQ 281955Z 04010KT 10SM CLR 33/23 A2986 1140 53 3500 040/10 RMK AO2
94908KDBQ DBQ20120628140009406/28/12 14:00:31  5-MIN KDBQ 282000Z 03009KT 10SM CLR 33/23 A2987 1120 53 3500 030/09 RMK AO2
94908KDBQ DBQ20120628140509406/28/12 14:05:31  5-MIN KDBQ 282005Z 02009KT 10SM CLR 32/23 A2987 1120 57 3400 020/09 RMK AO2
94908KDBQ DBQ20120628141009406/28/12 14:10:31  5-MIN KDBQ 282010Z 05011KT 10SM CLR 32/23 A2984 1160 57 3400 050/11 RMK AO2
94908KDBQ DBQ20120628141510106/28/12 14:15:31  5-MIN KDBQ 282015Z 04012KT 10SM CLR 32/23 A2982 1170 57 3400 040/12 RMK AO2 PRESFR
94908KDBQ DBQ20120628142009406/28/12 14:20:31  5-MIN KDBQ 282020Z 03006KT 10SM CLR 32/23 A2985 1140 58 3300 030/06 RMK AO2
94908KDBQ DBQ20120628142509406/28/12 14:25:31  5-MIN KDBQ 282025Z 00000KT 10SM CLR 32/23 A2987 1130 57 3400 000/00 RMK AO2
94908KDBQ DBQ20120628143009406/28/12 14:30:31  5-MIN KDBQ 282030Z 00000KT 10SM CLR 33/23 A2987 1130 55 3400 000/00 RMK AO2
94908KDBQ DBQ20120628143509406/28/12 14:35:31  5-MIN KDBQ 282035Z VRB05KT 10SM CLR 33/23 A2986 1130 53 3500 VRB/05 RMK AO2
94908KDBQ DBQ20120628144009406/28/12 14:40:31  5-MIN KDBQ 282040Z 02007KT 10SM CLR 33/23 A2986 1130 53 3500 020/07 RMK AO2
94908KDBQ DBQ20120628144509406/28/12 14:45:31  5-MIN KDBQ 282045Z 01005KT 10SM CLR 33/23 A2986 1130 53 3500 360/05 RMK AO2
94908KDBQ DBQ20120628145011706/28/12 14:50:31  5-MIN KDBQ 282050Z 07004KT 10SM CLR 33/23 A2985 1140 55 3500 070/04 RMK AO2 SLP099 T03280228 53012
94908KDBQ DBQ20120628145509406/28/12 14:55:31  5-MIN KDBQ 282055Z 02004KT 10SM CLR 32/23 A2985 1140 57 3400 020/04 RMK AO2
94908KDBQ DBQ20120628150009406/28/12 15:00:31  5-MIN KDBQ 282100Z VRB03KT 10SM CLR 33/23 A2985 1140 55 3500 VRB/03 RMK AO2
94908KDBQ DBQ20120628150509406/28/12 15:05:31  5-MIN KDBQ 282105Z 00000KT 10SM CLR 33/23 A2987 1130 55 3400 000/00 RMK AO2
94908KDBQ DBQ20120628151009406/28/12 15:10:31  5-MIN KDBQ 282110Z 32003KT 10SM CLR 33/23 A2987 1120 55 3400 320/03 RMK AO2
94908KDBQ DBQ20120628151509406/28/12 15:15:31  5-MIN KDBQ 282115Z 31005KT 10SM CLR 33/23 A2987 1120 55 3500 310/05 RMK AO2
94908KDBQ DBQ20120628152009406/28/12 15:20:31  5-MIN KDBQ 282120Z 33008KT 10SM CLR 33/23 A2988 1120 55 3400 330/08 RMK AO2
94908KDBQ DBQ20120628152509406/28/12 15:25:31  5-MIN KDBQ 282125Z 33009KT 10SM CLR 33/23 A2988 1120 53 3500 330/09 RMK AO2
94908KDBQ DBQ20120628153009406/28/12 15:30:31  5-MIN KDBQ 282130Z 33009KT 10SM CLR 34/23 A2988 1120 53 3500 330/09 RMK AO2
94908KDBQ DBQ20120628153509406/28/12 15:35:31  5-MIN KDBQ 282135Z 32011KT 10SM CLR 34/23 A2988 1110 51 3500 320/11 RMK AO2
94908KDBQ DBQ20120628154009406/28/12 15:40:31  5-MIN KDBQ 282140Z 33010KT 10SM CLR 33/23 A2988 1110 53 3500 330/10 RMK AO2
94908KDBQ DBQ20120628154509406/28/12 15:45:31  5-MIN KDBQ 282145Z 33009KT 10SM CLR 33/23 A2988 1110 53 3500 330/09 RMK AO2
94908KDBQ DBQ20120628155011106/28/12 15:50:31  5-MIN KDBQ 282150Z 33010KT 10SM CLR 33/23 A2988 1110 53 3500 330/10 RMK AO2 SLP109 T03330228
94908KDBQ DBQ20120628155509406/28/12 15:55:31  5-MIN KDBQ 282155Z 33010KT 10SM CLR 32/23 A2988 1110 57 3400 330/10 RMK AO2
94908KDBQ DBQ20120628160009406/28/12 16:00:31  5-MIN KDBQ 282200Z 33010KT 10SM CLR 32/22 A2989 1110 56 3300 330/10 RMK AO2
94908KDBQ DBQ20120628160509406/28/12 16:05:31  5-MIN KDBQ 282205Z 33008KT 10SM CLR 32/23 A2988 1110 57 3400 330/08 RMK AO2
94908KDBQ DBQ20120628161009406/28/12 16:10:31  5-MIN KDBQ 282210Z 34011KT 10SM CLR 32/23 A2988 1120 57 3400 340/11 RMK AO2
94908KDBQ DBQ20120628161509406/28/12 16:15:31  5-MIN KDBQ 282215Z 36013KT 10SM CLR 32/23 A2987 1130 57 3400 360/13 RMK AO2
94908KDBQ DBQ20120628162010106/28/12 16:20:31  5-MIN KDBQ 282220Z 36013KT 10SM CLR 32/23 A2985 1140 58 3300 360/13 RMK AO2 PRESFR
94908KDBQ DBQ20120628162509406/28/12 16:25:31  5-MIN KDBQ 282225Z 36009KT 10SM CLR 32/23 A2986 1130 58 3300 360/09 RMK AO2
94908KDBQ DBQ20120628163009406/28/12 16:30:31  5-MIN KDBQ 282230Z 36010KT 10SM CLR 32/23 A2986 1130 57 3400 360/10 RMK AO2
94908KDBQ DBQ20120628163509406/28/12 16:35:31  5-MIN KDBQ 282235Z 01009KT 10SM CLR 33/23 A2986 1130 55 3400 010/09 RMK AO2
94908KDBQ DBQ20120628164009406/28/12 16:40:31  5-MIN KDBQ 282240Z 01009KT 10SM CLR 33/23 A2986 1130 55 3400 010/09 RMK AO2
94908KDBQ DBQ20120628164509406/28/12 16:45:31  5-MIN KDBQ 282245Z 36008KT 10SM CLR 32/22 A2987 1130 55 3400 360/08 RMK AO2
94908KDBQ DBQ20120628165011106/28/12 16:50:31  5-MIN KDBQ 282250Z 35010KT 10SM CLR 32/22 A2987 1130 56 3300 350/10 RMK AO2 SLP105 T03170222
94908KDBQ DBQ20120628165509406/28/12 16:55:31  5-MIN KDBQ 282255Z 36008KT 10SM CLR 33/23 A2987 1120 55 3400 350/08 RMK AO2
94908KDBQ DBQ20120628170009406/28/12 17:00:31  5-MIN KDBQ 282300Z 34009KT 10SM CLR 33/22 A2988 1120 53 3400 340/09 RMK AO2
94908KDBQ DBQ20120628170509406/28/12 17:05:31  5-MIN KDBQ 282305Z 32007KT 10SM CLR 33/23 A2988 1120 55 3400 320/07 RMK AO2
94908KDBQ DBQ20120628171009406/28/12 17:10:31  5-MIN KDBQ 282310Z 33008KT 10SM CLR 32/23 A2988 1120 57 3400 330/08 RMK AO2
94908KDBQ DBQ20120628171509406/28/12 17:15:31  5-MIN KDBQ 282315Z 31008KT 10SM CLR 32/23 A2989 1110 59 3400 310/08 RMK AO2
94908KDBQ DBQ20120628172009406/28/12 17:20:31  5-MIN KDBQ 282320Z 30009KT 10SM CLR 32/23 A2989 1110 59 3400 300/09 RMK AO2
94908KDBQ DBQ20120628172509406/28/12 17:25:31  5-MIN KDBQ 282325Z 32008KT 10SM CLR 32/23 A2989 1110 57 3400 320/08 RMK AO2
94908KDBQ DBQ20120628173009406/28/12 17:30:31  5-MIN KDBQ 282330Z 34011KT 10SM CLR 32/23 A2989 1110 57 3400 340/11 RMK AO2
94908KDBQ DBQ20120628173509406/28/12 17:35:31  5-MIN KDBQ 282335Z 33010KT 10SM CLR 32/22 A2989 1110 56 3300 330/10 RMK AO2
94908KDBQ DBQ20120628174009406/28/12 17:40:31  5-MIN KDBQ 282340Z 34011KT 10SM CLR 32/22 A2989 1110 55 3300 330/11 RMK AO2
94908KDBQ DBQ20120628174509406/28/12 17:45:31  5-MIN KDBQ 282345Z 34011KT 10SM CLR 31/21 A2989 1110 54 3200 340/11 RMK AO2
94908KDBQ DBQ20120628175012906/28/12 17:50:31  5-MIN KDBQ 282350Z 34011KT 10SM CLR 31/21 A2989 1110 54 3200 340/11 RMK AO2 SLP111 T03110211 10339 20311 58001
94908KDBQ DBQ20120628175509406/28/12 17:55:31  5-MIN KDBQ 282355Z 34008KT 10SM CLR 31/21 A2989 1110 54 3200 340/08 RMK AO2
94908KDBQ DBQ20120628180009406/28/12 18:00:31  5-MIN KDBQ 290000Z 33008KT 10SM CLR 31/21 A2989 1100 54 3200 330/08 RMK AO2
94908KDBQ DBQ20120628180509406/28/12 18:05:31  5-MIN KDBQ 290005Z 33009KT 10SM CLR 31/21 A2989 1100 56 3200 330/09 RMK AO2
94908KDBQ DBQ20120628181009406/28/12 18:10:31  5-MIN KDBQ 290010Z 33009KT 10SM CLR 30/21 A2990 1100 56 3100 330/09 RMK AO2
94908KDBQ DBQ20120628181509406/28/12 18:15:31  5-MIN KDBQ 290015Z 34007KT 10SM CLR 29/21 A2990 1100 58 3000 340/07 RMK AO2
94908KDBQ DBQ20120628182009406/28/12 18:20:31  5-MIN KDBQ 290020Z 34008KT 10SM CLR 29/21 A2990 1100 60 3000 340/08 RMK AO2
94908KDBQ DBQ20120628182509406/28/12 18:25:31  5-MIN KDBQ 290025Z 34011KT 10SM CLR 29/19 A2990 1100 54 3000 340/11 RMK AO2
94908KDBQ DBQ20120628183009406/28/12 18:30:31  5-MIN KDBQ 290030Z 35010KT 10SM CLR 29/19 A2989 1100 52 3000 350/10 RMK AO2
94908KDBQ DBQ20120628183509406/28/12 18:35:31  5-MIN KDBQ 290035Z 34009KT 10SM CLR 29/19 A2990 1100 54 3000 340/09 RMK AO2
94908KDBQ DBQ20120628184009406/28/12 18:40:31  5-MIN KDBQ 290040Z 34007KT 10SM CLR 29/19 A2990 1100 54 3000 330/07 RMK AO2
94908KDBQ DBQ20120628184509406/28/12 18:45:31  5-MIN KDBQ 290045Z 34007KT 10SM CLR 29/19 A2990 1100 54 3000 340/07 RMK AO2
94908KDBQ DBQ20120628185011106/28/12 18:50:31  5-MIN KDBQ 290050Z 34006KT 10SM CLR 29/18 A2990 1100 52 3000 340/06 RMK AO2 SLP115 T02890183
94908KDBQ DBQ20120628185509406/28/12 18:55:31  5-MIN KDBQ 290055Z 34006KT 10SM CLR 28/18 A2990 1100 54 2900 340/06 RMK AO2
94908KDBQ DBQ20120628190010406/28/12 19:00:31  5-MIN KDBQ 290100Z AUTO 34008KT 10SM CLR 28/17 A2990 1100 50 2900 340/08 RMK AO2 TSNO
94908KDBQ DBQ20120628190510406/28/12 19:05:31  5-MIN KDBQ 290105Z AUTO 35009KT 10SM CLR 28/17 A2989 1100 50 2900 350/09 RMK AO2 TSNO
94908KDBQ DBQ20120628191010406/28/12 19:10:31  5-MIN KDBQ 290110Z AUTO 35009KT 10SM CLR 28/17 A2989 1100 48 2900 350/09 RMK AO2 TSNO
94908KDBQ DBQ20120628191510406/28/12 19:15:31  5-MIN KDBQ 290115Z AUTO 36010KT 10SM CLR 28/16 A2989 1110 48 2900 350/10 RMK AO2 TSNO
94908KDBQ DBQ20120628192010406/28/12 19:20:31  5-MIN KDBQ 290120Z AUTO 36010KT 10SM CLR 28/16 A2989 1110 46 2900 360/10 RMK AO2 TSNO
94908KDBQ DBQ20120628192510406/28/12 19:25:31  5-MIN KDBQ 290125Z AUTO 01009KT 10SM CLR 28/16 A2988 1120 46 2900 360/09 RMK AO2 TSNO
94908KDBQ DBQ20120628193010406/28/12 19:30:31  5-MIN KDBQ 290130Z AUTO 01008KT 10SM CLR 28/16 A2988 1120 46 2900 010/08 RMK AO2 TSNO
94908KDBQ DBQ20120628193510406/28/12 19:35:31  5-MIN KDBQ 290135Z AUTO 36006KT 10SM CLR 28/15 A2988 1120 45 2900 360/06 RMK AO2 TSNO
94908KDBQ DBQ20120628194010406/28/12 19:40:31  5-MIN KDBQ 290140Z AUTO 36006KT 10SM CLR 27/16 A2989 1110 50 2700 350/06 RMK AO2 TSNO
94908KDBQ DBQ20120628194510406/28/12 19:45:31  5-MIN KDBQ 290145Z AUTO 35004KT 10SM CLR 26/16 A2989 1110 51 2700 340/04 RMK AO2 TSNO
94908KDBQ DBQ20120628195012106/28/12 19:50:31  5-MIN KDBQ 290150Z AUTO 36004KT 10SM CLR 26/16 A2989 1110 53 2600 360/04 RMK AO2 SLP111 T02560156 TSNO
94908KDBQ DBQ20120628195510406/28/12 19:55:31  5-MIN KDBQ 290155Z AUTO 01006KT 10SM CLR 26/15 A2988 1110 51 2600 010/06 RMK AO2 TSNO
94908KDBQ DBQ20120628200010406/28/12 20:00:31  5-MIN KDBQ 290200Z AUTO 01006KT 10SM CLR 26/15 A2989 1110 51 2600 010/06 RMK AO2 TSNO
94908KDBQ DBQ20120628200510406/28/12 20:05:31  5-MIN KDBQ 290205Z AUTO 36005KT 10SM CLR 26/14 A2989 1110 48 2700 360/05 RMK AO2 TSNO
94908KDBQ DBQ20120628201010406/28/12 20:10:31  5-MIN KDBQ 290210Z AUTO 35004KT 10SM CLR 26/14 A2990 1100 49 2600 350/04 RMK AO2 TSNO
94908KDBQ DBQ20120628201510406/28/12 20:15:31  5-MIN KDBQ 290215Z AUTO 33003KT 10SM CLR 25/14 A2990 1100 51 2500 330/03 RMK AO2 TSNO
94908KDBQ DBQ20120628202010406/28/12 20:20:31  5-MIN KDBQ 290220Z AUTO 00000KT 10SM CLR 26/14 A2990 1100 49 2600 000/00 RMK AO2 TSNO
94908KDBQ DBQ20120628202510406/28/12 20:25:31  5-MIN KDBQ 290225Z AUTO 00000KT 10SM CLR 26/14 A2990 1090 48 2700 000/00 RMK AO2 TSNO
94908KDBQ DBQ20120628203010406/28/12 20:30:31  5-MIN KDBQ 290230Z AUTO 35003KT 10SM CLR 26/14 A2991 1090 48 2700 350/03 RMK AO2 TSNO
94908KDBQ DBQ20120628203510406/28/12 20:35:31  5-MIN KDBQ 290235Z AUTO 35004KT 10SM CLR 26/14 A2991 1090 48 2700 350/04 RMK AO2 TSNO
94908KDBQ DBQ20120628204010406/28/12 20:40:31  5-MIN KDBQ 290240Z AUTO 35005KT 10SM CLR 26/14 A2991 1090 46 2700 350/05 RMK AO2 TSNO
94908KDBQ DBQ20120628204510406/28/12 20:45:31  5-MIN KDBQ 290245Z AUTO 35005KT 10SM CLR 25/14 A2991 1090 49 2500 350/05 RMK AO2 TSNO
94908KDBQ DBQ20120628205012706/28/12 20:50:31  5-MIN KDBQ 290250Z AUTO 36007KT 10SM CLR 24/14 A2991 1090 53 2400 360/07 RMK AO2 SLP120 T02390139 51013 TSNO
94908KDBQ DBQ20120628205510406/28/12 20:55:31  5-MIN KDBQ 290255Z AUTO 36008KT 10SM CLR 24/14 A2991 1090 53 2400 350/08 RMK AO2 TSNO
94908KDBQ DBQ20120628210010406/28/12 21:00:31  5-MIN KDBQ 290300Z AUTO 36007KT 10SM CLR 24/14 A2991 1090 53 2400 350/07 RMK AO2 TSNO
94908KDBQ DBQ20120628210510406/28/12 21:05:31  5-MIN KDBQ 290305Z AUTO 35006KT 10SM CLR 23/14 A2991 1090 55 2300 350/06 RMK AO2 TSNO
94908KDBQ DBQ20120628211010406/28/12 21:10:31  5-MIN KDBQ 290310Z AUTO 36006KT 10SM CLR 24/14 A2991 1090 53 2400 360/06 RMK AO2 TSNO
94908KDBQ DBQ20120628211510406/28/12 21:15:31  5-MIN KDBQ 290315Z AUTO 35006KT 10SM CLR 24/13 A2991 1090 51 2400 350/06 RMK AO2 TSNO
94908KDBQ DBQ20120628212010406/28/12 21:20:31  5-MIN KDBQ 290320Z AUTO 36006KT 10SM CLR 23/13 A2991 1090 53 2300 360/06 RMK AO2 TSNO
94908KDBQ DBQ20120628212510406/28/12 21:25:31  5-MIN KDBQ 290325Z AUTO 35006KT 10SM CLR 23/13 A2991 1090 53 2300 350/06 RMK AO2 TSNO
94908KDBQ DBQ20120628213010406/28/12 21:30:31  5-MIN KDBQ 290330Z AUTO 36006KT 10SM CLR 23/13 A2991 1090 55 2300 360/06 RMK AO2 TSNO
94908KDBQ DBQ20120628213510406/28/12 21:35:31  5-MIN KDBQ 290335Z AUTO 01006KT 10SM CLR 23/13 A2991 1090 55 2300 010/06 RMK AO2 TSNO
94908KDBQ DBQ20120628214010406/28/12 21:40:31  5-MIN KDBQ 290340Z AUTO 36007KT 10SM CLR 23/13 A2991 1090 55 2300 360/07 RMK AO2 TSNO
94908KDBQ DBQ20120628214510406/28/12 21:45:31  5-MIN KDBQ 290345Z AUTO 36006KT 10SM CLR 23/13 A2991 1090 53 2300 360/06 RMK AO2 TSNO
94908KDBQ DBQ20120628215012106/28/12 21:50:31  5-MIN KDBQ 290350Z AUTO 35006KT 10SM CLR 23/13 A2991 1080 55 2300 350/06 RMK AO2 SLP121 T02280133 TSNO
94908KDBQ DBQ20120628215510406/28/12 21:55:31  5-MIN KDBQ 290355Z AUTO 35005KT 10SM CLR 22/13 A2992 1080 56 2200 350/05 RMK AO2 TSNO
94908KDBQ DBQ20120628220010406/28/12 22:00:31  5-MIN KDBQ 290400Z AUTO 35004KT 10SM CLR 22/13 A2992 1080 56 2200 350/04 RMK AO2 TSNO
94908KDBQ DBQ20120628220510406/28/12 22:05:31  5-MIN KDBQ 290405Z AUTO 36007KT 10SM CLR 22/13 A2991 1090 56 2200 360/07 RMK AO2 TSNO
94908KDBQ DBQ20120628221010406/28/12 22:10:31  5-MIN KDBQ 290410Z AUTO 35006KT 10SM CLR 22/13 A2992 1080 54 2200 350/06 RMK AO2 TSNO
94908KDBQ DBQ20120628221510406/28/12 22:15:31  5-MIN KDBQ 290415Z AUTO 00000KT 10SM CLR 22/13 A2992 1080 54 2200 000/00 RMK AO2 TSNO
94908KDBQ DBQ20120628222010406/28/12 22:20:31  5-MIN KDBQ 290420Z AUTO 00000KT 10SM CLR 22/13 A2992 1080 56 2200 000/00 RMK AO2 TSNO
94908KDBQ DBQ20120628222510406/28/12 22:25:31  5-MIN KDBQ 290425Z AUTO 00000KT 10SM CLR 22/13 A2992 1080 54 2200 000/00 RMK AO2 TSNO
94908KDBQ DBQ20120628223010406/28/12 22:30:31  5-MIN KDBQ 290430Z AUTO 00000KT 10SM CLR 23/13 A2992 1070 53 2300 000/00 RMK AO2 TSNO
94908KDBQ DBQ20120628223510406/28/12 22:35:31  5-MIN KDBQ 290435Z AUTO 36003KT 10SM CLR 23/13 A2993 1070 53 2300 360/03 RMK AO2 TSNO
94908KDBQ DBQ20120628224010406/28/12 22:40:31  5-MIN KDBQ 290440Z AUTO 01004KT 10SM CLR 23/13 A2993 1070 53 2300 360/04 RMK AO2 TSNO
94908KDBQ DBQ20120628224510406/28/12 22:45:31  5-MIN KDBQ 290445Z AUTO 36004KT 10SM CLR 24/12 A2993 1070 47 2400 360/04 RMK AO2 TSNO
94908KDBQ DBQ20120628225012106/28/12 22:50:31  5-MIN KDBQ 290450Z AUTO 35004KT 10SM CLR 23/12 A2993 1070 49 2300 350/04 RMK AO2 SLP125 T02330122 TSNO
94908KDBQ DBQ20120628225510406/28/12 22:55:31  5-MIN KDBQ 290455Z AUTO 36005KT 10SM CLR 24/12 A2993 1070 46 2400 360/05 RMK AO2 TSNO
94908KDBQ DBQ20120628230010406/28/12 23:00:31  5-MIN KDBQ 290500Z AUTO 01006KT 10SM CLR 23/12 A2992 1080 49 2300 010/06 RMK AO2 TSNO
94908KDBQ DBQ20120628230510406/28/12 23:05:31  5-MIN KDBQ 290505Z AUTO 02006KT 10SM CLR 22/12 A2992 1080 52 2200 010/06 RMK AO2 TSNO
94908KDBQ DBQ20120628231010406/28/12 23:10:31  5-MIN KDBQ 290510Z AUTO 01008KT 10SM CLR 22/13 A2992 1070 54 2200 010/08 RMK AO2 TSNO
94908KDBQ DBQ20120628231510406/28/12 23:15:31  5-MIN KDBQ 290515Z AUTO 36008KT 10SM CLR 22/13 A2993 1070 54 2200 360/08 RMK AO2 TSNO
94908KDBQ DBQ20120628232010406/28/12 23:20:31  5-MIN KDBQ 290520Z AUTO 01008KT 10SM CLR 23/12 A2992 1070 51 2300 010/08 RMK AO2 TSNO
94908KDBQ DBQ20120628232510406/28/12 23:25:31  5-MIN KDBQ 290525Z AUTO 01007KT 10SM CLR 22/13 A2992 1070 54 2200 010/07 RMK AO2 TSNO
94908KDBQ DBQ20120628233010406/28/12 23:30:31  5-MIN KDBQ 290530Z AUTO 01006KT 10SM CLR 22/12 A2993 1070 52 2200 010/06 RMK AO2 TSNO
94908KDBQ DBQ20120628233510406/28/12 23:35:31  5-MIN KDBQ 290535Z AUTO 01007KT 10SM CLR 22/12 A2992 1080 54 2100 010/07 RMK AO2 TSNO
94908KDBQ DBQ20120628234010406/28/12 23:40:31  5-MIN KDBQ 290540Z AUTO 36007KT 10SM CLR 22/12 A2992 1070 54 2100 360/07 RMK AO2 TSNO
94908KDBQ DBQ20120628234510406/28/12 23:45:31  5-MIN KDBQ 290545Z AUTO 01007KT 10SM CLR 22/12 A2993 1070 54 2100 010/07 RMK AO2 TSNO
94908KDBQ DBQ20120628235014906/28/12 23:50:31  5-MIN KDBQ 290550Z AUTO 01008KT 10SM CLR 22/12 A2992 1080 54 2100 010/08 RMK AO2 SLP123 T02170122 10311 20217 403390211 53008 TSNO
94908KDBQ DBQ20120628235510406/28/12 23:55:31  5-MIN KDBQ 290555Z AUTO 01007KT 10SM CLR 22/12 A2993 1070 54 2100 010/07 RMK AO2 TSNO
94908KDBQ DBQ20120629000010406/29/12 00:00:38  5-MIN KDBQ 290600Z AUTO 36007KT 10SM CLR 22/12 A2993 1070 54 2100 360/07 RMK AO2 TSNO
94908KDBQ DBQ20120629000510406/29/12 00:05:31  5-MIN KDBQ 290605Z AUTO 01007KT 10SM CLR 22/12 A2993 1070 54 2100 010/07 RMK AO2 TSNO
94908KDBQ DBQ20120629001010406/29/12 00:10:31  5-MIN KDBQ 290610Z AUTO 01007KT 10SM CLR 22/12 A2993 1070 54 2100 010/07 RMK AO2 TSNO
94908KDBQ DBQ20120629001510406/29/12 00:15:33  5-MIN KDBQ 290615Z AUTO 01008KT 10SM CLR 22/12 A2993 1070 54 2100 010/08 RMK AO2 TSNO
94908KDBQ DBQ20120629002010406/29/12 00:20:31  5-MIN KDBQ 290620Z AUTO 02008KT 10SM CLR 22/12 A2993 1070 54 2100 020/08 RMK AO2 TSNO
94908KDBQ DBQ20120629002510406/29/12 00:25:31  5-MIN KDBQ 290625Z AUTO 02006KT 10SM CLR 21/12 A2993 1070 56 2100 020/06 RMK AO2 TSNO
94908KDBQ DBQ20120629003010406/29/12 00:30:31  5-MIN KDBQ 290630Z AUTO 02007KT 10SM CLR 21/13 A2993 1070 58 2100 020/07 RMK AO2 TSNO
94908KDBQ DBQ20120629003510406/29/12 00:35:31  5-MIN KDBQ 290635Z AUTO 03007KT 10SM CLR 21/13 A2993 1070 58 2100 030/07 RMK AO2 TSNO
94908KDBQ DBQ20120629004010406/29/12 00:40:31  5-MIN KDBQ 290640Z AUTO 03007KT 10SM CLR 21/13 A2992 1080 60 2000 030/07 RMK AO2 TSNO
94908KDBQ DBQ20120629004510406/29/12 00:45:31  5-MIN KDBQ 290645Z AUTO 03009KT 10SM CLR 21/13 A2992 1080 58 2100 030/09 RMK AO2 TSNO
94908KDBQ DBQ20120629005012106/29/12 00:50:31  5-MIN KDBQ 290650Z AUTO 03009KT 10SM CLR 21/13 A2992 1080 58 2100 030/09 RMK AO2 SLP122 T02110128 TSNO
94908KDBQ DBQ20120629005510406/29/12 00:55:31  5-MIN KDBQ 290655Z AUTO 04009KT 10SM CLR 21/13 A2991 1090 58 2100 040/09 RMK AO2 TSNO
94908KDBQ DBQ20120629010010406/29/12 01:00:31  5-MIN KDBQ 290700Z AUTO 03010KT 10SM CLR 21/13 A2991 1090 58 2100 030/10 RMK AO2 TSNO
94908KDBQ DBQ20120629010510406/29/12 01:05:31  5-MIN KDBQ 290705Z AUTO 04009KT 10SM CLR 21/13 A2991 1090 58 2100 030/09 RMK AO2 TSNO
94908KDBQ DBQ20120629011010406/29/12 01:10:31  5-MIN KDBQ 290710Z AUTO 03008KT 10SM CLR 21/13 A2991 1090 58 2100 030/08 RMK AO2 TSNO
94908KDBQ DBQ20120629011510406/29/12 01:15:31  5-MIN KDBQ 290715Z AUTO 03006KT 10SM CLR 21/13 A2991 1090 60 2000 030/06 RMK AO2 TSNO
94908KDBQ DBQ20120629012010406/29/12 01:20:31  5-MIN KDBQ 290720Z AUTO 02005KT 10SM CLR 21/13 A2992 1080 60 2000 010/05 RMK AO2 TSNO
94908KDBQ DBQ20120629012510406/29/12 01:25:31  5-MIN KDBQ 290725Z AUTO 02005KT 10SM CLR 20/13 A2992 1080 63 2000 020/05 RMK AO2 TSNO
94908KDBQ DBQ20120629013010406/29/12 01:30:31  5-MIN KDBQ 290730Z AUTO 03003KT 10SM CLR 20/13 A2992 1080 63 1900 020/03 RMK AO2 TSNO
94908KDBQ DBQ20120629013510406/29/12 01:35:31  5-MIN KDBQ 290735Z AUTO 01003KT 10SM CLR 20/13 A2993 1070 63 1900 010/03 RMK AO2 TSNO
94908KDBQ DBQ20120629014010406/29/12 01:40:31  5-MIN KDBQ 290740Z AUTO 01003KT 10SM CLR 20/13 A2993 1070 63 1900 010/03 RMK AO2 TSNO
94908KDBQ DBQ20120629014510406/29/12 01:45:31  5-MIN KDBQ 290745Z AUTO 02005KT 10SM CLR 20/13 A2993 1070 63 1900 020/05 RMK AO2 TSNO
94908KDBQ DBQ20120629015012106/29/12 01:50:31  5-MIN KDBQ 290750Z AUTO 02005KT 10SM CLR 20/13 A2993 1070 65 1900 020/05 RMK AO2 SLP126 T02000133 TSNO
94908KDBQ DBQ20120629015510406/29/12 01:55:31  5-MIN KDBQ 290755Z AUTO 03003KT 10SM CLR 19/13 A2993 1070 67 1900 030/03 RMK AO2 TSNO
94908KDBQ DBQ20120629020010406/29/12 02:00:31  5-MIN KDBQ 290800Z AUTO 05003KT 10SM CLR 20/13 A2992 1080 65 1900 040/03 RMK AO2 TSNO
94908KDBQ DBQ20120629020510406/29/12 02:05:31  5-MIN KDBQ 290805Z AUTO 00000KT 10SM CLR 21/14 A2992 1080 65 2000 000/00 RMK AO2 TSNO
94908KDBQ DBQ20120629021010406/29/12 02:10:31  5-MIN KDBQ 290810Z AUTO 00000KT 10SM CLR 21/14 A2992 1080 65 2000 000/00 RMK AO2 TSNO
94908KDBQ DBQ20120629021510406/29/12 02:15:31  5-MIN KDBQ 290815Z AUTO 00000KT 10SM CLR 21/14 A2992 1080 65 2000 000/00 RMK AO2 TSNO
94908KDBQ DBQ20120629022010406/29/12 02:20:31  5-MIN KDBQ 290820Z AUTO 00000KT 10SM CLR 20/14 A2992 1080 67 1900 000/00 RMK AO2 TSNO
94908KDBQ DBQ20120629022510406/29/12 02:25:31  5-MIN KDBQ 290825Z AUTO 00000KT 10SM CLR 19/14 A2993 1070 70 1900 000/00 RMK AO2 TSNO
94908KDBQ DBQ20120629023010706/29/12 02:30:31  5-MIN KDBQ 290830Z AUTO 00000KT 10SM FEW055 20/14 A2993 1070 67 1900 000/00 RMK AO2 TSNO
94908KDBQ DBQ20120629023510706/29/12 02:35:31  5-MIN KDBQ 290835Z AUTO 00000KT 10SM SCT055 20/14 A2993 1070 67 1900 000/00 RMK AO2 TSNO
94908KDBQ DBQ20120629024010706/29/12 02:40:31  5-MIN KDBQ 290840Z AUTO 00000KT 10SM SCT060 21/13 A2992 1070 63 2000 000/00 RMK AO2 TSNO
94908KDBQ DBQ20120629024510706/29/12 02:45:31  5-MIN KDBQ 290845Z AUTO 04004KT 10SM SCT060 20/14 A2992 1080 67 2000 040/04 RMK AO2 TSNO
94908KDBQ DBQ20120629025013006/29/12 02:50:31  5-MIN KDBQ 290850Z AUTO 05005KT 10SM SCT060 21/14 A2992 1080 65 2000 050/05 RMK AO2 SLP122 T02060139 50005 TSNO
94908KDBQ DBQ20120629025510706/29/12 02:55:31  5-MIN KDBQ 290855Z AUTO 03005KT 10SM SCT060 20/14 A2992 1080 67 2000 030/05 RMK AO2 TSNO
94908KDBQ DBQ20120629030010706/29/12 03:00:31  5-MIN KDBQ 290900Z AUTO 04004KT 10SM FEW060 19/14 A2992 1080 70 1900 040/04 RMK AO2 TSNO
94908KDBQ DBQ20120629030510706/29/12 03:05:31  5-MIN KDBQ 290905Z AUTO 04005KT 10SM FEW060 20/14 A2992 1080 67 2000 040/05 RMK AO2 TSNO
94908KDBQ DBQ20120629031010406/29/12 03:10:31  5-MIN KDBQ 290910Z AUTO 05004KT 10SM CLR 20/14 A2992 1080 67 2000 040/04 RMK AO2 TSNO
94908KDBQ DBQ20120629031510706/29/12 03:15:31  5-MIN KDBQ 290915Z AUTO 04005KT 10SM FEW065 20/14 A2991 1080 67 2000 040/05 RMK AO2 TSNO
94908KDBQ DBQ20120629032010706/29/12 03:20:31  5-MIN KDBQ 290920Z AUTO 04005KT 10SM SCT065 20/14 A2991 1090 67 2000 040/05 RMK AO2 TSNO
94908KDBQ DBQ20120629032510706/29/12 03:25:31  5-MIN KDBQ 290925Z AUTO 03005KT 10SM FEW065 20/14 A2992 1080 67 2000 030/05 RMK AO2 TSNO
94908KDBQ DBQ20120629033010706/29/12 03:30:31  5-MIN KDBQ 290930Z AUTO 03005KT 10SM FEW065 20/14 A2991 1080 67 2000 030/05 RMK AO2 TSNO
94908KDBQ DBQ20120629033510706/29/12 03:35:31  5-MIN KDBQ 290935Z AUTO 05005KT 10SM FEW065 20/14 A2991 1090 67 2000 040/05 RMK AO2 TSNO
94908KDBQ DBQ20120629034010706/29/12 03:40:31  5-MIN KDBQ 290940Z AUTO 04005KT 10SM FEW065 20/14 A2991 1080 67 2000 040/05 RMK AO2 TSNO
94908KDBQ DBQ20120629034510706/29/12 03:45:31  5-MIN KDBQ 290945Z AUTO 05003KT 10SM FEW065 20/14 A2992 1080 67 2000 040/03 RMK AO2 TSNO
94908KDBQ DBQ20120629035012106/29/12 03:50:31  5-MIN KDBQ 290950Z AUTO 00000KT 10SM CLR 20/14 A2992 1080 67 2000 000/00 RMK AO2 SLP122 T02000139 TSNO
94908KDBQ DBQ20120629035510406/29/12 03:55:31  5-MIN KDBQ 290955Z AUTO 00000KT 10SM CLR 19/14 A2992 1080 70 1900 000/00 RMK AO2 TSNO
94908KDBQ DBQ20120629040010406/29/12 04:00:31  5-MIN KDBQ 291000Z AUTO 00000KT 10SM CLR 19/14 A2992 1080 72 1900 000/00 RMK AO2 TSNO
94908KDBQ DBQ20120629040510406/29/12 04:05:31  5-MIN KDBQ 291005Z AUTO 00000KT 10SM CLR 19/14 A2992 1080 70 1900 000/00 RMK AO2 TSNO
94908KDBQ DBQ20120629041010406/29/12 04:10:31  5-MIN KDBQ 291010Z AUTO 03003KT 10SM CLR 19/14 A2992 1080 70 1900 030/03 RMK AO2 TSNO
94908KDBQ DBQ20120629041510406/29/12 04:15:31  5-MIN KDBQ 291015Z AUTO 02003KT 10SM CLR 19/14 A2992 1080 70 1900 020/03 RMK AO2 TSNO
94908KDBQ DBQ20120629042010406/29/12 04:20:31  5-MIN KDBQ 291020Z AUTO 00000KT 10SM CLR 19/14 A2992 1080 70 1900 000/00 RMK AO2 TSNO
94908KDBQ DBQ20120629042510406/29/12 04:25:31  5-MIN KDBQ 291025Z AUTO 00000KT 10SM CLR 19/14 A2992 1080 72 1900 000/00 RMK AO2 TSNO
94908KDBQ DBQ20120629043010406/29/12 04:30:31  5-MIN KDBQ 291030Z AUTO VRB03KT 10SM CLR 19/14 A2992 1080 75 1800 VRB/03 RMK AO2 TSNO
94908KDBQ DBQ20120629043510406/29/12 04:35:31  5-MIN KDBQ 291035Z AUTO 00000KT 10SM CLR 19/14 A2992 1080 75 1800 000/00 RMK AO2 TSNO
94908KDBQ DBQ20120629044010406/29/12 04:40:31  5-MIN KDBQ 291040Z AUTO 00000KT 10SM CLR 19/14 A2992 1080 75 1800 000/00 RMK AO2 TSNO
94908KDBQ DBQ20120629044510406/29/12 04:45:31  5-MIN KDBQ 291045Z AUTO 00000KT 10SM CLR 20/14 A2992 1070 70 1900 000/00 RMK AO2 TSNO
94908KDBQ DBQ20120629045011406/29/12 04:50:31  5-MIN KDBQ 291050Z 00000KT 10SM FEW060 20/14 A2992 1070 70 1900 000/00 RMK AO2 SLP124 T02000144
94908KDBQ DBQ20120629045510406/29/12 04:55:31  5-MIN KDBQ 291055Z 00000KT 10SM FEW060 SCT090 20/14 A2992 1080 70 2000 000/00 RMK AO2
94908KDBQ DBQ20120629050010406/29/12 05:00:31  5-MIN KDBQ 291100Z 00000KT 10SM SCT060 SCT090 20/15 A2992 1080 72 2000 000/00 RMK AO2
94908KDBQ DBQ20120629050510406/29/12 05:05:31  5-MIN KDBQ 291105Z 04005KT 10SM SCT060 BKN090 20/15 A2991 1080 72 2000 040/05 RMK AO2
94908KDBQ DBQ20120629051010406/29/12 05:10:31  5-MIN KDBQ 291110Z 04004KT 10SM SCT060 BKN090 21/16 A2992 1080 75 2000 040/04 RMK AO2
94908KDBQ DBQ20120629051509706/29/12 05:15:31  5-MIN KDBQ 291115Z 05003KT 10SM SCT060 21/16 A2992 1080 75 2000 040/03 RMK AO2
94908KDBQ DBQ20120629052009706/29/12 05:20:31  5-MIN KDBQ 291120Z 00000KT 10SM FEW060 20/16 A2992 1080 78 2000 000/00 RMK AO2
94908KDBQ DBQ20120629052509706/29/12 05:25:31  5-MIN KDBQ 291125Z 06003KT 10SM FEW060 21/16 A2992 1080 75 2000 060/03 RMK AO2
94908KDBQ DBQ20120629053009706/29/12 05:30:31  5-MIN KDBQ 291130Z 00000KT 10SM FEW060 21/16 A2992 1080 75 2000 000/00 RMK AO2
94908KDBQ DBQ20120629053509706/29/12 05:35:31  5-MIN KDBQ 291135Z 00000KT 10SM FEW095 21/16 A2992 1080 75 2000 000/00 RMK AO2
94908KDBQ DBQ20120629054009706/29/12 05:40:31  5-MIN KDBQ 291140Z 00000KT 10SM FEW095 21/16 A2992 1080 75 2000 000/00 RMK AO2
94908KDBQ DBQ20120629054509706/29/12 05:45:31  5-MIN KDBQ 291145Z 00000KT 10SM FEW095 21/17 A2992 1080 75 2100 000/00 RMK AO2
94908KDBQ DBQ20120629055013206/29/12 05:50:31  5-MIN KDBQ 291150Z 00000KT 10SM FEW075 21/17 A2992 1080 75 2100 000/00 RMK AO2 SLP122 T02110167 10217 20189 56003
94908KDBQ DBQ20120629055509706/29/12 05:55:31  5-MIN KDBQ 291155Z 05003KT 10SM FEW075 21/16 A2991 1080 73 2100 050/03 RMK AO2
94908KDBQ DBQ20120629060009706/29/12 06:00:31  5-MIN KDBQ 291200Z 05004KT 10SM FEW075 22/16 A2991 1080 68 2100 050/04 RMK AO2
94908KDBQ DBQ20120629060509706/29/12 06:05:31  5-MIN KDBQ 291205Z 05003KT 10SM FEW075 22/16 A2991 1090 68 2200 050/03 RMK AO2
94908KDBQ DBQ20120629061009706/29/12 06:10:31  5-MIN KDBQ 291210Z 05004KT 10SM FEW075 22/16 A2991 1090 70 2200 040/04 RMK AO2
94908KDBQ DBQ20120629061509706/29/12 06:15:31  5-MIN KDBQ 291215Z 04005KT 10SM FEW075 22/16 A2991 1090 68 2200 040/05 RMK AO2
94908KDBQ DBQ20120629062009406/29/12 06:20:31  5-MIN KDBQ 291220Z 04004KT 10SM CLR 22/16 A2991 1090 68 2200 040/04 RMK AO2
94908KDBQ DBQ20120629062509706/29/12 06:25:31  5-MIN KDBQ 291225Z 03004KT 10SM FEW050 22/16 A2991 1090 65 2200 030/04 RMK AO2
94908KDBQ DBQ20120629063009706/29/12 06:30:31  5-MIN KDBQ 291230Z 04005KT 10SM FEW050 22/16 A2991 1090 70 2200 040/05 RMK AO2
94908KDBQ DBQ20120629063509706/29/12 06:35:31  5-MIN KDBQ 291235Z 03005KT 10SM FEW055 22/16 A2991 1090 70 2200 030/05 RMK AO2
94908KDBQ DBQ20120629064009706/29/12 06:40:31  5-MIN KDBQ 291240Z 03006KT 10SM FEW055 22/16 A2991 1090 70 2200 030/06 RMK AO2
94908KDBQ DBQ20120629064509706/29/12 06:45:31  5-MIN KDBQ 291245Z 04005KT 10SM FEW055 22/16 A2991 1090 70 2100 040/05 RMK AO2
94908KDBQ DBQ20120629065011406/29/12 06:50:31  5-MIN KDBQ 291250Z 04006KT 10SM FEW055 22/16 A2991 1090 70 2200 040/06 RMK AO2 SLP121 T02170161
94908KDBQ DBQ20120629065509706/29/12 06:55:31  5-MIN KDBQ 291255Z 03004KT 10SM FEW050 22/16 A2991 1090 70 2200 030/04 RMK AO2
94908KDBQ DBQ20120629070009706/29/12 07:00:31  5-MIN KDBQ 291300Z 03005KT 10SM FEW050 22/16 A2991 1090 70 2200 030/05 RMK AO2
94908KDBQ DBQ20120629070509706/29/12 07:05:31  5-MIN KDBQ 291305Z 03005KT 10SM FEW050 22/16 A2991 1090 70 2200 030/05 RMK AO2
94908KDBQ DBQ20120629071009706/29/12 07:10:31  5-MIN KDBQ 291310Z 04004KT 10SM FEW050 22/16 A2991 1090 68 2200 040/04 RMK AO2
94908KDBQ DBQ20120629071509706/29/12 07:15:31  5-MIN KDBQ 291315Z 00000KT 10SM SCT050 22/16 A2991 1090 68 2200 000/00 RMK AO2
94908KDBQ DBQ20120629072009706/29/12 07:20:31  5-MIN KDBQ 291320Z 00000KT 10SM FEW055 23/16 A2991 1090 65 2300 000/00 RMK AO2
94908KDBQ DBQ20120629072509706/29/12 07:25:31  5-MIN KDBQ 291325Z 00000KT 10SM SCT050 23/16 A2991 1080 65 2300 000/00 RMK AO2
94908KDBQ DBQ20120629073009706/29/12 07:30:31  5-MIN KDBQ 291330Z 00000KT 10SM BKN050 23/16 A2991 1080 61 2300 000/00 RMK AO2
94908KDBQ DBQ20120629073509706/29/12 07:35:31  5-MIN KDBQ 291335Z 00000KT 10SM BKN050 23/16 A2991 1080 61 2300 000/00 RMK AO2
94908KDBQ DBQ20120629074009706/29/12 07:40:31  5-MIN KDBQ 291340Z 00000KT 10SM BKN050 23/16 A2991 1080 63 2300 000/00 RMK AO2
94908KDBQ DBQ20120629074509706/29/12 07:45:31  5-MIN KDBQ 291345Z 00000KT 10SM BKN050 23/16 A2991 1090 63 2300 000/00 RMK AO2
94908KDBQ DBQ20120629075011406/29/12 07:50:31  5-MIN KDBQ 291350Z 00000KT 10SM OVC050 23/16 A2991 1080 63 2300 000/00 RMK AO2 SLP122 T02330161
94908KDBQ DBQ20120629075509706/29/12 07:55:31  5-MIN KDBQ 291355Z 00000KT 10SM OVC050 24/16 A2991 1090 61 2400 000/00 RMK AO2
94908KDBQ DBQ20120629080009706/29/12 08:00:31  5-MIN KDBQ 291400Z 02003KT 10SM OVC050 24/16 A2991 1090 59 2400 020/03 RMK AO2
94908KDBQ DBQ20120629080512406/29/12 08:05:31  5-MIN KDBQ 291405Z 04005KT 10SM BKN050 OVC095 24/17 A2989 1100 63 2400 040/05 RMK AO2 FREQ LTG CG DSNT SE
94908KDBQ DBQ20120629081014706/29/12 08:10:31  5-MIN KDBQ 291410Z 04004KT 10SM TS BKN055 BKN070 OVC095 23/17 A2989 1110 66 2400 030/04 RMK AO2 TSB10 PRESFR FREQ LTG CG DSNT SE
94908KDBQ DBQ20120629081513306/29/12 08:15:31  5-MIN KDBQ 291415Z 03006KT 10SM TS BKN055 OVC070 23/17 A2989 1110 66 2400 020/06 RMK AO2 TSB10 FREQ LTG CG DSNT SE
94908KDBQ DBQ20120629082012606/29/12 08:20:31  5-MIN KDBQ 291420Z 04006KT 10SM TS BKN055 23/17 A2988 1110 66 2400 030/06 RMK AO2 TSB10 FREQ LTG CG DSNT SE
94908KDBQ DBQ20120629082513306/29/12 08:25:31  5-MIN KDBQ 291425Z 00000KT 10SM TS FEW035 BKN055 23/17 A2990 1100 68 2300 000/00 RMK AO2 TSB10 FREQ LTG CG DSNT SE
94908KDBQ DBQ20120629083014006/29/12 08:30:31  5-MIN KDBQ 291430Z 00000KT 10SM TS SCT035 OVC055 23/17 A2991 1090 68 2300 000/00 RMK AO2 TSB10 PRESRR FREQ LTG CG DSNT SE
94908KDBQ DBQ20120629083513306/29/12 08:35:31  5-MIN KDBQ 291435Z 00000KT 10SM TS BKN035 OVC055 23/17 A2990 1100 68 2300 000/00 RMK AO2 TSB10 FREQ LTG CG DSNT SE
94908KDBQ DBQ20120629084013306/29/12 08:40:31  5-MIN KDBQ 291440Z 00000KT 10SM TS BKN035 OVC050 23/17 A2990 1100 68 2300 000/00 RMK AO2 TSB10 FREQ LTG CG DSNT SE
94908KDBQ DBQ20120629084513306/29/12 08:45:31  5-MIN KDBQ 291445Z 36003KT 10SM TS BKN037 OVC050 23/16 A2989 1110 65 2300 360/03 RMK AO2 TSB10 FREQ LTG CG DSNT SE
94908KDBQ DBQ20120629085016606/29/12 08:50:31  5-MIN KDBQ 291450Z 02005KT 10SM TS BKN037 BKN045 OVC050 23/17 A2990 1100 68 2300 010/05 RMK AO2 TSB10 SLP118 FREQ LTG CG DSNT SE-NW T02280167 58001
94908KDBQ DBQ20120629085510906/29/12 08:55:31  5-MIN KDBQ 291455Z 01004KT 10SM VCTS BKN037 OVC047 23/17 A2992 1080 68 2300 010/04 RMK AO2
94908KDBQ DBQ20120629090011606/29/12 09:00:31  5-MIN KDBQ 291500Z 00000KT 10SM VCTS BKN037 OVC045 23/17 A2994 1060 68 2300 000/00 RMK AO2 PRESRR
94908KDBQ DBQ20120629090511606/29/12 09:05:31  5-MIN KDBQ 291505Z 27003KT 10SM VCTS BKN037 OVC045 22/17 A2996 1040 70 2200 270/03 RMK AO2 PRESRR
94908KDBQ DBQ20120629091012106/29/12 09:10:31  5-MIN KDBQ 291510Z 26015KT 9SM VCTS SCT037 BKN045 OVC070 22/17 A3003 980 73 2100 260/15 RMK AO2 PRESRR
94908KDBQ DBQ20120629091515806/29/12 09:15:31  5-MIN KDBQ 291515Z 26021G26KT 4SM +TSRA SCT037 BKN045 OVC080 22/18 A3006 950 78 2000 260/21G26 RMK AO2 PK WND 26026/1515 RAB11 PRESRR P0003
94908KDBQ DBQ20120629092019306/29/12 09:20:31  5-MIN KDBQ 291520Z 26015G27KT 2 1/2SM +TSRA SCT037 BKN045 OVC080 20/16 A3006 950 78 1800 260/15G27 RMK AO2 PK WND 26027/1518 RAB11 TS OHD MOV E. FREQ LTG ICCG ALL QUADS P0005
94908KDBQ DBQ20120629092521806/29/12 09:25:31  5-MIN KDBQ 291525Z 25007G27KT 2 1/2SM R36/5000VP6000FT +TSRA SCT043 BKN055 OVC090 19/16 A3004 970 81 1700 250/07G27 RMK AO2 PK WND 26027/1518 VIS 2V4 RAB11 TS OHD MOV E. FREQ LTG ICCG ALL QUADS P0009
94908KDBQ DBQ20120629093021506/29/12 09:30:31  5-MIN KDBQ 291530Z 19003KT 1 1/2SM R36/5000VP6000FT +TSRA SCT047 BKN065 OVC080 18/16 A3001 1000 84 1700 190/03 RMK AO2 PK WND 26027/1518 VIS 1/2V4 RAB11 TS OHD MOV E. FREQ LTG ICCG ALL QUADS P0011
94908KDBQ DBQ20120629093522306/29/12 09:35:31  5-MIN KDBQ 291535Z 12010KT 1 3/4SM R36/5500VP6000FT +TSRA BR FEW049 BKN070 OVC090 18/16 A2999 1020 87 1700 120/10 RMK AO2 PK WND 26027/1518 LTG DSNT ALQDS RAB11 TS OHD MOV E. FREQ LTG ICCG ALL QUADS P0013
94908KDBQ DBQ20120629094020806/29/12 09:40:31  5-MIN KDBQ 291540Z 10012G17KT 6SM +TSRA BR FEW049 BKN075 OVC110 19/17 A2996 1040 87 1800 100/12G17 RMK AO2 PK WND 26027/1518 LTG DSNT ALQDS RAB11 TS OHD MOV E. FREQ LTG ICCG ALL QUADS P0013
94908KDBQ DBQ20120629094520606/29/12 09:45:31  5-MIN KDBQ 291545Z 10016G19KT 10SM +TSRA FEW049 SCT070 BKN100 19/16 A2997 1040 84 1800 100/16G19 RMK AO2 PK WND 26027/1518 LTG DSNT ALQDS RAB11 TS OHD MOV E. FREQ LTG ICCG ALL QUADS P0013
94908KDBQ DBQ20120629095021006/29/12 09:50:31  5-MIN KDBQ 291550Z 11011G19KT 10SM +TSRA SCT070 BKN100 18/16 A2996 1040 87 1700 110/11G19 RMK AO2 PK WND 26027/1518 WSHFT 1535 LTG DSNT ALQDS RAB11 TS OHD MOV E. FREQ LTG ICCG ALL QUADS P0013
94908KDBQ DBQ20120629095513606/29/12 09:55:31  5-MIN KDBQ 291555Z 10012G18KT 10SM +TSRA FEW075 BKN100 18/16 A2995 1050 84 1700 100/12G18 RMK AO2 LTG DSNT E-SW P0000
94908KDBQ DBQ20120629100013006/29/12 10:00:31  5-MIN KDBQ 291600Z 09013KT 10SM +TSRA FEW075 BKN100 18/16 A2994 1060 84 1700 090/13 RMK AO2 LTG DSNT E-SW P0000
94908KDBQ DBQ20120629100512306/29/12 10:05:31  5-MIN KDBQ 291605Z 09014KT 10SM +TSRA SCT100 19/15 A2994 1060 78 1800 090/14 RMK AO2 LTG DSNT E-SW P0000
94908KDBQ DBQ20120629101012706/29/12 10:10:31  5-MIN KDBQ 291610Z 10010KT 10SM +TSRA SCT100 18/16 A2994 1060 84 1700 100/10 RMK AO2 LTG DSNT E AND SE P0000
94908KDBQ DBQ20120629101513406/29/12 10:15:31  5-MIN KDBQ 291615Z 11010KT 10SM +TSRA FEW110 18/16 A2993 1070 84 1700 110/10 RMK AO2 LTG DSNT E AND SE PRESFR P0000
94908KDBQ DBQ20120629102010906/29/12 10:20:31  5-MIN KDBQ 291620Z 09010KT 10SM +TSRA FEW100 18/16 A2995 1060 84 1700 090/10 RMK AO2 P0000
94908KDBQ DBQ20120629102510906/29/12 10:25:31  5-MIN KDBQ 291625Z 12014KT 10SM +TSRA FEW110 18/16 A2993 1070 87 1800 120/14 RMK AO2 P0000
94908KDBQ DBQ20120629103012906/29/12 10:30:31  5-MIN KDBQ 291630Z 14016G20KT 10SM +TSRA FEW060 SCT110 18/16 A2991 1090 87 1800 140/16G20 RMK AO2 PRESFR P0000
94908KDBQ DBQ20120629103513806/29/12 10:35:31  5-MIN KDBQ 291635Z 11010G23KT 070V130 10SM +TSRA FEW045 SCT110 18/17 A2991 1090 90 1800 110/10G23 070V130 RMK AO2 P0000
94908KDBQ DBQ20120629104012906/29/12 10:40:31  5-MIN KDBQ 291640Z 06015G19KT 10SM +TSRA FEW040 SCT110 18/16 A2989 1110 87 1800 060/15G19 RMK AO2 PRESFR P0000
94908KDBQ DBQ20120629104514006/29/12 10:45:31  5-MIN KDBQ 291645Z 09019G23KT 10SM +TSRA FEW045 SCT120 19/14 A2983 1170 72 2000 090/19G23 RMK AO2 WSHFT 1631 PRESFR P0000
94908KDBQ DBQ20120629105015506/29/12 10:50:31  5-MIN KDBQ 291650Z 04019G23KT 10SM FEW045 OVC120 20/14 A2984 1150 67 2000 040/19G23 RMK AO2 WSHFT 1631 TSE47RAE47 SLP099 P0000 T02000139
94908KDBQ DBQ20120629105511406/29/12 10:55:31  5-MIN KDBQ 291655Z 01017G28KT 10SM FEW045 20/14 A2987 1130 70 2000 010/17G28 RMK AO2 WSHFT 1640
94908KDBQ DBQ20120629110011406/29/12 11:00:31  5-MIN KDBQ 291700Z 04018G28KT 10SM FEW120 21/14 A2985 1140 67 2100 030/18G28 RMK AO2 WSHFT 1640
94908KDBQ DBQ20120629110511406/29/12 11:05:31  5-MIN KDBQ 291705Z 03018G22KT 10SM FEW120 20/15 A2983 1160 72 2000 030/18G22 RMK AO2 WSHFT 1640
94908KDBQ DBQ20120629111010506/29/12 11:10:31  5-MIN KDBQ 291710Z 02015KT 10SM CLR 20/16 A2983 1160 75 2100 020/15 RMK AO2 WSHFT 1640
94908KDBQ DBQ20120629111511206/29/12 11:15:31  5-MIN KDBQ 291715Z 03018KT 10SM CLR 21/16 A2982 1170 75 2100 030/18 RMK AO2 WSHFT 1640 PRESFR
94908KDBQ DBQ20120629112010506/29/12 11:20:31  5-MIN KDBQ 291720Z 02016KT 10SM CLR 21/16 A2983 1160 73 2200 020/16 RMK AO2 WSHFT 1640
94908KDBQ DBQ20120629112511106/29/12 11:25:31  5-MIN KDBQ 291725Z 04013G21KT 10SM CLR 22/16 A2982 1170 70 2300 040/13G21 RMK AO2 WSHFT 1640
94908KDBQ DBQ20120629113010506/29/12 11:30:31  5-MIN KDBQ 291730Z 03010KT 10SM CLR 22/17 A2983 1160 70 2300 030/10 RMK AO2 WSHFT 1640
94908KDBQ DBQ20120629113510506/29/12 11:35:31  5-MIN KDBQ 291735Z 00000KT 10SM CLR 23/16 A2984 1150 65 2400 000/00 RMK AO2 WSHFT 1640
94908KDBQ DBQ20120629114011206/29/12 11:40:31  5-MIN KDBQ 291740Z 20006KT 10SM CLR 23/17 A2986 1140 66 2400 200/06 RMK AO2 WSHFT 1640 PRESRR
94908KDBQ DBQ20120629114510506/29/12 11:45:31  5-MIN KDBQ 291745Z 24005KT 10SM CLR 24/17 A2986 1130 61 2500 240/05 RMK AO2 WSHFT 1640
94908KDBQ DBQ20120629115014606/29/12 11:50:31  5-MIN KDBQ 291750Z 21007KT 10SM CLR 24/18 A2986 1130 68 2500 210/07 RMK AO2 WSHFT 1640 SLP105 60013 T02390178 10244 20183 56001
94908KDBQ DBQ20120629115509406/29/12 11:55:31  5-MIN KDBQ 291755Z 19003KT 10SM CLR 25/17 A2985 1140 61 2600 190/03 RMK AO2
94908KDBQ DBQ20120629120009406/29/12 12:00:31  5-MIN KDBQ 291800Z 17006KT 10SM CLR 25/17 A2986 1130 61 2600 170/06 RMK AO2
94908KDBQ DBQ20120629120509406/29/12 12:05:31  5-MIN KDBQ 291805Z 20008KT 10SM CLR 25/18 A2987 1120 64 2600 200/08 RMK AO2
94908KDBQ DBQ20120629121009406/29/12 12:10:31  5-MIN KDBQ 291810Z 21010KT 10SM CLR 26/18 A2987 1120 61 2600 210/10 RMK AO2
94908KDBQ DBQ20120629121509406/29/12 12:15:31  5-MIN KDBQ 291815Z 21014KT 10SM CLR 25/18 A2988 1120 64 2600 210/14 RMK AO2
94908KDBQ DBQ20120629122009406/29/12 12:20:31  5-MIN KDBQ 291820Z 22011KT 10SM CLR 24/18 A2988 1120 66 2500 220/11 RMK AO2
94908KDBQ DBQ20120629122510006/29/12 12:25:31  5-MIN KDBQ 291825Z 22015G22KT 10SM CLR 24/18 A2988 1110 68 2400 220/15G22 RMK AO2
94908KDBQ DBQ20120629123010006/29/12 12:30:31  5-MIN KDBQ 291830Z 22012G22KT 10SM CLR 23/18 A2988 1120 70 2400 220/12G22 RMK AO2
94908KDBQ DBQ20120629123510006/29/12 12:35:31  5-MIN KDBQ 291835Z 23014G20KT 10SM CLR 23/18 A2989 1110 70 2400 230/14G20 RMK AO2
94908KDBQ DBQ20120629124009406/29/12 12:40:31  5-MIN KDBQ 291840Z 22012KT 10SM CLR 23/17 A2988 1110 68 2400 220/12 RMK AO2
94908KDBQ DBQ20120629124509406/29/12 12:45:31  5-MIN KDBQ 291845Z 23012KT 10SM CLR 23/17 A2988 1110 68 2400 230/12 RMK AO2
94908KDBQ DBQ20120629125011106/29/12 12:50:31  5-MIN KDBQ 291850Z 24010KT 10SM CLR 23/18 A2988 1110 70 2400 240/10 RMK AO2 SLP113 T02330178
94908KDBQ DBQ20120629125510006/29/12 12:55:31  5-MIN KDBQ 291855Z 23013G18KT 10SM CLR 23/17 A2988 1120 68 2400 230/13G18 RMK AO2
94908KDBQ DBQ20120629130009406/29/12 13:00:31  5-MIN KDBQ 291900Z 23012KT 10SM CLR 23/17 A2988 1120 68 2400 220/12 RMK AO2
94908KDBQ DBQ20120629130509406/29/12 13:05:31  5-MIN KDBQ 291905Z 22013KT 10SM CLR 23/17 A2987 1120 68 2400 220/13 RMK AO2
94908KDBQ DBQ20120629131009406/29/12 13:10:31  5-MIN KDBQ 291910Z 22014KT 10SM CLR 24/17 A2987 1130 66 2500 220/14 RMK AO2
94908KDBQ DBQ20120629131509406/29/12 13:15:31  5-MIN KDBQ 291915Z 22013KT 10SM CLR 24/17 A2987 1120 63 2400 220/13 RMK AO2
94908KDBQ DBQ20120629132009406/29/12 13:20:31  5-MIN KDBQ 291920Z 23011KT 10SM CLR 24/17 A2988 1120 63 2500 230/11 RMK AO2
94908KDBQ DBQ20120629132509406/29/12 13:25:31  5-MIN KDBQ 291925Z 24011KT 10SM CLR 26/18 A2988 1120 61 2600 240/11 RMK AO2
94908KDBQ DBQ20120629133009406/29/12 13:30:31  5-MIN KDBQ 291930Z 24013KT 10SM CLR 26/18 A2988 1120 59 2700 240/13 RMK AO2
94908KDBQ DBQ20120629133509406/29/12 13:35:31  5-MIN KDBQ 291935Z 23015KT 10SM CLR 26/18 A2988 1120 59 2700 230/15 RMK AO2
94908KDBQ DBQ20120629134009406/29/12 13:40:31  5-MIN KDBQ 291940Z 24016KT 10SM CLR 27/18 A2988 1110 57 2700 240/16 RMK AO2
94908KDBQ DBQ20120629134509406/29/12 13:45:31  5-MIN KDBQ 291945Z 24011KT 10SM CLR 26/18 A2987 1120 59 2700 240/11 RMK AO2
94908KDBQ DBQ20120629135011106/29/12 13:50:31  5-MIN KDBQ 291950Z 24012KT 10SM CLR 26/18 A2987 1120 62 2700 240/12 RMK AO2 SLP109 T02610183
94908KDBQ DBQ20120629135509406/29/12 13:55:31  5-MIN KDBQ 291955Z 23010KT 10SM CLR 26/18 A2987 1120 61 2600 230/10 RMK AO2
94908KDBQ DBQ20120629140009406/29/12 14:00:31  5-MIN KDBQ 292000Z 23010KT 10SM CLR 26/18 A2986 1130 64 2600 230/10 RMK AO2
94908KDBQ DBQ20120629140509406/29/12 14:05:31  5-MIN KDBQ 292005Z 22010KT 10SM CLR 26/18 A2986 1130 64 2600 220/10 RMK AO2
94908KDBQ DBQ20120629141009406/29/12 14:10:31  5-MIN KDBQ 292010Z 23009KT 10SM CLR 26/18 A2986 1130 62 2700 230/09 RMK AO2
94908KDBQ DBQ20120629141509406/29/12 14:15:31  5-MIN KDBQ 292015Z 24009KT 10SM CLR 26/18 A2986 1130 62 2700 230/09 RMK AO2
94908KDBQ DBQ20120629142009406/29/12 14:20:31  5-MIN KDBQ 292020Z 24009KT 10SM CLR 26/18 A2987 1130 62 2700 240/09 RMK AO2
94908KDBQ DBQ20120629142509406/29/12 14:25:31  5-MIN KDBQ 292025Z 24008KT 10SM CLR 27/19 A2986 1130 62 2800 240/08 RMK AO2
94908KDBQ DBQ20120629143009406/29/12 14:30:31  5-MIN KDBQ 292030Z 24009KT 10SM CLR 27/18 A2986 1130 60 2800 240/09 RMK AO2
94908KDBQ DBQ20120629143509406/29/12 14:35:31  5-MIN KDBQ 292035Z 24008KT 10SM CLR 27/18 A2986 1130 60 2800 240/08 RMK AO2
94908KDBQ DBQ20120629144009406/29/12 14:40:31  5-MIN KDBQ 292040Z 26011KT 10SM CLR 27/19 A2987 1120 60 2800 260/11 RMK AO2
94908KDBQ DBQ20120629144509406/29/12 14:45:31  5-MIN KDBQ 292045Z 24010KT 10SM CLR 27/19 A2987 1130 60 2800 240/10 RMK AO2
94908KDBQ DBQ20120629145011706/29/12 14:50:31  5-MIN KDBQ 292050Z 27008KT 10SM CLR 27/19 A2987 1130 62 2800 270/08 RMK AO2 SLP107 T02720194 58018
94908KDBQ DBQ20120629145509406/29/12 14:55:31  5-MIN KDBQ 292055Z 26010KT 10SM CLR 27/19 A2987 1130 62 2800 260/10 RMK AO2
94908KDBQ DBQ20120629150009406/29/12 15:00:31  5-MIN KDBQ 292100Z 27008KT 10SM CLR 27/19 A2987 1130 64 2800 270/08 RMK AO2
94908KDBQ DBQ20120629150509406/29/12 15:05:31  5-MIN KDBQ 292105Z 26005KT 10SM CLR 27/19 A2986 1130 64 2800 260/05 RMK AO2
94908KDBQ DBQ20120629151009406/29/12 15:10:31  5-MIN KDBQ 292110Z 26007KT 10SM CLR 27/19 A2986 1130 64 2800 260/07 RMK AO2
94908KDBQ DBQ20120629151509406/29/12 15:15:31  5-MIN KDBQ 292115Z 26004KT 10SM CLR 27/20 A2986 1140 66 2800 260/04 RMK AO2
94908KDBQ DBQ20120629152009406/29/12 15:20:31  5-MIN KDBQ 292120Z 25007KT 10SM CLR 27/20 A2986 1140 66 2800 250/07 RMK AO2
94908KDBQ DBQ20120629152509406/29/12 15:25:31  5-MIN KDBQ 292125Z 25006KT 10SM CLR 27/20 A2985 1150 66 2800 250/06 RMK AO2
94908KDBQ DBQ20120629153009406/29/12 15:30:31  5-MIN KDBQ 292130Z 26006KT 10SM CLR 27/20 A2984 1150 66 2800 260/06 RMK AO2
94908KDBQ DBQ20120629153509406/29/12 15:35:31  5-MIN KDBQ 292135Z 24006KT 10SM CLR 27/20 A2984 1150 66 2800 240/06 RMK AO2
94908KDBQ DBQ20120629154009406/29/12 15:40:31  5-MIN KDBQ 292140Z 25004KT 10SM CLR 27/20 A2984 1160 66 2800 250/04 RMK AO2
94908KDBQ DBQ20120629154509406/29/12 15:45:31  5-MIN KDBQ 292145Z 22005KT 10SM CLR 26/20 A2983 1160 68 2700 220/05 RMK AO2
94908KDBQ DBQ20120629155011106/29/12 15:50:31  5-MIN KDBQ 292150Z 24005KT 10SM CLR 26/20 A2983 1160 68 2700 230/05 RMK AO2 SLP094 T02610200
94908KDBQ DBQ20120629155509406/29/12 15:55:31  5-MIN KDBQ 292155Z 22004KT 10SM CLR 26/20 A2983 1160 68 2700 220/04 RMK AO2
94908KDBQ DBQ20120629160009406/29/12 16:00:31  5-MIN KDBQ 292200Z 24005KT 10SM CLR 26/21 A2984 1150 71 2700 240/05 RMK AO2
94908KDBQ DBQ20120629160510106/29/12 16:05:31  5-MIN KDBQ 292205Z 29005KT 10SM CLR 27/21 A2985 1140 69 2800 290/05 RMK AO2 PRESRR
94908KDBQ DBQ20120629161009406/29/12 16:10:31  5-MIN KDBQ 292210Z 31006KT 10SM CLR 27/21 A2985 1140 71 2800 310/06 RMK AO2
94908KDBQ DBQ20120629161509406/29/12 16:15:31  5-MIN KDBQ 292215Z 26005KT 10SM CLR 26/21 A2986 1130 73 2700 250/05 RMK AO2
94908KDBQ DBQ20120629162009406/29/12 16:20:31  5-MIN KDBQ 292220Z 28005KT 10SM CLR 26/21 A2986 1130 73 2700 280/05 RMK AO2
94908KDBQ DBQ20120629162509406/29/12 16:25:31  5-MIN KDBQ 292225Z 24003KT 10SM CLR 26/21 A2985 1140 73 2700 240/03 RMK AO2
94908KDBQ DBQ20120629163009406/29/12 16:30:31  5-MIN KDBQ 292230Z 31006KT 10SM CLR 26/21 A2987 1130 73 2700 310/06 RMK AO2
94908KDBQ DBQ20120629163509406/29/12 16:35:31  5-MIN KDBQ 292235Z 31003KT 10SM CLR 26/21 A2986 1130 76 2600 300/03 RMK AO2
94908KDBQ DBQ20120629164009406/29/12 16:40:31  5-MIN KDBQ 292240Z 31006KT 10SM CLR 26/21 A2987 1130 76 2600 310/06 RMK AO2
94908KDBQ DBQ20120629164509406/29/12 16:45:31  5-MIN KDBQ 292245Z 32004KT 10SM CLR 26/22 A2987 1130 79 2600 320/04 RMK AO2
94908KDBQ DBQ20120629165011106/29/12 16:50:31  5-MIN KDBQ 292250Z 33005KT 10SM CLR 26/21 A2987 1130 76 2600 330/05 RMK AO2 SLP108 T02560211
94908KDBQ DBQ20120629165509406/29/12 16:55:31  5-MIN KDBQ 292255Z 33004KT 10SM CLR 26/21 A2987 1130 76 2600 330/04 RMK AO2
94908KDBQ DBQ20120629170010606/29/12 17:00:31  5-MIN KDBQ 292300Z 30003KT 10SM CLR 26/21 A2987 1130 76 2600 300/03 RMK AO2 LTG DSNT SW
94908KDBQ DBQ20120629170510606/29/12 17:05:31  5-MIN KDBQ 292305Z 29003KT 10SM CLR 25/21 A2987 1120 79 2600 290/03 RMK AO2 LTG DSNT SW
94908KDBQ DBQ20120629171010606/29/12 17:10:31  5-MIN KDBQ 292310Z 32003KT 10SM CLR 25/21 A2987 1130 79 2600 320/03 RMK AO2 LTG DSNT SW
94908KDBQ DBQ20120629171511206/29/12 17:15:31  5-MIN KDBQ 292315Z 34005KT 10SM CLR 25/21 A2986 1130 79 2600 340/05 RMK AO2 LTG DSNT SW AND W
94908KDBQ DBQ20120629172011206/29/12 17:20:31  5-MIN KDBQ 292320Z 00000KT 10SM CLR 25/21 A2986 1130 76 2600 000/00 RMK AO2 LTG DSNT SW AND W
94908KDBQ DBQ20120629172510706/29/12 17:25:31  5-MIN KDBQ 292325Z 00000KT 10SM CLR 25/21 A2986 1130 79 2600 000/00 RMK AO2 LTG DSNT S-W
94908KDBQ DBQ20120629173010706/29/12 17:30:31  5-MIN KDBQ 292330Z 00000KT 10SM CLR 25/21 A2986 1140 79 2600 000/00 RMK AO2 LTG DSNT S-W
94908KDBQ DBQ20120629173511106/29/12 17:35:31  5-MIN KDBQ 292335Z 19003KT 10SM FEW090 24/21 A2986 1130 81 2500 190/03 RMK AO2 LTG DSNT S-NW
94908KDBQ DBQ20120629174012506/29/12 17:40:31  5-MIN KDBQ 292340Z 25012KT 10SM FEW050 SCT060 SCT090 24/21 A2988 1110 81 2500 250/12 RMK AO2 LTG DSNT S-NW
94908KDBQ DBQ20120629174514806/29/12 17:45:31  5-MIN KDBQ 292345Z 24025G36KT 9SM FEW050 BKN065 BKN095 24/20 A2988 1120 76 2500 240/25G36 RMK AO2 PK WND 26036/2342 LTG DSNT S-NW
94908KDBQ DBQ20120629175018606/29/12 17:50:31  5-MIN KDBQ 292350Z 25019G36KT 6SM HZ SCT050 BKN065 BKN095 23/19 A2988 1110 78 2300 250/19G36 RMK AO2 PK WND 26036/2342 LTG DSNT S-NW SLP114 T02280189 10272 20228 50004
94908KDBQ DBQ20120629175515106/29/12 17:55:31  5-MIN KDBQ 292355Z 25016G24KT 6SM HZ SCT050 BKN065 BKN080 21/18 A2989 1110 84 2100 250/16G24 RMK AO2 WSHFT 2340 LTG DSNT ALQDS PNO $
94908KDBQ DBQ20120629180015006/29/12 18:00:31  5-MIN KDBQ 300000Z 27017G24KT 7SM FEW050 SCT065 BKN080 21/18 A2989 1100 84 2100 270/17G24 RMK AO2 WSHFT 2340 LTG DSNT ALQDS P0002 $
94908KDBQ DBQ20120629180515706/29/12 18:05:31  5-MIN KDBQ 300005Z 29012G24KT 9SM FEW050 SCT065 BKN100 21/18 A2990 1090 84 2100 290/12G24 RMK AO2 WSHFT 2340 LTG DSNT ALQDS PRESRR P0002 $
94908KDBQ DBQ20120629181014406/29/12 18:10:31  5-MIN KDBQ 300010Z 30010G18KT 10SM FEW050 BKN110 22/19 A2991 1090 84 2200 290/10G18 RMK AO2 WSHFT 2340 LTG DSNT ALQDS P0002 $
94908KDBQ DBQ20120629181515106/29/12 18:15:31  5-MIN KDBQ 300015Z 28007G18KT 10SM FEW050 BKN110 22/19 A2992 1080 87 2100 270/07G18 RMK AO2 WSHFT 2340 LTG DSNT ALQDS PRESRR P0002 $
94908KDBQ DBQ20120629182013006/29/12 18:20:31  5-MIN KDBQ 300020Z 30009KT 7SM BKN110 22/19 A2992 1080 87 2100 290/09 RMK AO2 WSHFT 2340 LTG DSNT ALQDS P0002 $
94908KDBQ DBQ20120629182513306/29/12 18:25:31  5-MIN KDBQ 300025Z 27011KT 5SM HZ BKN110 22/19 A2992 1080 81 2200 270/11 RMK AO2 WSHFT 2340 LTG DSNT ALQDS P0003 $
94908KDBQ DBQ20120629183014606/29/12 18:30:31  5-MIN KDBQ 300030Z 28013G20KT 6SM HZ SCT100 BKN110 22/18 A2991 1080 75 2200 280/13G20 RMK AO2 WSHFT 2340 LTG DSNT ALQDS P0004 $
94908KDBQ DBQ20120629183514606/29/12 18:35:31  5-MIN KDBQ 300035Z 27010G20KT 6SM HZ SCT090 OVC110 22/18 A2991 1080 78 2100 270/10G20 RMK AO2 WSHFT 2340 LTG DSNT ALQDS P0005 $
94908KDBQ DBQ20120629184014006/29/12 18:40:31  5-MIN KDBQ 300040Z 30007KT 6SM HZ SCT085 OVC110 22/18 A2991 1090 78 2200 300/07 RMK AO2 WSHFT 2340 LTG DSNT ALQDS P0006 $
94908KDBQ DBQ20120629184513906/29/12 18:45:31  5-MIN KDBQ 300045Z 33010KT 5SM BR SCT085 OVC110 21/18 A2990 1090 87 2000 330/10 RMK AO2 WSHFT 2340 LTG DSNT NE-S P0007 $
94908KDBQ DBQ20120629185016306/29/12 18:50:31  5-MIN KDBQ 300050Z 32010KT 3SM HZ SCT075 BKN100 OVC110 21/18 A2990 1100 84 2100 320/10 RMK AO2 WSHFT 2340 LTG DSNT NE-S SLP118 P0008 T02110183 $
94908KDBQ DBQ20120629185510406/29/12 18:55:31  5-MIN KDBQ 300055Z AUTO TS M M M M /M RMK AO2 LTG DSNT E-S TSB55 P0001 FZRANO RVRNO $
94908KDBQ DBQ20120629190014506/29/12 19:00:31  5-MIN KDBQ 300100Z AUTO 33011KT RA 21/18 A2989 1110 87 2100 320/11 RMK AO2 LTG DSNT E AND SE TSB0055E0058RAB0056 P0002 RVRNO $
94908KDBQ DBQ20120629190514706/29/12 19:05:31  5-MIN KDBQ 300105Z AUTO 31010KT 5SM -RA BR 21/18 A2989 1110 87 2000 310/10 RMK AO2 LTG DSNT E AND SE TSB0055E0058RAB0056 P0003 $
94908KDBQ DBQ20120629191014606/29/12 19:10:31  5-MIN KDBQ 300110Z AUTO 29008KT 5SM RA BR 20/18 A2989 1110 90 2000 290/08 RMK AO2 LTG DSNT E AND SE TSB0055E0058RAB0056 P0004 $
94908KDBQ DBQ20120629191512606/29/12 19:15:31  5-MIN KDBQ 300115Z AUTO 28009KT 6SM -RA 21/18 A2989 1110 84 2100 280/09 RMK AO2 TSB0055E0058RAB0056 P0005 $
94908KDBQ DBQ20120629192012606/29/12 19:20:31  5-MIN KDBQ 300120Z AUTO 32004KT 8SM -RA 21/18 A2987 1120 84 2100 320/04 RMK AO2 TSB0055E0058RAB0056 P0005 $
94908KDBQ DBQ20120629192514706/29/12 19:25:31  5-MIN KDBQ 300125Z AUTO 00000KT 8SM -RA SCT100 SCT120 21/18 A2986 1140 84 2100 000/00 RMK AO2 TSB0055E0058RAB0056 PRESFR P0005 $
94908KDBQ DBQ20120629193014006/29/12 19:30:31  5-MIN KDBQ 300130Z AUTO 11005KT 8SM -RA SCT110 21/18 A2984 1150 87 2100 110/05 RMK AO2 TSB0055E0058RAB0056 PRESFR P0006 $
94908KDBQ DBQ20120629193514006/29/12 19:35:31  5-MIN KDBQ 300135Z AUTO 09009KT 9SM -RA SCT110 21/18 A2983 1170 87 2100 090/09 RMK AO2 TSB0055E0058RAB0056 PRESFR P0006 $
94908KDBQ DBQ20120629194014006/29/12 19:40:31  5-MIN KDBQ 300140Z AUTO 09013KT 9SM -RA SCT110 21/18 A2981 1180 87 2100 080/13 RMK AO2 TSB0055E0058RAB0056 PRESFR P0007 $
94908KDBQ DBQ20120629194514106/29/12 19:45:31  5-MIN KDBQ 300145Z AUTO 08015KT 10SM -RA SCT110 22/17 A2981 1180 75 2300 080/15 RMK AO2 TSB0055E0058RAB0056 PRESFR P0007 $
94908KDBQ DBQ20120629195015006/29/12 19:50:31  5-MIN KDBQ 300150Z AUTO 07013KT 10SM SCT110 22/17 A2980 1190 70 2300 070/13 RMK AO2 TSB0055E0058RAB0056E48 SLP087 P0007 T02220167 $
94908KDBQ DBQ20120629195510406/29/12 19:55:31  5-MIN KDBQ 300155Z AUTO 05008KT 10SM BKN110 22/17 A2981 1180 70 2300 050/08 RMK AO2 $
94908KDBQ DBQ20120629200010406/29/12 20:00:31  5-MIN KDBQ 300200Z AUTO 01007KT 10SM BKN110 21/17 A2981 1180 75 2200 360/07 RMK AO2 $
94908KDBQ DBQ20120629200510406/29/12 20:05:31  5-MIN KDBQ 300205Z AUTO 03008KT 10SM BKN110 21/17 A2981 1180 81 2100 030/08 RMK AO2 $
94908KDBQ DBQ20120629201010406/29/12 20:10:31  5-MIN KDBQ 300210Z AUTO 09005KT 10SM BKN110 21/18 A2980 1190 84 2100 080/05 RMK AO2 $
94908KDBQ DBQ20120629201510406/29/12 20:15:31  5-MIN KDBQ 300215Z AUTO 18003KT 10SM BKN110 21/18 A2981 1180 84 2100 180/03 RMK AO2 $
94908KDBQ DBQ20120629202010406/29/12 20:20:31  5-MIN KDBQ 300220Z AUTO 18004KT 10SM BKN110 21/18 A2981 1180 84 2100 180/04 RMK AO2 $
94908KDBQ DBQ20120629202510406/29/12 20:25:31  5-MIN KDBQ 300225Z AUTO 00000KT 10SM BKN110 21/18 A2981 1180 84 2100 000/00 RMK AO2 $
94908KDBQ DBQ20120629203010406/29/12 20:30:31  5-MIN KDBQ 300230Z AUTO 19006KT 10SM BKN110 21/17 A2981 1180 78 2200 190/06 RMK AO2 $
94908KDBQ DBQ20120629203510406/29/12 20:35:31  5-MIN KDBQ 300235Z AUTO 20010KT 10SM SCT110 21/17 A2982 1170 78 2200 190/10 RMK AO2 $
94908KDBQ DBQ20120629204010406/29/12 20:40:31  5-MIN KDBQ 300240Z AUTO 21007KT 10SM SCT110 21/17 A2982 1170 81 2100 210/07 RMK AO2 $
94908KDBQ DBQ20120629204510406/29/12 20:45:31  5-MIN KDBQ 300245Z AUTO 23007KT 10SM FEW110 20/17 A2982 1170 84 2100 220/07 RMK AO2 $
94908KDBQ DBQ20120629205012706/29/12 20:50:31  5-MIN KDBQ 300250Z AUTO 24004KT 10SM FEW120 20/17 A2981 1180 84 2100 240/04 RMK AO2 SLP089 60016 T02000172 $
94908KDBQ DBQ20120629205510106/29/12 20:55:31  5-MIN KDBQ 300255Z AUTO 23004KT 10SM CLR 19/17 A2981 1180 87 2000 230/04 RMK AO2 $
94908KDBQ DBQ20120629210010106/29/12 21:00:31  5-MIN KDBQ 300300Z AUTO 24004KT 10SM CLR 20/17 A2981 1180 84 2100 240/04 RMK AO2 $
94908KDBQ DBQ20120629210510106/29/12 21:05:31  5-MIN KDBQ 300305Z AUTO 24006KT 10SM CLR 19/17 A2981 1180 87 2000 240/06 RMK AO2 $
94908KDBQ DBQ20120629211010106/29/12 21:10:31  5-MIN KDBQ 300310Z AUTO 00000KT 10SM CLR 19/17 A2981 1180 84 2000 000/00 RMK AO2 $
94908KDBQ DBQ20120629211510106/29/12 21:15:31  5-MIN KDBQ 300315Z AUTO 00000KT 10SM CLR 19/17 A2982 1170 87 2000 000/00 RMK AO2 $
94908KDBQ DBQ20120629212010806/29/12 21:20:31  5-MIN KDBQ 300320Z AUTO VRB05KT 10SM CLR 19/17 A2983 1160 90 1900 VRB/05 RMK AO2 PRESRR $
94908KDBQ DBQ20120629212510806/29/12 21:25:31  5-MIN KDBQ 300325Z AUTO 00000KT 10SM CLR 19/17 A2984 1150 87 2000 000/00 RMK AO2 PRESRR $
94908KDBQ DBQ20120629213010106/29/12 21:30:31  5-MIN KDBQ 300330Z AUTO 05004KT 10SM CLR 19/17 A2984 1150 87 2000 050/04 RMK AO2 $
94908KDBQ DBQ20120629213510106/29/12 21:35:31  5-MIN KDBQ 300335Z AUTO 05004KT 10SM CLR 19/17 A2984 1150 90 1900 050/04 RMK AO2 $
94908KDBQ DBQ20120629214010106/29/12 21:40:31  5-MIN KDBQ 300340Z AUTO 08003KT 10SM CLR 19/17 A2985 1150 87 2000 080/03 RMK AO2 $
94908KDBQ DBQ20120629214510106/29/12 21:45:31  5-MIN KDBQ 300345Z AUTO 00000KT 10SM CLR 19/17 A2985 1150 90 1900 000/00 RMK AO2 $
94908KDBQ DBQ20120629215011806/29/12 21:50:31  5-MIN KDBQ 300350Z AUTO 00000KT 10SM CLR 19/17 A2985 1140 90 1900 000/00 RMK AO2 SLP105 T01890172 $
94908KDBQ DBQ20120629215510106/29/12 21:55:31  5-MIN KDBQ 300355Z AUTO 34007KT 10SM CLR 19/17 A2986 1140 90 1900 340/07 RMK AO2 $
94908KDBQ DBQ20120629220010106/29/12 22:00:31  5-MIN KDBQ 300400Z AUTO 33005KT 10SM CLR 19/17 A2986 1140 90 1900 330/05 RMK AO2 $
94908KDBQ DBQ20120629220510106/29/12 22:05:31  5-MIN KDBQ 300405Z AUTO 35006KT 10SM CLR 21/17 A2985 1140 78 2100 350/06 RMK AO2 $
94908KDBQ DBQ20120629221010106/29/12 22:10:31  5-MIN KDBQ 300410Z AUTO 00000KT 10SM CLR 20/17 A2986 1130 81 2000 000/00 RMK AO2 $
94908KDBQ DBQ20120629221510106/29/12 22:15:31  5-MIN KDBQ 300415Z AUTO 00000KT 10SM CLR 19/17 A2985 1140 90 1900 000/00 RMK AO2 $
94908KDBQ DBQ20120629222010106/29/12 22:20:31  5-MIN KDBQ 300420Z AUTO 17003KT 10SM CLR 19/17 A2985 1140 90 1900 170/03 RMK AO2 $
94908KDBQ DBQ20120629222510106/29/12 22:25:31  5-MIN KDBQ 300425Z AUTO 00000KT 10SM CLR 19/17 A2986 1130 90 1900 000/00 RMK AO2 $
94908KDBQ DBQ20120629223010106/29/12 22:30:31  5-MIN KDBQ 300430Z AUTO 00000KT 10SM CLR 19/17 A2986 1130 90 1900 000/00 RMK AO2 $
94908KDBQ DBQ20120629223510106/29/12 22:35:31  5-MIN KDBQ 300435Z AUTO 00000KT 10SM CLR 19/17 A2986 1130 90 1900 000/00 RMK AO2 $
94908KDBQ DBQ20120629224010106/29/12 22:40:31  5-MIN KDBQ 300440Z AUTO 00000KT 10SM CLR 19/17 A2986 1140 90 1900 000/00 RMK AO2 $
94908KDBQ DBQ20120629224510106/29/12 22:45:31  5-MIN KDBQ 300445Z AUTO 14005KT 10SM CLR 19/18 A2986 1130 93 1900 140/05 RMK AO2 $
94908KDBQ DBQ20120629225011806/29/12 22:50:31  5-MIN KDBQ 300450Z AUTO 12004KT 10SM CLR 19/18 A2986 1140 93 1900 120/04 RMK AO2 SLP107 T01890178 $
94908KDBQ DBQ20120629225510106/29/12 22:55:31  5-MIN KDBQ 300455Z AUTO 12003KT 10SM CLR 19/18 A2985 1140 93 1900 120/03 RMK AO2 $
94908KDBQ DBQ20120629230010106/29/12 23:00:31  5-MIN KDBQ 300500Z AUTO 14003KT 10SM CLR 19/17 A2985 1140 90 1900 140/03 RMK AO2 $
94908KDBQ DBQ20120629230510106/29/12 23:05:31  5-MIN KDBQ 300505Z AUTO 09004KT 10SM CLR 19/17 A2985 1150 90 1900 090/04 RMK AO2 $
94908KDBQ DBQ20120629231010106/29/12 23:10:31  5-MIN KDBQ 300510Z AUTO 13004KT 10SM CLR 19/17 A2985 1140 90 1900 130/04 RMK AO2 $
94908KDBQ DBQ20120629231510106/29/12 23:15:31  5-MIN KDBQ 300515Z AUTO 13003KT 10SM CLR 19/17 A2986 1140 90 1900 130/03 RMK AO2 $
94908KDBQ DBQ20120629232010106/29/12 23:20:31  5-MIN KDBQ 300520Z AUTO 10003KT 10SM CLR 19/17 A2986 1140 90 1900 090/03 RMK AO2 $
94908KDBQ DBQ20120629232510106/29/12 23:25:31  5-MIN KDBQ 300525Z AUTO 11003KT 10SM CLR 19/17 A2986 1140 87 2000 110/03 RMK AO2 $
94908KDBQ DBQ20120629233010106/29/12 23:30:31  5-MIN KDBQ 300530Z AUTO 11003KT 10SM CLR 19/17 A2986 1130 87 2000 110/03 RMK AO2 $
94908KDBQ DBQ20120629233510106/29/12 23:35:31  5-MIN KDBQ 300535Z AUTO 00000KT 10SM CLR 19/17 A2987 1130 87 1900 000/00 RMK AO2 $
94908KDBQ DBQ20120629234010106/29/12 23:40:31  5-MIN KDBQ 300540Z AUTO 00000KT 10SM CLR 18/17 A2987 1130 93 1800 000/00 RMK AO2 $
94908KDBQ DBQ20120629234510106/29/12 23:45:31  5-MIN KDBQ 300545Z AUTO 00000KT 10SM CLR 18/17 A2986 1130 93 1800 000/00 RMK AO2 $
94908KDBQ DBQ20120629235014606/29/12 23:50:31  5-MIN KDBQ 300550Z AUTO 00000KT 10SM CLR 18/17 A2986 1130 90 1800 000/00 RMK AO2 SLP107 60016 T01830167 10222 20178 402720178 $
94908KDBQ DBQ20120629235510106/29/12 23:55:31  5-MIN KDBQ 300555Z AUTO 00000KT 10SM CLR 19/17 A2986 1140 87 1900 000/00 RMK AO2 $
94908KDBQ DBQ20120630000010106/30/12 00:00:38  5-MIN KDBQ 300600Z AUTO 00000KT 10SM CLR 18/17 A2986 1140 90 1800 000/00 RMK AO2 $
94908KDBQ DBQ20120630000510106/30/12 00:05:31  5-MIN KDBQ 300605Z AUTO 00000KT 10SM CLR 18/17 A2985 1140 90 1800 000/00 RMK AO2 $
94908KDBQ DBQ20120630001010106/30/12 00:10:31  5-MIN KDBQ 300610Z AUTO 00000KT 10SM CLR 18/17 A2985 1140 93 1800 000/00 RMK AO2 $
94908KDBQ DBQ20120630001510106/30/12 00:15:34  5-MIN KDBQ 300615Z AUTO 00000KT 10SM CLR 18/17 A2985 1140 93 1800 000/00 RMK AO2 $
94908KDBQ DBQ20120630002010106/30/12 00:20:31  5-MIN KDBQ 300620Z AUTO 00000KT 10SM CLR 17/16 A2985 1140 93 1700 000/00 RMK AO2 $
94908KDBQ DBQ20120630002510106/30/12 00:25:31  5-MIN KDBQ 300625Z AUTO 00000KT 10SM CLR 17/16 A2985 1150 93 1700 000/00 RMK AO2 $
94908KDBQ DBQ20120630003010106/30/12 00:30:31  5-MIN KDBQ 300630Z AUTO 01003KT 10SM CLR 17/16 A2984 1150 96 1700 010/03 RMK AO2 $
94908KDBQ DBQ20120630003510106/30/12 00:35:31  5-MIN KDBQ 300635Z AUTO 04003KT 10SM CLR 17/16 A2983 1160 93 1700 040/03 RMK AO2 $
94908KDBQ DBQ20120630004010106/30/12 00:40:31  5-MIN KDBQ 300640Z AUTO 05003KT 10SM CLR 17/16 A2983 1160 93 1700 050/03 RMK AO2 $
94908KDBQ DBQ20120630004510106/30/12 00:45:31  5-MIN KDBQ 300645Z AUTO 03004KT 10SM CLR 17/16 A2983 1160 93 1700 030/04 RMK AO2 $
94908KDBQ DBQ20120630005011806/30/12 00:50:31  5-MIN KDBQ 300650Z AUTO 03005KT 10SM CLR 17/16 A2983 1170 93 1700 030/05 RMK AO2 SLP096 T01670156 $
94908KDBQ DBQ20120630005510106/30/12 00:55:31  5-MIN KDBQ 300655Z AUTO 05005KT 10SM CLR 17/16 A2983 1170 93 1700 050/05 RMK AO2 $
94908KDBQ DBQ20120630010010106/30/12 01:00:31  5-MIN KDBQ 300700Z AUTO 00000KT 10SM CLR 17/16 A2983 1160 93 1700 000/00 RMK AO2 $
94908KDBQ DBQ20120630010510106/30/12 01:05:31  5-MIN KDBQ 300705Z AUTO 00000KT 10SM CLR 17/16 A2984 1160 93 1700 000/00 RMK AO2 $
94908KDBQ DBQ20120630011010106/30/12 01:10:31  5-MIN KDBQ 300710Z AUTO 00000KT 10SM CLR 17/16 A2984 1150 93 1700 000/00 RMK AO2 $
94908KDBQ DBQ20120630011510006/30/12 01:15:31  5-MIN KDBQ 300715Z AUTO 00000KT 9SM CLR 16/16 A2984 1150 96 1600 000/00 RMK AO2 $
94908KDBQ DBQ20120630012010106/30/12 01:20:31  5-MIN KDBQ 300720Z AUTO 00000KT 10SM CLR 17/16 A2983 1160 96 1700 000/00 RMK AO2 $
94908KDBQ DBQ20120630012510106/30/12 01:25:31  5-MIN KDBQ 300725Z AUTO 00000KT 10SM CLR 17/16 A2984 1150 96 1700 000/00 RMK AO2 $
94908KDBQ DBQ20120630013010106/30/12 01:30:31  5-MIN KDBQ 300730Z AUTO 00000KT 10SM CLR 16/16 A2984 1150 96 1600 000/00 RMK AO2 $
94908KDBQ DBQ20120630013510106/30/12 01:35:31  5-MIN KDBQ 300735Z AUTO 20003KT 10SM CLR 17/16 A2984 1150 93 1700 200/03 RMK AO2 $
94908KDBQ DBQ20120630014010106/30/12 01:40:31  5-MIN KDBQ 300740Z AUTO 00000KT 10SM CLR 17/16 A2984 1150 93 1700 000/00 RMK AO2 $
94908KDBQ DBQ20120630014510106/30/12 01:45:31  5-MIN KDBQ 300745Z AUTO 20003KT 10SM CLR 17/16 A2984 1150 96 1700 200/03 RMK AO2 $
94908KDBQ DBQ20120630015011806/30/12 01:50:31  5-MIN KDBQ 300750Z AUTO 18004KT 10SM CLR 18/16 A2984 1150 90 1800 180/04 RMK AO2 SLP099 T01780161 $
94908KDBQ DBQ20120630015510106/30/12 01:55:31  5-MIN KDBQ 300755Z AUTO 20003KT 10SM CLR 18/16 A2984 1150 90 1800 200/03 RMK AO2 $
94908KDBQ DBQ20120630020010106/30/12 02:00:31  5-MIN KDBQ 300800Z AUTO 00000KT 10SM CLR 17/16 A2985 1150 93 1700 000/00 RMK AO2 $
94908KDBQ DBQ20120630020510006/30/12 02:05:31  5-MIN KDBQ 300805Z AUTO 21003KT 9SM CLR 17/16 A2985 1150 96 1600 210/03 RMK AO2 $
94908KDBQ DBQ20120630021010006/30/12 02:10:31  5-MIN KDBQ 300810Z AUTO 22003KT 9SM CLR 17/16 A2984 1150 96 1700 220/03 RMK AO2 $
94908KDBQ DBQ20120630021510006/30/12 02:15:31  5-MIN KDBQ 300815Z AUTO 24003KT 9SM CLR 17/16 A2984 1150 96 1700 240/03 RMK AO2 $
94908KDBQ DBQ20120630022010006/30/12 02:20:31  5-MIN KDBQ 300820Z AUTO 24004KT 9SM CLR 17/16 A2984 1150 96 1700 240/04 RMK AO2 $
94908KDBQ DBQ20120630022510006/30/12 02:25:31  5-MIN KDBQ 300825Z AUTO 22003KT 9SM CLR 17/16 A2984 1150 96 1700 220/03 RMK AO2 $
94908KDBQ DBQ20120630023010006/30/12 02:30:31  5-MIN KDBQ 300830Z AUTO 22004KT 9SM CLR 17/16 A2985 1150 93 1700 220/04 RMK AO2 $
94908KDBQ DBQ20120630023510006/30/12 02:35:31  5-MIN KDBQ 300835Z AUTO 21004KT 9SM CLR 17/16 A2985 1140 96 1600 210/04 RMK AO2 $
94908KDBQ DBQ20120630024010006/30/12 02:40:31  5-MIN KDBQ 300840Z AUTO 21003KT 9SM CLR 17/16 A2984 1150 93 1700 210/03 RMK AO2 $
94908KDBQ DBQ20120630024510006/30/12 02:45:31  5-MIN KDBQ 300845Z AUTO 00000KT 9SM CLR 17/16 A2984 1150 93 1700 000/00 RMK AO2 $
94908KDBQ DBQ20120630025012306/30/12 02:50:31  5-MIN KDBQ 300850Z AUTO 00000KT 9SM CLR 17/16 A2984 1150 93 1700 000/00 RMK AO2 SLP099 T01720161 51016 $
94908KDBQ DBQ20120630025510006/30/12 02:55:31  5-MIN KDBQ 300855Z AUTO 00000KT 8SM CLR 17/16 A2984 1160 96 1700 000/00 RMK AO2 $
94908KDBQ DBQ20120630030010006/30/12 03:00:31  5-MIN KDBQ 300900Z AUTO 00000KT 8SM CLR 17/16 A2984 1160 96 1700 000/00 RMK AO2 $
94908KDBQ DBQ20120630030510006/30/12 03:05:31  5-MIN KDBQ 300905Z AUTO 00000KT 8SM CLR 17/16 A2983 1160 93 1700 000/00 RMK AO2 $
94908KDBQ DBQ20120630031010006/30/12 03:10:31  5-MIN KDBQ 300910Z AUTO 23003KT 9SM CLR 17/16 A2983 1160 93 1700 230/03 RMK AO2 $
94908KDBQ DBQ20120630031510006/30/12 03:15:31  5-MIN KDBQ 300915Z AUTO 23003KT 9SM CLR 17/16 A2983 1160 93 1700 230/03 RMK AO2 $
94908KDBQ DBQ20120630032010006/30/12 03:20:31  5-MIN KDBQ 300920Z AUTO 23003KT 9SM CLR 17/16 A2983 1160 93 1700 230/03 RMK AO2 $
94908KDBQ DBQ20120630032510006/30/12 03:25:31  5-MIN KDBQ 300925Z AUTO 00000KT 8SM CLR 17/16 A2983 1160 96 1700 000/00 RMK AO2 $
94908KDBQ DBQ20120630033011706/30/12 03:30:31  5-MIN KDBQ 300930Z AUTO 00000KT 7SM R36/3500VP6000FT CLR 17/16 A2983 1160 96 1700 000/00 RMK AO2 $
94908KDBQ DBQ20120630033511706/30/12 03:35:31  5-MIN KDBQ 300935Z AUTO 30003KT 7SM R36/3500VP6000FT CLR 17/16 A2983 1160 96 1700 300/03 RMK AO2 $
94908KDBQ DBQ20120630034010006/30/12 03:40:31  5-MIN KDBQ 300940Z AUTO 34003KT 7SM CLR 17/16 A2983 1160 96 1700 340/03 RMK AO2 $
94908KDBQ DBQ20120630034510006/30/12 03:45:31  5-MIN KDBQ 300945Z AUTO 00000KT 7SM CLR 16/16 A2983 1160 96 1600 000/00 RMK AO2 $
94908KDBQ DBQ20120630035011706/30/12 03:50:31  5-MIN KDBQ 300950Z AUTO 32003KT 8SM CLR 17/16 A2983 1160 96 1700 320/03 RMK AO2 SLP095 T01670161 $
94908KDBQ DBQ20120630035510006/30/12 03:55:31  5-MIN KDBQ 300955Z AUTO 00000KT 8SM CLR 17/16 A2983 1160 96 1700 000/00 RMK AO2 $
94908KDBQ DBQ20120630040010006/30/12 04:00:31  5-MIN KDBQ 301000Z AUTO 00000KT 8SM CLR 17/16 A2984 1160 96 1700 000/00 RMK AO2 $
94908KDBQ DBQ20120630040510006/30/12 04:05:31  5-MIN KDBQ 301005Z AUTO 33003KT 8SM CLR 17/16 A2984 1160 93 1700 330/03 RMK AO2 $
94908KDBQ DBQ20120630041010006/30/12 04:10:31  5-MIN KDBQ 301010Z AUTO 00000KT 8SM CLR 18/17 A2984 1150 93 1800 000/00 RMK AO2 $
94908KDBQ DBQ20120630041510006/30/12 04:15:31  5-MIN KDBQ 301015Z AUTO 00000KT 8SM CLR 18/17 A2984 1150 93 1800 000/00 RMK AO2 $
94908KDBQ DBQ20120630042010006/30/12 04:20:31  5-MIN KDBQ 301020Z AUTO 00000KT 9SM CLR 18/17 A2985 1150 93 1800 000/00 RMK AO2 $
94908KDBQ DBQ20120630042510006/30/12 04:25:31  5-MIN KDBQ 301025Z AUTO 00000KT 9SM CLR 18/17 A2985 1140 90 1800 000/00 RMK AO2 $
94908KDBQ DBQ20120630043010006/30/12 04:30:31  5-MIN KDBQ 301030Z AUTO 31003KT 8SM CLR 18/17 A2986 1140 93 1800 310/03 RMK AO2 $
94908KDBQ DBQ20120630043510006/30/12 04:35:31  5-MIN KDBQ 301035Z AUTO 24004KT 7SM CLR 17/17 A2986 1130 96 1700 240/04 RMK AO2 $
94908KDBQ DBQ20120630044010306/30/12 04:40:31  5-MIN KDBQ 301040Z AUTO 30004KT 6SM BR CLR 17/16 A2986 1130 96 1600 300/04 RMK AO2 $
94908KDBQ DBQ20120630044510306/30/12 04:45:31  5-MIN KDBQ 301045Z AUTO 31005KT 6SM BR CLR 17/17 A2986 1130 96 1700 310/05 RMK AO2 $
94908KDBQ DBQ20120630045011206/30/12 04:50:31  5-MIN KDBQ 301050Z 31004KT 7SM CLR 18/17 A2986 1130 93 1800 310/04 RMK AO2 SLP105 T01830172 $
94908KDBQ DBQ20120630045509506/30/12 04:55:31  5-MIN KDBQ 301055Z 21003KT 8SM CLR 18/17 A2986 1140 93 1800 210/03 RMK AO2 $
94908KDBQ DBQ20120630050009506/30/12 05:00:31  5-MIN KDBQ 301100Z 00000KT 7SM CLR 17/17 A2986 1140 96 1700 000/00 RMK AO2 $
94908KDBQ DBQ20120630050509506/30/12 05:05:31  5-MIN KDBQ 301105Z 00000KT 7SM CLR 18/17 A2986 1130 93 1800 000/00 RMK AO2 $
94908KDBQ DBQ20120630051009506/30/12 05:10:31  5-MIN KDBQ 301110Z 00000KT 7SM CLR 18/17 A2986 1130 93 1800 000/00 RMK AO2 $
94908KDBQ DBQ20120630051509806/30/12 05:15:31  5-MIN KDBQ 301115Z 00000KT 6SM BR CLR 18/17 A2986 1130 96 1800 000/00 RMK AO2 $
94908KDBQ DBQ20120630052009506/30/12 05:20:31  5-MIN KDBQ 301120Z 16003KT 7SM CLR 18/17 A2986 1140 96 1800 160/03 RMK AO2 $
94908KDBQ DBQ20120630052509506/30/12 05:25:31  5-MIN KDBQ 301125Z 00000KT 7SM CLR 18/17 A2986 1140 93 1800 000/00 RMK AO2 $
94908KDBQ DBQ20120630053009506/30/12 05:30:31  5-MIN KDBQ 301130Z 00000KT 7SM CLR 18/17 A2985 1140 93 1800 000/00 RMK AO2 $
94908KDBQ DBQ20120630053509506/30/12 05:35:31  5-MIN KDBQ 301135Z 11003KT 7SM CLR 18/17 A2985 1140 93 1800 110/03 RMK AO2 $
94908KDBQ DBQ20120630054009506/30/12 05:40:31  5-MIN KDBQ 301140Z 00000KT 7SM CLR 19/18 A2986 1140 93 1900 000/00 RMK AO2 $
94908KDBQ DBQ20120630054509506/30/12 05:45:31  5-MIN KDBQ 301145Z 00000KT 7SM CLR 19/18 A2986 1140 93 1900 000/00 RMK AO2 $
94908KDBQ DBQ20120630055013606/30/12 05:50:31  5-MIN KDBQ 301150Z 00000KT 8SM CLR 19/18 A2986 1130 90 2000 000/00 RMK AO2 SLP105 7//// T01940178 10194 20161 56007 $
94908KDBQ DBQ20120630055509506/30/12 05:55:31  5-MIN KDBQ 301155Z 00000KT 9SM CLR 19/18 A2987 1130 90 1900 000/00 RMK AO2 $
94908KDBQ DBQ20120630060009506/30/12 06:00:31  5-MIN KDBQ 301200Z 00000KT 9SM CLR 20/18 A2986 1130 87 2000 000/00 RMK AO2 $
94908KDBQ DBQ20120630060509506/30/12 06:05:31  5-MIN KDBQ 301205Z 00000KT 9SM CLR 20/18 A2987 1130 87 2000 000/00 RMK AO2 $
94908KDBQ DBQ20120630061009506/30/12 06:10:31  5-MIN KDBQ 301210Z 00000KT 9SM CLR 19/18 A2987 1130 90 1900 000/00 RMK AO2 $
94908KDBQ DBQ20120630061509506/30/12 06:15:31  5-MIN KDBQ 301215Z 00000KT 8SM CLR 19/18 A2987 1130 93 1900 000/00 RMK AO2 $
94908KDBQ DBQ20120630062009506/30/12 06:20:31  5-MIN KDBQ 301220Z 00000KT 8SM CLR 20/18 A2986 1130 90 2000 000/00 RMK AO2 $
94908KDBQ DBQ20120630062509506/30/12 06:25:31  5-MIN KDBQ 301225Z 00000KT 8SM CLR 20/18 A2986 1130 90 2000 000/00 RMK AO2 $
94908KDBQ DBQ20120630063009506/30/12 06:30:31  5-MIN KDBQ 301230Z 00000KT 8SM CLR 20/18 A2986 1140 90 2000 000/00 RMK AO2 $
94908KDBQ DBQ20120630063509506/30/12 06:35:31  5-MIN KDBQ 301235Z 00000KT 9SM CLR 21/18 A2986 1140 87 2100 000/00 RMK AO2 $
94908KDBQ DBQ20120630064009506/30/12 06:40:31  5-MIN KDBQ 301240Z 00000KT 9SM CLR 21/19 A2986 1140 87 2200 000/00 RMK AO2 $
94908KDBQ DBQ20120630064509506/30/12 06:45:31  5-MIN KDBQ 301245Z 00000KT 9SM CLR 21/19 A2986 1130 87 2100 000/00 RMK AO2 $
94908KDBQ DBQ20120630065011206/30/12 06:50:31  5-MIN KDBQ 301250Z VRB04KT 9SM CLR 22/19 A2986 1130 84 2200 VRB/04 RMK AO2 SLP107 T02170189 $
94908KDBQ DBQ20120630065509506/30/12 06:55:31  5-MIN KDBQ 301255Z 31005KT 9SM CLR 22/19 A2987 1130 84 2200 310/05 RMK AO2 $
94908KDBQ DBQ20120630070009506/30/12 07:00:31  5-MIN KDBQ 301300Z VRB04KT 9SM CLR 22/19 A2987 1120 84 2200 VRB/04 RMK AO2 $
94908KDBQ DBQ20120630070509506/30/12 07:05:31  5-MIN KDBQ 301305Z 00000KT 9SM CLR 22/19 A2987 1120 84 2200 000/00 RMK AO2 $
94908KDBQ DBQ20120630071009506/30/12 07:10:31  5-MIN KDBQ 301310Z VRB03KT 9SM CLR 22/19 A2988 1110 84 2200 VRB/03 RMK AO2 $
94908KDBQ DBQ20120630071509506/30/12 07:15:31  5-MIN KDBQ 301315Z 34003KT 9SM CLR 22/19 A2988 1110 81 2200 340/03 RMK AO2 $
94908KDBQ DBQ20120630072009606/30/12 07:20:31  5-MIN KDBQ 301320Z VRB04KT 10SM CLR 22/19 A2989 1110 81 2200 VRB/04 RMK AO2 $
94908KDBQ DBQ20120630072509606/30/12 07:25:31  5-MIN KDBQ 301325Z 00000KT 10SM CLR 22/19 A2989 1110 81 2200 000/00 RMK AO2 $
94908KDBQ DBQ20120630073009606/30/12 07:30:31  5-MIN KDBQ 301330Z 00000KT 10SM CLR 22/19 A2989 1110 81 2200 000/00 RMK AO2 $
94908KDBQ DBQ20120630073509606/30/12 07:35:31  5-MIN KDBQ 301335Z 00000KT 10SM CLR 23/19 A2989 1100 78 2300 000/00 RMK AO2 $
94908KDBQ DBQ20120630074009606/30/12 07:40:31  5-MIN KDBQ 301340Z 00000KT 10SM CLR 23/19 A2989 1110 78 2300 000/00 RMK AO2 $
94908KDBQ DBQ20120630074509606/30/12 07:45:31  5-MIN KDBQ 301345Z 00000KT 10SM CLR 23/19 A2989 1110 81 2300 000/00 RMK AO2 $
94908KDBQ DBQ20120630075011306/30/12 07:50:31  5-MIN KDBQ 301350Z 00000KT 10SM CLR 23/19 A2988 1110 78 2300 000/00 RMK AO2 SLP114 T02280189 $
94908KDBQ DBQ20120630075509606/30/12 07:55:31  5-MIN KDBQ 301355Z 35003KT 10SM CLR 23/19 A2988 1120 78 2400 350/03 RMK AO2 $
94908KDBQ DBQ20120630080009606/30/12 08:00:31  5-MIN KDBQ 301400Z 36005KT 10SM CLR 23/19 A2988 1120 78 2400 360/05 RMK AO2 $
94908KDBQ DBQ20120630080509606/30/12 08:05:31  5-MIN KDBQ 301405Z 02005KT 10SM CLR 24/19 A2988 1120 76 2400 020/05 RMK AO2 $
94908KDBQ DBQ20120630081009606/30/12 08:10:31  5-MIN KDBQ 301410Z 35004KT 10SM CLR 24/19 A2988 1120 76 2400 350/04 RMK AO2 $
94908KDBQ DBQ20120630081509606/30/12 08:15:31  5-MIN KDBQ 301415Z 33004KT 10SM CLR 24/19 A2988 1120 73 2500 330/04 RMK AO2 $
94908KDBQ DBQ20120630082009606/30/12 08:20:31  5-MIN KDBQ 301420Z 33003KT 10SM CLR 24/19 A2988 1120 73 2500 330/03 RMK AO2 $
94908KDBQ DBQ20120630082509606/30/12 08:25:31  5-MIN KDBQ 301425Z 35005KT 10SM CLR 25/19 A2988 1120 71 2600 350/05 RMK AO2 $
94908KDBQ DBQ20120630083009606/30/12 08:30:31  5-MIN KDBQ 301430Z 01006KT 10SM CLR 25/19 A2988 1120 71 2600 010/06 RMK AO2 $
94908KDBQ DBQ20120630083509606/30/12 08:35:31  5-MIN KDBQ 301435Z 01007KT 10SM CLR 25/19 A2987 1120 68 2600 010/07 RMK AO2 $
94908KDBQ DBQ20120630084009606/30/12 08:40:31  5-MIN KDBQ 301440Z 01007KT 10SM CLR 25/19 A2987 1120 71 2600 010/07 RMK AO2 $
94908KDBQ DBQ20120630084509606/30/12 08:45:31  5-MIN KDBQ 301445Z 03006KT 10SM CLR 25/19 A2987 1130 68 2600 030/06 RMK AO2 $
94908KDBQ DBQ20120630085011906/30/12 08:50:31  5-MIN KDBQ 301450Z 03005KT 10SM CLR 26/19 A2986 1130 66 2600 030/05 RMK AO2 SLP107 T02560189 53008 $
94908KDBQ DBQ20120630085509606/30/12 08:55:31  5-MIN KDBQ 301455Z 03003KT 10SM CLR 26/18 A2986 1130 64 2600 030/03 RMK AO2 $
94908KDBQ DBQ20120630090009606/30/12 09:00:31  5-MIN KDBQ 301500Z 00000KT 10SM CLR 26/19 A2986 1130 66 2700 000/00 RMK AO2 $
94908KDBQ DBQ20120630090509606/30/12 09:05:31  5-MIN KDBQ 301505Z 04003KT 10SM CLR 26/19 A2986 1130 64 2700 040/03 RMK AO2 $
94908KDBQ DBQ20120630091009606/30/12 09:10:31  5-MIN KDBQ 301510Z 00000KT 10SM CLR 26/19 A2987 1130 64 2700 000/00 RMK AO2 $
94908KDBQ DBQ20120630091509606/30/12 09:15:31  5-MIN KDBQ 301515Z VRB03KT 10SM CLR 26/19 A2987 1130 66 2700 VRB/03 RMK AO2 $
94908KDBQ DBQ20120630095011306/30/12 09:50:31  5-MIN KDBQ 301550Z 03005KT 10SM CLR 27/19 A2987 1120 62 2800 030/05 RMK AO2 SLP109 T02720194 $
94908KDBQ DBQ20120630095509606/30/12 09:55:31  5-MIN KDBQ 301555Z 36006KT 10SM CLR 27/19 A2987 1120 60 2800 360/06 RMK AO2 $
94908KDBQ DBQ20120630100009606/30/12 10:00:31  5-MIN KDBQ 301600Z 36005KT 10SM CLR 27/18 A2987 1120 58 2800 360/05 RMK AO2 $
94908KDBQ DBQ20120630100509606/30/12 10:05:31  5-MIN KDBQ 301605Z 02005KT 10SM CLR 28/18 A2987 1120 56 2900 020/05 RMK AO2 $
94908KDBQ DBQ20120630101009606/30/12 10:10:31  5-MIN KDBQ 301610Z 00000KT 10SM CLR 28/18 A2987 1120 54 2900 000/00 RMK AO2 $
94908KDBQ DBQ20120630101509606/30/12 10:15:31  5-MIN KDBQ 301615Z 35003KT 10SM CLR 28/18 A2987 1120 56 2900 350/03 RMK AO2 $
94908KDBQ DBQ20120630102009606/30/12 10:20:31  5-MIN KDBQ 301620Z 03004KT 10SM CLR 28/19 A2987 1120 58 2900 030/04 RMK AO2 $
94908KDBQ DBQ20120630102509606/30/12 10:25:31  5-MIN KDBQ 301625Z 05004KT 10SM CLR 28/19 A2987 1120 58 2900 040/04 RMK AO2 $
94908KDBQ DBQ20120630103009606/30/12 10:30:31  5-MIN KDBQ 301630Z VRB03KT 10SM CLR 28/18 A2987 1120 54 2900 VRB/03 RMK AO2 $
94908KDBQ DBQ20120630103509606/30/12 10:35:31  5-MIN KDBQ 301635Z 00000KT 10SM CLR 27/19 A2988 1120 60 2800 000/00 RMK AO2 $
94908KDBQ DBQ20120630104009606/30/12 10:40:31  5-MIN KDBQ 301640Z 00000KT 10SM CLR 28/19 A2988 1120 58 2900 000/00 RMK AO2 $
94908KDBQ DBQ20120630104509606/30/12 10:45:31  5-MIN KDBQ 301645Z 00000KT 10SM CLR 28/18 A2988 1120 54 2900 000/00 RMK AO2 $
94908KDBQ DBQ20120630105011306/30/12 10:50:31  5-MIN KDBQ 301650Z 00000KT 10SM CLR 28/18 A2988 1120 54 2900 000/00 RMK AO2 SLP110 T02780178 $
94908KDBQ DBQ20120630105509606/30/12 10:55:31  5-MIN KDBQ 301655Z 00000KT 10SM CLR 29/18 A2988 1120 50 3000 000/00 RMK AO2 $
94908KDBQ DBQ20120630110009606/30/12 11:00:31  5-MIN KDBQ 301700Z 00000KT 10SM CLR 29/18 A2988 1120 52 3000 000/00 RMK AO2 $
94908KDBQ DBQ20120630110509606/30/12 11:05:31  5-MIN KDBQ 301705Z 00000KT 10SM CLR 29/18 A2988 1120 50 3000 000/00 RMK AO2 $
94908KDBQ DBQ20120630111009606/30/12 11:10:31  5-MIN KDBQ 301710Z 03004KT 10SM CLR 29/19 A2988 1110 54 3000 030/04 RMK AO2 $
94908KDBQ DBQ20120630111509606/30/12 11:15:31  5-MIN KDBQ 301715Z 00000KT 10SM CLR 29/19 A2988 1110 54 3000 000/00 RMK AO2 $
94908KDBQ DBQ20120630112009606/30/12 11:20:31  5-MIN KDBQ 301720Z 04005KT 10SM CLR 29/19 A2988 1110 54 3000 040/05 RMK AO2 $
94908KDBQ DBQ20120630112509606/30/12 11:25:31  5-MIN KDBQ 301725Z 00000KT 10SM CLR 29/19 A2988 1110 54 3000 000/00 RMK AO2 $
94908KDBQ DBQ20120630113009606/30/12 11:30:31  5-MIN KDBQ 301730Z VRB03KT 10SM CLR 29/19 A2989 1110 54 3000 VRB/03 RMK AO2 $
94908KDBQ DBQ20120630113509606/30/12 11:35:31  5-MIN KDBQ 301735Z 00000KT 10SM CLR 29/18 A2988 1110 52 3000 000/00 RMK AO2 $
94908KDBQ DBQ20120630114009606/30/12 11:40:31  5-MIN KDBQ 301740Z 00000KT 10SM CLR 29/19 A2989 1110 52 3100 000/00 RMK AO2 $
94908KDBQ DBQ20120630114509606/30/12 11:45:31  5-MIN KDBQ 301745Z 35005KT 10SM CLR 29/18 A2989 1110 50 3100 350/05 RMK AO2 $
94908KDBQ DBQ20120630115013106/30/12 11:50:31  5-MIN KDBQ 301750Z VRB03KT 10SM CLR 29/18 A2988 1110 50 3100 VRB/03 RMK AO2 SLP112 T02940183 10294 20194 58000 $
94908KDBQ DBQ20120630115509606/30/12 11:55:31  5-MIN KDBQ 301755Z 02004KT 10SM CLR 29/18 A2988 1110 50 3100 020/04 RMK AO2 $
94908KDBQ DBQ20120630120009606/30/12 12:00:31  5-MIN KDBQ 301800Z 00000KT 10SM CLR 29/18 A2988 1120 50 3100 000/00 RMK AO2 $
94908KDBQ DBQ20120630120509606/30/12 12:05:31  5-MIN KDBQ 301805Z VRB03KT 10SM CLR 29/18 A2988 1120 50 3100 VRB/03 RMK AO2 $
94908KDBQ DBQ20120630121009606/30/12 12:10:31  5-MIN KDBQ 301810Z 00000KT 10SM CLR 29/18 A2988 1120 50 3100 000/00 RMK AO2 $
94908KDBQ DBQ20120630121509606/30/12 12:15:31  5-MIN KDBQ 301815Z 00000KT 10SM CLR 29/18 A2988 1120 52 3000 000/00 RMK AO2 $
94908KDBQ DBQ20120630122009606/30/12 12:20:31  5-MIN KDBQ 301820Z 00000KT 10SM CLR 29/18 A2988 1120 50 3100 000/00 RMK AO2 $
94908KDBQ DBQ20120630122509606/30/12 12:25:31  5-MIN KDBQ 301825Z 00000KT 10SM CLR 30/18 A2988 1120 47 3100 000/00 RMK AO2 $
94908KDBQ DBQ20120630123009606/30/12 12:30:31  5-MIN KDBQ 301830Z 00000KT 10SM CLR 30/18 A2988 1120 47 3100 000/00 RMK AO2 $
94908KDBQ DBQ20120630123511306/30/12 12:35:31  5-MIN KDBQ 301835Z 02003KT 10SM R36/6000VP6000FT CLR 31/18 A2987 1120 46 3200 010/03 RMK AO2 $
94908KDBQ DBQ20120630124011306/30/12 12:40:31  5-MIN KDBQ 301840Z 00000KT 10SM R36/6000VP6000FT CLR 30/17 A2987 1120 45 3100 000/00 RMK AO2 $
94908KDBQ DBQ20120630124509606/30/12 12:45:31  5-MIN KDBQ 301845Z 00000KT 10SM CLR 31/17 A2987 1120 42 3200 000/00 RMK AO2 $
94908KDBQ DBQ20120630125011306/30/12 12:50:31  5-MIN KDBQ 301850Z VRB03KT 10SM CLR 30/17 A2987 1130 44 3100 VRB/03 RMK AO2 SLP107 T03000167 $
94908KDBQ DBQ20120630125509606/30/12 12:55:31  5-MIN KDBQ 301855Z 15004KT 10SM CLR 29/16 A2987 1130 42 3100 150/04 RMK AO2 $
94908KDBQ DBQ20120630130009606/30/12 13:00:31  5-MIN KDBQ 301900Z 15003KT 10SM CLR 29/17 A2987 1130 45 3100 140/03 RMK AO2 $
94908KDBQ DBQ20120630130509606/30/12 13:05:31  5-MIN KDBQ 301905Z VRB03KT 10SM CLR 29/17 A2987 1130 45 3100 VRB/03 RMK AO2 $
94908KDBQ DBQ20120630131009606/30/12 13:10:31  5-MIN KDBQ 301910Z 00000KT 10SM CLR 30/17 A2987 1130 44 3100 000/00 RMK AO2 $
94908KDBQ DBQ20120630131509606/30/12 13:15:31  5-MIN KDBQ 301915Z 00000KT 10SM CLR 30/17 A2987 1130 45 3100 000/00 RMK AO2 $
94908KDBQ DBQ20120630132009606/30/12 13:20:31  5-MIN KDBQ 301920Z 00000KT 10SM CLR 30/18 A2987 1130 47 3100 000/00 RMK AO2 $
94908KDBQ DBQ20120630132509606/30/12 13:25:31  5-MIN KDBQ 301925Z 00000KT 10SM CLR 30/18 A2987 1130 47 3100 000/00 RMK AO2 $
94908KDBQ DBQ20120630133009606/30/12 13:30:31  5-MIN KDBQ 301930Z VRB04KT 10SM CLR 30/18 A2987 1130 47 3100 VRB/04 RMK AO2 $
94908KDBQ DBQ20120630133509606/30/12 13:35:31  5-MIN KDBQ 301935Z VRB03KT 10SM CLR 30/18 A2986 1130 47 3100 VRB/03 RMK AO2 $
94908KDBQ DBQ20120630134009606/30/12 13:40:31  5-MIN KDBQ 301940Z 26005KT 10SM CLR 31/18 A2986 1130 46 3200 260/05 RMK AO2 $
94908KDBQ DBQ20120630134509606/30/12 13:45:31  5-MIN KDBQ 301945Z 00000KT 10SM CLR 31/17 A2987 1130 44 3200 000/00 RMK AO2 $
94908KDBQ DBQ20120630135011306/30/12 13:50:31  5-MIN KDBQ 301950Z VRB03KT 10SM CLR 31/18 A2986 1130 46 3200 VRB/03 RMK AO2 SLP105 T03060178 $
94908KDBQ DBQ20120630135509606/30/12 13:55:31  5-MIN KDBQ 301955Z 00000KT 10SM CLR 30/17 A2987 1130 45 3100 000/00 RMK AO2 $
94908KDBQ DBQ20120630140009606/30/12 14:00:31  5-MIN KDBQ 302000Z 00000KT 10SM CLR 30/17 A2987 1130 45 3100 000/00 RMK AO2 $
94908KDBQ DBQ20120630140509606/30/12 14:05:31  5-MIN KDBQ 302005Z VRB03KT 10SM CLR 31/17 A2987 1130 44 3200 VRB/03 RMK AO2 $
94908KDBQ DBQ20120630141009606/30/12 14:10:31  5-MIN KDBQ 302010Z 17004KT 10SM CLR 31/18 A2986 1130 46 3200 170/04 RMK AO2 $
94908KDBQ DBQ20120630141509606/30/12 14:15:31  5-MIN KDBQ 302015Z 18003KT 10SM CLR 30/18 A2986 1130 47 3100 180/03 RMK AO2 $
94908KDBQ DBQ20120630142009606/30/12 14:20:31  5-MIN KDBQ 302020Z 00000KT 10SM CLR 30/17 A2987 1130 45 3100 000/00 RMK AO2 $
94908KDBQ DBQ20120630142509606/30/12 14:25:31  5-MIN KDBQ 302025Z 00000KT 10SM CLR 31/17 A2987 1130 42 3200 000/00 RMK AO2 $
94908KDBQ DBQ20120630143009606/30/12 14:30:31  5-MIN KDBQ 302030Z 29003KT 10SM CLR 31/17 A2987 1130 42 3300 290/03 RMK AO2 $
94908KDBQ DBQ20120630143509606/30/12 14:35:31  5-MIN KDBQ 302035Z VRB03KT 10SM CLR 31/17 A2987 1130 42 3300 VRB/03 RMK AO2 $
94908KDBQ DBQ20120630144009606/30/12 14:40:31  5-MIN KDBQ 302040Z 00000KT 10SM CLR 31/17 A2987 1120 42 3300 000/00 RMK AO2 $
94908KDBQ DBQ20120630144509606/30/12 14:45:31  5-MIN KDBQ 302045Z 00000KT 10SM CLR 31/17 A2987 1120 42 3300 000/00 RMK AO2 $
94908KDBQ DBQ20120630145011906/30/12 14:50:31  5-MIN KDBQ 302050Z VRB04KT 10SM CLR 31/17 A2987 1120 42 3300 VRB/04 RMK AO2 SLP107 T03110172 51007 $
94908KDBQ DBQ20120630145509606/30/12 14:55:31  5-MIN KDBQ 302055Z 00000KT 10SM CLR 31/17 A2987 1120 44 3200 000/00 RMK AO2 $
94908KDBQ DBQ20120630150009606/30/12 15:00:31  5-MIN KDBQ 302100Z 22003KT 10SM CLR 31/17 A2987 1120 44 3200 220/03 RMK AO2 $
94908KDBQ DBQ20120630150509606/30/12 15:05:31  5-MIN KDBQ 302105Z 26003KT 10SM CLR 31/17 A2987 1120 42 3200 260/03 RMK AO2 $
94908KDBQ DBQ20120630151009606/30/12 15:10:31  5-MIN KDBQ 302110Z 23003KT 10SM CLR 31/17 A2987 1120 44 3200 230/03 RMK AO2 $
94908KDBQ DBQ20120630151509606/30/12 15:15:31  5-MIN KDBQ 302115Z 27004KT 10SM CLR 31/17 A2987 1120 42 3300 270/04 RMK AO2 $
94908KDBQ DBQ20120630152009606/30/12 15:20:31  5-MIN KDBQ 302120Z 00000KT 10SM CLR 31/17 A2987 1120 42 3300 000/00 RMK AO2 $
94908KDBQ DBQ20120630152509606/30/12 15:25:31  5-MIN KDBQ 302125Z 23003KT 10SM CLR 31/17 A2988 1120 42 3200 230/03 RMK AO2 $
94908KDBQ DBQ20120630153009606/30/12 15:30:31  5-MIN KDBQ 302130Z 00000KT 10SM CLR 31/18 A2987 1120 44 3300 000/00 RMK AO2 $
94908KDBQ DBQ20120630153509606/30/12 15:35:31  5-MIN KDBQ 302135Z 00000KT 10SM CLR 31/17 A2987 1120 42 3300 000/00 RMK AO2 $
94908KDBQ DBQ20120630154009606/30/12 15:40:31  5-MIN KDBQ 302140Z 18004KT 10SM CLR 31/17 A2987 1130 42 3300 180/04 RMK AO2 $
94908KDBQ DBQ20120630154509606/30/12 15:45:31  5-MIN KDBQ 302145Z 18003KT 10SM CLR 31/17 A2987 1130 44 3200 180/03 RMK AO2 $
94908KDBQ DBQ20120630155011306/30/12 15:50:31  5-MIN KDBQ 302150Z 16003KT 10SM CLR 31/17 A2987 1130 44 3200 160/03 RMK AO2 SLP107 T03060172 $
94908KDBQ DBQ20120630155509606/30/12 15:55:31  5-MIN KDBQ 302155Z 18003KT 10SM CLR 31/17 A2987 1130 44 3200 180/03 RMK AO2 $
94908KDBQ DBQ20120630160009606/30/12 16:00:31  5-MIN KDBQ 302200Z 00000KT 10SM CLR 31/17 A2987 1130 44 3200 000/00 RMK AO2 $
94908KDBQ DBQ20120630160509606/30/12 16:05:31  5-MIN KDBQ 302205Z 18003KT 10SM CLR 31/18 A2987 1130 44 3300 180/03 RMK AO2 $
94908KDBQ DBQ20120630161009606/30/12 16:10:31  5-MIN KDBQ 302210Z VRB03KT 10SM CLR 31/17 A2987 1130 44 3200 VRB/03 RMK AO2 $
94908KDBQ DBQ20120630161509606/30/12 16:15:31  5-MIN KDBQ 302215Z VRB03KT 10SM CLR 31/18 A2987 1120 46 3200 VRB/03 RMK AO2 $
94908KDBQ DBQ20120630162009606/30/12 16:20:31  5-MIN KDBQ 302220Z 21003KT 10SM CLR 31/18 A2987 1120 46 3200 210/03 RMK AO2 $
94908KDBQ DBQ20120630162509606/30/12 16:25:31  5-MIN KDBQ 302225Z 24004KT 10SM CLR 31/18 A2987 1120 46 3200 240/04 RMK AO2 $
94908KDBQ DBQ20120630163009606/30/12 16:30:31  5-MIN KDBQ 302230Z 23004KT 10SM CLR 31/18 A2987 1120 46 3200 230/04 RMK AO2 $
94908KDBQ DBQ20120630163509606/30/12 16:35:31  5-MIN KDBQ 302235Z 23003KT 10SM CLR 31/18 A2987 1120 47 3200 230/03 RMK AO2 $
94908KDBQ DBQ20120630164009606/30/12 16:40:31  5-MIN KDBQ 302240Z 20005KT 10SM CLR 31/18 A2987 1130 47 3200 200/05 RMK AO2 $
94908KDBQ DBQ20120630164509606/30/12 16:45:31  5-MIN KDBQ 302245Z 24004KT 10SM CLR 30/18 A2987 1130 49 3100 230/04 RMK AO2 $
94908KDBQ DBQ20120630165011306/30/12 16:50:31  5-MIN KDBQ 302250Z 25005KT 10SM CLR 31/18 A2987 1120 47 3200 250/05 RMK AO2 SLP107 T03060183 $
94908KDBQ DBQ20120630165509606/30/12 16:55:31  5-MIN KDBQ 302255Z 24005KT 10SM CLR 30/18 A2987 1130 49 3100 240/05 RMK AO2 $
94908KDBQ DBQ20120630170009606/30/12 17:00:31  5-MIN KDBQ 302300Z 24004KT 10SM CLR 30/18 A2987 1120 49 3100 240/04 RMK AO2 $
94908KDBQ DBQ20120630170509606/30/12 17:05:31  5-MIN KDBQ 302305Z 26003KT 10SM CLR 30/19 A2987 1120 51 3100 260/03 RMK AO2 $
94908KDBQ DBQ20120630171009606/30/12 17:10:31  5-MIN KDBQ 302310Z 24004KT 10SM CLR 30/19 A2987 1120 51 3100 240/04 RMK AO2 $
94908KDBQ DBQ20120630171509606/30/12 17:15:31  5-MIN KDBQ 302315Z 26004KT 10SM CLR 30/18 A2987 1120 49 3100 260/04 RMK AO2 $
94908KDBQ DBQ20120630172009606/30/12 17:20:31  5-MIN KDBQ 302320Z 25004KT 10SM CLR 31/18 A2987 1130 47 3200 250/04 RMK AO2 $
94908KDBQ DBQ20120630172509606/30/12 17:25:31  5-MIN KDBQ 302325Z 23004KT 10SM CLR 30/19 A2987 1130 51 3100 230/04 RMK AO2 $
94908KDBQ DBQ20120630173009606/30/12 17:30:31  5-MIN KDBQ 302330Z 23004KT 10SM CLR 30/19 A2986 1130 51 3100 230/04 RMK AO2 $
94908KDBQ DBQ20120630173509606/30/12 17:35:31  5-MIN KDBQ 302335Z 24004KT 10SM CLR 30/19 A2986 1140 52 3100 240/04 RMK AO2 $
94908KDBQ DBQ20120630174009606/30/12 17:40:31  5-MIN KDBQ 302340Z 24004KT 10SM CLR 30/18 A2986 1140 49 3100 240/04 RMK AO2 $
94908KDBQ DBQ20120630174509606/30/12 17:45:31  5-MIN KDBQ 302345Z 25004KT 10SM CLR 30/19 A2986 1130 52 3100 250/04 RMK AO2 $
94908KDBQ DBQ20120630175013106/30/12 17:50:31  5-MIN KDBQ 302350Z 25004KT 10SM CLR 29/20 A2986 1130 56 3100 250/04 RMK AO2 SLP105 T02940200 10311 20289 55003 $
94908KDBQ DBQ20120630175509606/30/12 17:55:31  5-MIN KDBQ 302355Z 24004KT 10SM CLR 29/19 A2987 1130 54 3100 240/04 RMK AO2 $
94908KDBQ DBQ20120630180009606/30/12 18:00:31  5-MIN KDBQ 010000Z 24004KT 10SM CLR 29/20 A2987 1130 56 3100 240/04 RMK AO2 $
94908KDBQ DBQ20120630180509606/30/12 18:05:31  5-MIN KDBQ 010005Z 25004KT 10SM CLR 29/20 A2987 1120 56 3100 250/04 RMK AO2 $
94908KDBQ DBQ20120630181009606/30/12 18:10:31  5-MIN KDBQ 010010Z 25003KT 10SM CLR 29/20 A2988 1120 56 3100 250/03 RMK AO2 $
94908KDBQ DBQ20120630181509606/30/12 18:15:31  5-MIN KDBQ 010015Z 25003KT 10SM CLR 29/21 A2988 1120 60 3000 250/03 RMK AO2 $
94908KDBQ DBQ20120630182009606/30/12 18:20:31  5-MIN KDBQ 010020Z 00000KT 10SM CLR 29/21 A2988 1120 60 3000 000/00 RMK AO2 $
94908KDBQ DBQ20120630182509606/30/12 18:25:31  5-MIN KDBQ 010025Z 24003KT 10SM CLR 29/20 A2988 1120 58 3000 240/03 RMK AO2 $
94908KDBQ DBQ20120630183009606/30/12 18:30:31  5-MIN KDBQ 010030Z 24003KT 10SM CLR 29/21 A2988 1110 60 3000 230/03 RMK AO2 $
94908KDBQ DBQ20120630183509606/30/12 18:35:31  5-MIN KDBQ 010035Z 23003KT 10SM CLR 28/21 A2988 1120 62 2900 230/03 RMK AO2 $
94908KDBQ DBQ20120630184009606/30/12 18:40:31  5-MIN KDBQ 010040Z 22003KT 10SM CLR 28/21 A2988 1120 62 2900 220/03 RMK AO2 $
94908KDBQ DBQ20120630184509606/30/12 18:45:31  5-MIN KDBQ 010045Z 00000KT 10SM CLR 28/21 A2988 1120 62 2900 000/00 RMK AO2 $
94908KDBQ DBQ20120630185011806/30/12 18:50:31  5-MIN KDBQ 010050Z AUTO 18003KT 10SM CLR 28/21 A2988 1120 64 2900 180/03 RMK AO2 SLP109 T02830211 $
94908KDBQ DBQ20120630185510106/30/12 18:55:31  5-MIN KDBQ 010055Z AUTO 19004KT 10SM CLR 28/22 A2987 1120 69 2900 190/04 RMK AO2 $
94908KDBQ DBQ20120630190010106/30/12 19:00:31  5-MIN KDBQ 010100Z AUTO 20004KT 10SM CLR 27/22 A2987 1120 71 2800 200/04 RMK AO2 $
94908KDBQ DBQ20120630190510106/30/12 19:05:31  5-MIN KDBQ 010105Z AUTO 22003KT 10SM CLR 27/22 A2988 1120 71 2800 220/03 RMK AO2 $
94908KDBQ DBQ20120630191010106/30/12 19:10:31  5-MIN KDBQ 010110Z AUTO 24003KT 10SM CLR 27/22 A2988 1120 71 2800 240/03 RMK AO2 $
94908KDBQ DBQ20120630191510106/30/12 19:15:31  5-MIN KDBQ 010115Z AUTO 00000KT 10SM CLR 27/21 A2988 1120 69 2800 000/00 RMK AO2 $
94908KDBQ DBQ20120630192010106/30/12 19:20:31  5-MIN KDBQ 010120Z AUTO 25003KT 10SM CLR 27/22 A2988 1110 73 2700 250/03 RMK AO2 $
94908KDBQ DBQ20120630192510106/30/12 19:25:31  5-MIN KDBQ 010125Z AUTO 25003KT 10SM CLR 27/22 A2988 1110 73 2700 250/03 RMK AO2 $
94908KDBQ DBQ20120630193010106/30/12 19:30:31  5-MIN KDBQ 010130Z AUTO 25003KT 10SM CLR 26/21 A2988 1110 73 2700 250/03 RMK AO2 $
94908KDBQ DBQ20120630193510106/30/12 19:35:31  5-MIN KDBQ 010135Z AUTO 23003KT 10SM CLR 26/21 A2988 1120 73 2700 230/03 RMK AO2 $
94908KDBQ DBQ20120630194010106/30/12 19:40:31  5-MIN KDBQ 010140Z AUTO 21003KT 10SM CLR 26/21 A2988 1120 73 2700 210/03 RMK AO2 $
94908KDBQ DBQ20120630194510106/30/12 19:45:31  5-MIN KDBQ 010145Z AUTO 00000KT 10SM CLR 26/22 A2987 1120 79 2600 000/00 RMK AO2 $
94908KDBQ DBQ20120630195011806/30/12 19:50:31  5-MIN KDBQ 010150Z AUTO 00000KT 10SM CLR 26/22 A2987 1120 79 2600 000/00 RMK AO2 SLP108 T02560217 $
94908KDBQ DBQ20120630195510106/30/12 19:55:31  5-MIN KDBQ 010155Z AUTO 00000KT 10SM CLR 26/22 A2988 1120 79 2600 000/00 RMK AO2 $
94908KDBQ DBQ20120630200010106/30/12 20:00:31  5-MIN KDBQ 010200Z AUTO 00000KT 10SM CLR 26/22 A2988 1120 79 2600 000/00 RMK AO2 $
94908KDBQ DBQ20120630200510106/30/12 20:05:31  5-MIN KDBQ 010205Z AUTO 00000KT 10SM CLR 24/21 A2987 1120 81 2500 000/00 RMK AO2 $
94908KDBQ DBQ20120630201010106/30/12 20:10:31  5-MIN KDBQ 010210Z AUTO 00000KT 10SM CLR 24/22 A2987 1130 84 2500 000/00 RMK AO2 $
94908KDBQ DBQ20120630201510106/30/12 20:15:31  5-MIN KDBQ 010215Z AUTO 00000KT 10SM CLR 24/21 A2987 1130 81 2500 000/00 RMK AO2 $
94908KDBQ DBQ20120630202010106/30/12 20:20:31  5-MIN KDBQ 010220Z AUTO 00000KT 10SM CLR 24/21 A2987 1120 81 2500 000/00 RMK AO2 $
94908KDBQ DBQ20120630202510106/30/12 20:25:31  5-MIN KDBQ 010225Z AUTO 00000KT 10SM CLR 24/21 A2987 1120 81 2400 000/00 RMK AO2 $
94908KDBQ DBQ20120630203010106/30/12 20:30:31  5-MIN KDBQ 010230Z AUTO 00000KT 10SM CLR 23/21 A2988 1120 87 2400 000/00 RMK AO2 $
94908KDBQ DBQ20120630203510106/30/12 20:35:31  5-MIN KDBQ 010235Z AUTO 00000KT 10SM CLR 23/21 A2988 1120 87 2300 000/00 RMK AO2 $
94908KDBQ DBQ20120630204010106/30/12 20:40:31  5-MIN KDBQ 010240Z AUTO 00000KT 10SM CLR 24/20 A2988 1120 78 2400 000/00 RMK AO2 $
94908KDBQ DBQ20120630204510106/30/12 20:45:31  5-MIN KDBQ 010245Z AUTO 18003KT 10SM CLR 24/20 A2988 1120 76 2500 180/03 RMK AO2 $
94908KDBQ DBQ20120630205012406/30/12 20:50:31  5-MIN KDBQ 010250Z AUTO 20003KT 10SM CLR 24/20 A2988 1120 78 2400 190/03 RMK AO2 SLP110 T02390200 56002 $
94908KDBQ DBQ20120630205510106/30/12 20:55:31  5-MIN KDBQ 010255Z AUTO 00000KT 10SM CLR 23/20 A2988 1110 81 2400 000/00 RMK AO2 $
94908KDBQ DBQ20120630210010106/30/12 21:00:31  5-MIN KDBQ 010300Z AUTO 00000KT 10SM CLR 23/20 A2988 1110 84 2300 000/00 RMK AO2 $
94908KDBQ DBQ20120630210510106/30/12 21:05:31  5-MIN KDBQ 010305Z AUTO 00000KT 10SM CLR 23/20 A2989 1110 84 2300 000/00 RMK AO2 $
94908KDBQ DBQ20120630211010106/30/12 21:10:31  5-MIN KDBQ 010310Z AUTO 00000KT 10SM CLR 23/21 A2988 1110 84 2400 000/00 RMK AO2 $
94908KDBQ DBQ20120630211510106/30/12 21:15:31  5-MIN KDBQ 010315Z AUTO 00000KT 10SM CLR 23/21 A2988 1110 84 2400 000/00 RMK AO2 $
94908KDBQ DBQ20120630212010106/30/12 21:20:31  5-MIN KDBQ 010320Z AUTO 00000KT 10SM CLR 23/21 A2989 1110 87 2300 000/00 RMK AO2 $
94908KDBQ DBQ20120630212510106/30/12 21:25:31  5-MIN KDBQ 010325Z AUTO 00000KT 10SM CLR 23/21 A2989 1110 84 2400 000/00 RMK AO2 $
94908KDBQ DBQ20120630213010106/30/12 21:30:31  5-MIN KDBQ 010330Z AUTO 00000KT 10SM CLR 23/21 A2989 1110 87 2300 000/00 RMK AO2 $
94908KDBQ DBQ20120630213510106/30/12 21:35:31  5-MIN KDBQ 010335Z AUTO 00000KT 10SM CLR 23/21 A2989 1110 87 2300 000/00 RMK AO2 $
94908KDBQ DBQ20120630214010106/30/12 21:40:31  5-MIN KDBQ 010340Z AUTO 00000KT 10SM CLR 23/21 A2990 1100 87 2300 000/00 RMK AO2 $
94908KDBQ DBQ20120630214510106/30/12 21:45:31  5-MIN KDBQ 010345Z AUTO 00000KT 10SM CLR 23/21 A2990 1100 87 2300 000/00 RMK AO2 $
94908KDBQ DBQ20120630215011806/30/12 21:50:31  5-MIN KDBQ 010350Z AUTO 00000KT 10SM CLR 23/20 A2989 1100 84 2300 000/00 RMK AO2 SLP115 T02280200 $
94908KDBQ DBQ20120630215510106/30/12 21:55:31  5-MIN KDBQ 010355Z AUTO 00000KT 10SM CLR 23/20 A2990 1100 84 2300 000/00 RMK AO2 $
94908KDBQ DBQ20120630220010106/30/12 22:00:31  5-MIN KDBQ 010400Z AUTO 00000KT 10SM CLR 23/20 A2990 1100 84 2300 000/00 RMK AO2 $
94908KDBQ DBQ20120630220510106/30/12 22:05:31  5-MIN KDBQ 010405Z AUTO 00000KT 10SM CLR 22/20 A2990 1100 87 2200 000/00 RMK AO2 $
94908KDBQ DBQ20120630221010106/30/12 22:10:31  5-MIN KDBQ 010410Z AUTO 00000KT 10SM CLR 22/21 A2990 1100 90 2200 000/00 RMK AO2 $
94908KDBQ DBQ20120630221510106/30/12 22:15:31  5-MIN KDBQ 010415Z AUTO 00000KT 10SM CLR 22/21 A2990 1100 90 2200 000/00 RMK AO2 $
94908KDBQ DBQ20120630222010006/30/12 22:20:31  5-MIN KDBQ 010420Z AUTO 00000KT 9SM CLR 22/21 A2990 1100 90 2200 000/00 RMK AO2 $
94908KDBQ DBQ20120630222510006/30/12 22:25:31  5-MIN KDBQ 010425Z AUTO 00000KT 9SM CLR 22/21 A2990 1100 90 2200 000/00 RMK AO2 $
94908KDBQ DBQ20120630223010006/30/12 22:30:31  5-MIN KDBQ 010430Z AUTO 00000KT 9SM CLR 23/21 A2989 1100 87 2300 000/00 RMK AO2 $
94908KDBQ DBQ20120630223510006/30/12 22:35:31  5-MIN KDBQ 010435Z AUTO 00000KT 9SM CLR 22/21 A2989 1100 93 2200 000/00 RMK AO2 $
94908KDBQ DBQ20120630224010006/30/12 22:40:31  5-MIN KDBQ 010440Z AUTO 00000KT 9SM CLR 22/21 A2989 1100 93 2200 000/00 RMK AO2 $
94908KDBQ DBQ20120630224510006/30/12 22:45:31  5-MIN KDBQ 010445Z AUTO 00000KT 9SM CLR 22/20 A2989 1100 90 2200 000/00 RMK AO2 $
94908KDBQ DBQ20120630225011706/30/12 22:50:31  5-MIN KDBQ 010450Z AUTO 00000KT 8SM CLR 21/20 A2989 1100 93 2100 000/00 RMK AO2 SLP115 T02110200 $
94908KDBQ DBQ20120630225510006/30/12 22:55:31  5-MIN KDBQ 010455Z AUTO 00000KT 7SM CLR 22/20 A2990 1100 90 2200 000/00 RMK AO2 $
94908KDBQ DBQ20120630230010006/30/12 23:00:31  5-MIN KDBQ 010500Z AUTO 00000KT 7SM CLR 21/19 A2990 1100 90 2100 000/00 RMK AO2 $
94908KDBQ DBQ20120630230510006/30/12 23:05:31  5-MIN KDBQ 010505Z AUTO 00000KT 8SM CLR 21/19 A2990 1100 90 2100 000/00 RMK AO2 $
94908KDBQ DBQ20120630231010006/30/12 23:10:31  5-MIN KDBQ 010510Z AUTO 00000KT 9SM CLR 21/19 A2990 1090 90 2100 000/00 RMK AO2 $
94908KDBQ DBQ20120630231510006/30/12 23:15:31  5-MIN KDBQ 010515Z AUTO 00000KT 9SM CLR 22/19 A2990 1090 87 2200 000/00 RMK AO2 $
94908KDBQ DBQ20120630232010006/30/12 23:20:31  5-MIN KDBQ 010520Z AUTO 00000KT 9SM CLR 21/19 A2991 1090 90 2100 000/00 RMK AO2 $
94908KDBQ DBQ20120630232510006/30/12 23:25:31  5-MIN KDBQ 010525Z AUTO 00000KT 8SM CLR 21/19 A2991 1090 90 2100 000/00 RMK AO2 $
94908KDBQ DBQ20120630233010006/30/12 23:30:31  5-MIN KDBQ 010530Z AUTO 00000KT 7SM CLR 21/19 A2991 1090 93 2000 000/00 RMK AO2 $
94908KDBQ DBQ20120630233510006/30/12 23:35:31  5-MIN KDBQ 010535Z AUTO 00000KT 7SM CLR 21/19 A2991 1090 93 2000 000/00 RMK AO2 $
94908KDBQ DBQ20120630234010006/30/12 23:40:31  5-MIN KDBQ 010540Z AUTO 00000KT 8SM CLR 21/19 A2991 1090 90 2100 000/00 RMK AO2 $
94908KDBQ DBQ20120630234510006/30/12 23:45:31  5-MIN KDBQ 010545Z AUTO 00000KT 8SM CLR 21/19 A2991 1080 93 2000 000/00 RMK AO2 $
94908KDBQ DBQ20120630235014506/30/12 23:50:31  5-MIN KDBQ 010550Z AUTO 00000KT 8SM CLR 21/19 A2991 1080 93 2000 000/00 RMK AO2 SLP122 T02060194 10294 20206 403110161 51005 $
94908KDBQ DBQ20120630235510006/30/12 23:55:31  5-MIN KDBQ 010555Z AUTO 00000KT 7SM CLR 21/19 A2991 1080 90 2100 000/00 RMK AO2 $
